<?xml version="1.0" encoding="UTF-8"?>
<gpx xmlns:xsi="http://www.w3.org/2001/XMLSchema-instance" xmlns="http://www.topografix.com/GPX/1/0" xsi:schemaLocation="http://www.topografix.com/GPX/1/1 http://www.topografix.com/GPX/1/1/gpx.xsd" creator="Geographica - http://geographica.biz/" appVersion="Ver 2.1.57:4405" device="google sunfish" android="13" carrier="povo">
<trk>
<name>20260816</name>
<trkseg>
<trkpt lat="35.840278" lon="139.065851">
<ele>479.000000</ele>
<time>2026-08-16T02:53:43Z</time>
<speed>0.000000</speed>
<trueHeading>0.000000</trueHeading>
<magneticHeading>0.000000</magneticHeading>
<gpsHeading>0.000000</gpsHeading>
<haccuracy>24.931555</haccuracy>
<vaccuracy>24.931555</vaccuracy>
<internetconnect>2</internetconnect>
</trkpt>
<trkpt lat="35.840277" lon="139.065870">
<ele>488.000000</ele>
<time>2026-08-16T02:53:45Z</time>
<speed>0.000000</speed>
<trueHeading>0.000000</trueHeading>
<magneticHeading>0.000000</magneticHeading>
<gpsHeading>0.000000</gpsHeading>
<haccuracy>29.646000</haccuracy>
<vaccuracy>29.646000</vaccuracy>
<internetconnect>2</internetconnect>
</trkpt>
<trkpt lat="35.840520" lon="139.065203">
<ele>497.000000</ele>
<time>2026-08-16T02:54:32Z</time>
<speed>1.557883</speed>
<trueHeading>0.000000</trueHeading>
<magneticHeading>0.000000</magneticHeading>
<gpsHeading>294.215881</gpsHeading>
<haccuracy>5.652000</haccuracy>
<vaccuracy>5.652000</vaccuracy>
<internetconnect>2</internetconnect>
</trkpt>
<trkpt lat="35.841114" lon="139.065059">
<ele>521.666667</ele>
<time>2026-08-16T02:55:23Z</time>
<speed>0.855018</speed>
<trueHeading>0.000000</trueHeading>
<magneticHeading>0.000000</magneticHeading>
<gpsHeading>348.874146</gpsHeading>
<haccuracy>6.152000</haccuracy>
<vaccuracy>6.152000</vaccuracy>
<internetconnect>2</internetconnect>
</trkpt>
<trkpt lat="35.841345" lon="139.065282">
<ele>536.333333</ele>
<time>2026-08-16T02:56:41Z</time>
<speed>1.161464</speed>
<trueHeading>0.000000</trueHeading>
<magneticHeading>0.000000</magneticHeading>
<gpsHeading>38.117958</gpsHeading>
<haccuracy>3.276000</haccuracy>
<vaccuracy>3.276000</vaccuracy>
<internetconnect>2</internetconnect>
</trkpt>
<trkpt lat="35.841721" lon="139.065127">
<ele>550.333333</ele>
<time>2026-08-16T02:57:28Z</time>
<speed>0.943618</speed>
<trueHeading>0.000000</trueHeading>
<magneticHeading>0.000000</magneticHeading>
<gpsHeading>341.587067</gpsHeading>
<haccuracy>5.823000</haccuracy>
<vaccuracy>5.823000</vaccuracy>
<internetconnect>2</internetconnect>
</trkpt>
<trkpt lat="35.841682" lon="139.065149">
<ele>548.666667</ele>
<time>2026-08-16T03:03:10Z</time>
<speed>0.223801</speed>
<trueHeading>0.000000</trueHeading>
<magneticHeading>0.000000</magneticHeading>
<gpsHeading>155.271927</gpsHeading>
<haccuracy>5.149000</haccuracy>
<vaccuracy>5.149000</vaccuracy>
<internetconnect>2</internetconnect>
</trkpt>
<trkpt lat="35.841679" lon="139.065136">
<ele>548.000000</ele>
<time>2026-08-16T03:06:02Z</time>
<speed>0.115536</speed>
<trueHeading>0.000000</trueHeading>
<magneticHeading>0.000000</magneticHeading>
<gpsHeading>250.448715</gpsHeading>
<haccuracy>5.111000</haccuracy>
<vaccuracy>5.111000</vaccuracy>
<internetconnect>2</internetconnect>
</trkpt>
<trkpt lat="35.841678" lon="139.065125">
<ele>542.000000</ele>
<time>2026-08-16T03:09:41Z</time>
<speed>0.099959</speed>
<trueHeading>0.000000</trueHeading>
<magneticHeading>0.000000</magneticHeading>
<gpsHeading>263.152435</gpsHeading>
<haccuracy>4.587000</haccuracy>
<vaccuracy>4.587000</vaccuracy>
<internetconnect>2</internetconnect>
</trkpt>
<trkpt lat="35.841674" lon="139.065069">
<ele>548.000000</ele>
<time>2026-08-16T03:11:52Z</time>
<speed>0.877197</speed>
<trueHeading>0.000000</trueHeading>
<magneticHeading>0.000000</magneticHeading>
<gpsHeading>265.441467</gpsHeading>
<haccuracy>9.284000</haccuracy>
<vaccuracy>9.284000</vaccuracy>
<internetconnect>2</internetconnect>
</trkpt>
<trkpt lat="35.841919" lon="139.065111">
<ele>552.333333</ele>
<time>2026-08-16T03:13:56Z</time>
<speed>1.167660</speed>
<trueHeading>0.000000</trueHeading>
<magneticHeading>0.000000</magneticHeading>
<gpsHeading>7.935918</gpsHeading>
<haccuracy>5.660000</haccuracy>
<vaccuracy>5.660000</vaccuracy>
<internetconnect>2</internetconnect>
</trkpt>
<trkpt lat="35.842172" lon="139.064863">
<ele>565.666667</ele>
<time>2026-08-16T03:14:54Z</time>
<speed>0.960676</speed>
<trueHeading>0.000000</trueHeading>
<magneticHeading>0.000000</magneticHeading>
<gpsHeading>321.461792</gpsHeading>
<haccuracy>3.032000</haccuracy>
<vaccuracy>3.032000</vaccuracy>
<internetconnect>2</internetconnect>
</trkpt>
<trkpt lat="35.842423" lon="139.065052">
<ele>571.000000</ele>
<time>2026-08-16T03:15:40Z</time>
<speed>1.222136</speed>
<trueHeading>0.000000</trueHeading>
<magneticHeading>0.000000</magneticHeading>
<gpsHeading>31.467083</gpsHeading>
<haccuracy>5.593000</haccuracy>
<vaccuracy>5.593000</vaccuracy>
<internetconnect>2</internetconnect>
</trkpt>
<trkpt lat="35.842565" lon="139.064733">
<ele>578.000000</ele>
<time>2026-08-16T03:16:33Z</time>
<speed>0.569221</speed>
<trueHeading>0.000000</trueHeading>
<magneticHeading>0.000000</magneticHeading>
<gpsHeading>298.712006</gpsHeading>
<haccuracy>4.090000</haccuracy>
<vaccuracy>4.090000</vaccuracy>
<internetconnect>2</internetconnect>
</trkpt>
<trkpt lat="35.842570" lon="139.064384">
<ele>587.000000</ele>
<time>2026-08-16T03:17:20Z</time>
<speed>0.166787</speed>
<trueHeading>0.000000</trueHeading>
<magneticHeading>0.000000</magneticHeading>
<gpsHeading>271.033936</gpsHeading>
<haccuracy>5.038000</haccuracy>
<vaccuracy>5.038000</vaccuracy>
<internetconnect>2</internetconnect>
</trkpt>
<trkpt lat="35.842807" lon="139.063944">
<ele>595.000000</ele>
<time>2026-08-16T03:18:09Z</time>
<speed>0.514876</speed>
<trueHeading>0.000000</trueHeading>
<magneticHeading>0.000000</magneticHeading>
<gpsHeading>303.530701</gpsHeading>
<haccuracy>7.509000</haccuracy>
<vaccuracy>7.509000</vaccuracy>
<internetconnect>2</internetconnect>
</trkpt>
<trkpt lat="35.842959" lon="139.063559">
<ele>606.333333</ele>
<time>2026-08-16T03:18:58Z</time>
<speed>1.004548</speed>
<trueHeading>0.000000</trueHeading>
<magneticHeading>0.000000</magneticHeading>
<gpsHeading>296.080536</gpsHeading>
<haccuracy>5.029000</haccuracy>
<vaccuracy>5.029000</vaccuracy>
<internetconnect>2</internetconnect>
</trkpt>
<trkpt lat="35.843328" lon="139.063353">
<ele>615.333333</ele>
<time>2026-08-16T03:19:44Z</time>
<speed>1.131815</speed>
<trueHeading>0.000000</trueHeading>
<magneticHeading>0.000000</magneticHeading>
<gpsHeading>335.606934</gpsHeading>
<haccuracy>5.313000</haccuracy>
<vaccuracy>5.313000</vaccuracy>
<internetconnect>2</internetconnect>
</trkpt>
<trkpt lat="35.843630" lon="139.063127">
<ele>627.333333</ele>
<time>2026-08-16T03:20:35Z</time>
<speed>0.678276</speed>
<trueHeading>0.000000</trueHeading>
<magneticHeading>0.000000</magneticHeading>
<gpsHeading>328.746796</gpsHeading>
<haccuracy>5.786000</haccuracy>
<vaccuracy>5.786000</vaccuracy>
<internetconnect>2</internetconnect>
</trkpt>
<trkpt lat="35.843905" lon="139.063206">
<ele>635.333333</ele>
<time>2026-08-16T03:22:18Z</time>
<speed>0.384756</speed>
<trueHeading>0.000000</trueHeading>
<magneticHeading>0.000000</magneticHeading>
<gpsHeading>13.239410</gpsHeading>
<haccuracy>3.019000</haccuracy>
<vaccuracy>3.019000</vaccuracy>
<internetconnect>2</internetconnect>
</trkpt>
<trkpt lat="35.844276" lon="139.063355">
<ele>642.000000</ele>
<time>2026-08-16T03:23:05Z</time>
<speed>1.157302</speed>
<trueHeading>0.000000</trueHeading>
<magneticHeading>0.000000</magneticHeading>
<gpsHeading>17.992163</gpsHeading>
<haccuracy>5.493000</haccuracy>
<vaccuracy>5.493000</vaccuracy>
<internetconnect>2</internetconnect>
</trkpt>
<trkpt lat="35.844542" lon="139.063463">
<ele>641.666667</ele>
<time>2026-08-16T03:25:08Z</time>
<speed>0.106484</speed>
<trueHeading>0.000000</trueHeading>
<magneticHeading>0.000000</magneticHeading>
<gpsHeading>18.138927</gpsHeading>
<haccuracy>3.000000</haccuracy>
<vaccuracy>3.000000</vaccuracy>
<internetconnect>2</internetconnect>
</trkpt>
<trkpt lat="35.844716" lon="139.063547">
<ele>647.333333</ele>
<time>2026-08-16T03:27:24Z</time>
<speed>0.206961</speed>
<trueHeading>0.000000</trueHeading>
<magneticHeading>0.000000</magneticHeading>
<gpsHeading>21.464327</gpsHeading>
<haccuracy>4.199000</haccuracy>
<vaccuracy>4.199000</vaccuracy>
<internetconnect>2</internetconnect>
</trkpt>
<trkpt lat="35.844719" lon="139.063334">
<ele>651.666667</ele>
<time>2026-08-16T03:29:32Z</time>
<speed>0.000000</speed>
<trueHeading>0.000000</trueHeading>
<magneticHeading>0.000000</magneticHeading>
<gpsHeading>270.961365</gpsHeading>
<haccuracy>10.765000</haccuracy>
<vaccuracy>10.765000</vaccuracy>
<internetconnect>2</internetconnect>
</trkpt>
<trkpt lat="35.844731" lon="139.063323">
<ele>650.000000</ele>
<time>2026-08-16T03:31:44Z</time>
<speed>0.000000</speed>
<trueHeading>0.000000</trueHeading>
<magneticHeading>0.000000</magneticHeading>
<gpsHeading>323.983856</gpsHeading>
<haccuracy>15.923000</haccuracy>
<vaccuracy>15.923000</vaccuracy>
<internetconnect>2</internetconnect>
</trkpt>
<trkpt lat="35.844840" lon="139.063608">
<ele>645.000000</ele>
<time>2026-08-16T03:33:48Z</time>
<speed>0.000000</speed>
<trueHeading>0.000000</trueHeading>
<magneticHeading>0.000000</magneticHeading>
<gpsHeading>64.901794</gpsHeading>
<haccuracy>15.810000</haccuracy>
<vaccuracy>15.810000</vaccuracy>
<internetconnect>2</internetconnect>
</trkpt>
<trkpt lat="35.844751" lon="139.063502">
<ele>639.666667</ele>
<time>2026-08-16T03:38:28Z</time>
<speed>0.237513</speed>
<trueHeading>0.000000</trueHeading>
<magneticHeading>0.000000</magneticHeading>
<gpsHeading>224.159317</gpsHeading>
<haccuracy>5.931000</haccuracy>
<vaccuracy>5.931000</vaccuracy>
<internetconnect>2</internetconnect>
</trkpt>
<trkpt lat="35.844735" lon="139.063512">
<ele>647.000000</ele>
<time>2026-08-16T03:41:12Z</time>
<speed>0.184802</speed>
<trueHeading>0.000000</trueHeading>
<magneticHeading>0.000000</magneticHeading>
<gpsHeading>153.737671</gpsHeading>
<haccuracy>3.799000</haccuracy>
<vaccuracy>3.799000</vaccuracy>
<internetconnect>2</internetconnect>
</trkpt>
<trkpt lat="35.844979" lon="139.063330">
<ele>657.000000</ele>
<time>2026-08-16T03:43:06Z</time>
<speed>0.000000</speed>
<trueHeading>0.000000</trueHeading>
<magneticHeading>0.000000</magneticHeading>
<gpsHeading>328.754517</gpsHeading>
<haccuracy>6.282000</haccuracy>
<vaccuracy>6.282000</vaccuracy>
<internetconnect>2</internetconnect>
</trkpt>
<trkpt lat="35.845220" lon="139.063204">
<ele>666.000000</ele>
<time>2026-08-16T03:45:14Z</time>
<speed>0.000000</speed>
<trueHeading>0.000000</trueHeading>
<magneticHeading>0.000000</magneticHeading>
<gpsHeading>337.090973</gpsHeading>
<haccuracy>12.034000</haccuracy>
<vaccuracy>12.034000</vaccuracy>
<internetconnect>2</internetconnect>
</trkpt>
<trkpt lat="35.845026" lon="139.063267">
<ele>675.000000</ele>
<time>2026-08-16T03:47:18Z</time>
<speed>0.417399</speed>
<trueHeading>0.000000</trueHeading>
<magneticHeading>0.000000</magneticHeading>
<gpsHeading>165.310135</gpsHeading>
<haccuracy>5.578000</haccuracy>
<vaccuracy>5.578000</vaccuracy>
<internetconnect>2</internetconnect>
</trkpt>
<trkpt lat="35.844765" lon="139.063127">
<ele>673.333333</ele>
<time>2026-08-16T03:48:27Z</time>
<speed>1.109593</speed>
<trueHeading>0.000000</trueHeading>
<magneticHeading>0.000000</magneticHeading>
<gpsHeading>203.563004</gpsHeading>
<haccuracy>3.089000</haccuracy>
<vaccuracy>3.089000</vaccuracy>
<internetconnect>2</internetconnect>
</trkpt>
<trkpt lat="35.844826" lon="139.063226">
<ele>675.000000</ele>
<time>2026-08-16T03:50:34Z</time>
<speed>0.249413</speed>
<trueHeading>0.000000</trueHeading>
<magneticHeading>0.000000</magneticHeading>
<gpsHeading>52.962402</gpsHeading>
<haccuracy>4.301000</haccuracy>
<vaccuracy>4.301000</vaccuracy>
<internetconnect>2</internetconnect>
</trkpt>
<trkpt lat="35.845104" lon="139.063148">
<ele>671.333333</ele>
<time>2026-08-16T03:51:21Z</time>
<speed>0.346684</speed>
<trueHeading>0.000000</trueHeading>
<magneticHeading>0.000000</magneticHeading>
<gpsHeading>347.256683</gpsHeading>
<haccuracy>5.063000</haccuracy>
<vaccuracy>5.063000</vaccuracy>
<internetconnect>2</internetconnect>
</trkpt>
<trkpt lat="35.845438" lon="139.063139">
<ele>676.666667</ele>
<time>2026-08-16T03:52:09Z</time>
<speed>0.520066</speed>
<trueHeading>0.000000</trueHeading>
<magneticHeading>0.000000</magneticHeading>
<gpsHeading>358.692719</gpsHeading>
<haccuracy>5.476000</haccuracy>
<vaccuracy>5.476000</vaccuracy>
<internetconnect>2</internetconnect>
</trkpt>
<trkpt lat="35.845722" lon="139.063160">
<ele>676.333333</ele>
<time>2026-08-16T03:54:08Z</time>
<speed>0.845048</speed>
<trueHeading>0.000000</trueHeading>
<magneticHeading>0.000000</magneticHeading>
<gpsHeading>3.482677</gpsHeading>
<haccuracy>5.705000</haccuracy>
<vaccuracy>5.705000</vaccuracy>
<internetconnect>2</internetconnect>
</trkpt>
<trkpt lat="35.845778" lon="139.063623">
<ele>680.666667</ele>
<time>2026-08-16T03:54:56Z</time>
<speed>0.048895</speed>
<trueHeading>0.000000</trueHeading>
<magneticHeading>0.000000</magneticHeading>
<gpsHeading>81.463173</gpsHeading>
<haccuracy>4.677000</haccuracy>
<vaccuracy>4.677000</vaccuracy>
<internetconnect>2</internetconnect>
</trkpt>
<trkpt lat="35.845954" lon="139.063324">
<ele>682.000000</ele>
<time>2026-08-16T03:56:28Z</time>
<speed>0.637228</speed>
<trueHeading>0.000000</trueHeading>
<magneticHeading>0.000000</magneticHeading>
<gpsHeading>305.979614</gpsHeading>
<haccuracy>6.623000</haccuracy>
<vaccuracy>6.623000</vaccuracy>
<internetconnect>2</internetconnect>
</trkpt>
<trkpt lat="35.846016" lon="139.063402">
<ele>683.333333</ele>
<time>2026-08-16T03:59:00Z</time>
<speed>0.319733</speed>
<trueHeading>0.000000</trueHeading>
<magneticHeading>0.000000</magneticHeading>
<gpsHeading>45.284615</gpsHeading>
<haccuracy>3.021000</haccuracy>
<vaccuracy>3.021000</vaccuracy>
<internetconnect>2</internetconnect>
</trkpt>
<trkpt lat="35.845815" lon="139.063503">
<ele>680.333333</ele>
<time>2026-08-16T04:01:08Z</time>
<speed>0.314879</speed>
<trueHeading>0.000000</trueHeading>
<magneticHeading>0.000000</magneticHeading>
<gpsHeading>157.917648</gpsHeading>
<haccuracy>5.334000</haccuracy>
<vaccuracy>5.334000</vaccuracy>
<internetconnect>2</internetconnect>
</trkpt>
<trkpt lat="35.845947" lon="139.063853">
<ele>676.333333</ele>
<time>2026-08-16T04:02:01Z</time>
<speed>0.677739</speed>
<trueHeading>0.000000</trueHeading>
<magneticHeading>0.000000</magneticHeading>
<gpsHeading>65.011765</gpsHeading>
<haccuracy>3.000000</haccuracy>
<vaccuracy>3.000000</vaccuracy>
<internetconnect>2</internetconnect>
</trkpt>
<trkpt lat="35.846029" lon="139.064217">
<ele>677.333333</ele>
<time>2026-08-16T04:02:51Z</time>
<speed>0.471358</speed>
<trueHeading>0.000000</trueHeading>
<magneticHeading>0.000000</magneticHeading>
<gpsHeading>74.530876</gpsHeading>
<haccuracy>5.712000</haccuracy>
<vaccuracy>5.712000</vaccuracy>
<internetconnect>2</internetconnect>
</trkpt>
<trkpt lat="35.846189" lon="139.064262">
<ele>677.666667</ele>
<time>2026-08-16T04:04:55Z</time>
<speed>0.189349</speed>
<trueHeading>0.000000</trueHeading>
<magneticHeading>0.000000</magneticHeading>
<gpsHeading>12.933315</gpsHeading>
<haccuracy>3.000000</haccuracy>
<vaccuracy>3.000000</vaccuracy>
<internetconnect>2</internetconnect>
</trkpt>
<trkpt lat="35.846197" lon="139.064261">
<ele>687.000000</ele>
<time>2026-08-16T04:07:04Z</time>
<speed>0.686340</speed>
<trueHeading>0.000000</trueHeading>
<magneticHeading>0.000000</magneticHeading>
<gpsHeading>355.313934</gpsHeading>
<haccuracy>4.402000</haccuracy>
<vaccuracy>4.402000</vaccuracy>
<internetconnect>2</internetconnect>
</trkpt>
<trkpt lat="35.846312" lon="139.063905">
<ele>699.000000</ele>
<time>2026-08-16T04:08:59Z</time>
<speed>0.502279</speed>
<trueHeading>0.000000</trueHeading>
<magneticHeading>0.000000</magneticHeading>
<gpsHeading>291.573700</gpsHeading>
<haccuracy>8.305000</haccuracy>
<vaccuracy>8.305000</vaccuracy>
<internetconnect>2</internetconnect>
</trkpt>
<trkpt lat="35.846567" lon="139.063741">
<ele>714.000000</ele>
<time>2026-08-16T04:09:58Z</time>
<speed>0.690853</speed>
<trueHeading>0.000000</trueHeading>
<magneticHeading>0.000000</magneticHeading>
<gpsHeading>332.459930</gpsHeading>
<haccuracy>6.993000</haccuracy>
<vaccuracy>6.993000</vaccuracy>
<internetconnect>2</internetconnect>
</trkpt>
<trkpt lat="35.846822" lon="139.063535">
<ele>724.333333</ele>
<time>2026-08-16T04:11:50Z</time>
<speed>0.966456</speed>
<trueHeading>0.000000</trueHeading>
<magneticHeading>0.000000</magneticHeading>
<gpsHeading>326.715393</gpsHeading>
<haccuracy>4.417000</haccuracy>
<vaccuracy>4.417000</vaccuracy>
<internetconnect>2</internetconnect>
</trkpt>
<trkpt lat="35.847191" lon="139.063234">
<ele>732.000000</ele>
<time>2026-08-16T04:12:38Z</time>
<speed>1.171226</speed>
<trueHeading>0.000000</trueHeading>
<magneticHeading>0.000000</magneticHeading>
<gpsHeading>326.634949</gpsHeading>
<haccuracy>5.600000</haccuracy>
<vaccuracy>5.600000</vaccuracy>
<internetconnect>2</internetconnect>
</trkpt>
<trkpt lat="35.847555" lon="139.063064">
<ele>734.000000</ele>
<time>2026-08-16T04:13:26Z</time>
<speed>0.969941</speed>
<trueHeading>0.000000</trueHeading>
<magneticHeading>0.000000</magneticHeading>
<gpsHeading>339.172546</gpsHeading>
<haccuracy>5.488000</haccuracy>
<vaccuracy>5.488000</vaccuracy>
<internetconnect>2</internetconnect>
</trkpt>
<trkpt lat="35.847879" lon="139.063046">
<ele>737.666667</ele>
<time>2026-08-16T04:14:13Z</time>
<speed>0.322619</speed>
<trueHeading>0.000000</trueHeading>
<magneticHeading>0.000000</magneticHeading>
<gpsHeading>357.435913</gpsHeading>
<haccuracy>4.786000</haccuracy>
<vaccuracy>4.786000</vaccuracy>
<internetconnect>2</internetconnect>
</trkpt>
<trkpt lat="35.848055" lon="139.062785">
<ele>741.333333</ele>
<time>2026-08-16T04:16:18Z</time>
<speed>0.179453</speed>
<trueHeading>0.000000</trueHeading>
<magneticHeading>0.000000</magneticHeading>
<gpsHeading>309.794403</gpsHeading>
<haccuracy>4.467000</haccuracy>
<vaccuracy>4.467000</vaccuracy>
<internetconnect>2</internetconnect>
</trkpt>
<trkpt lat="35.848417" lon="139.062572">
<ele>750.333333</ele>
<time>2026-08-16T04:17:07Z</time>
<speed>0.529755</speed>
<trueHeading>0.000000</trueHeading>
<magneticHeading>0.000000</magneticHeading>
<gpsHeading>334.485718</gpsHeading>
<haccuracy>5.504000</haccuracy>
<vaccuracy>5.504000</vaccuracy>
<internetconnect>2</internetconnect>
</trkpt>
<trkpt lat="35.848696" lon="139.062238">
<ele>748.666667</ele>
<time>2026-08-16T04:17:54Z</time>
<speed>1.020033</speed>
<trueHeading>0.000000</trueHeading>
<magneticHeading>0.000000</magneticHeading>
<gpsHeading>315.935577</gpsHeading>
<haccuracy>4.214000</haccuracy>
<vaccuracy>4.214000</vaccuracy>
<internetconnect>2</internetconnect>
</trkpt>
<trkpt lat="35.849030" lon="139.062270">
<ele>750.000000</ele>
<time>2026-08-16T04:18:44Z</time>
<speed>0.439179</speed>
<trueHeading>0.000000</trueHeading>
<magneticHeading>0.000000</magneticHeading>
<gpsHeading>4.384017</gpsHeading>
<haccuracy>4.926000</haccuracy>
<vaccuracy>4.926000</vaccuracy>
<internetconnect>2</internetconnect>
</trkpt>
<trkpt lat="35.849168" lon="139.061942">
<ele>747.666667</ele>
<time>2026-08-16T04:20:25Z</time>
<speed>0.000000</speed>
<trueHeading>0.000000</trueHeading>
<magneticHeading>0.000000</magneticHeading>
<gpsHeading>297.466034</gpsHeading>
<haccuracy>10.567000</haccuracy>
<vaccuracy>10.567000</vaccuracy>
<internetconnect>2</internetconnect>
</trkpt>
<trkpt lat="35.849438" lon="139.062041">
<ele>759.666667</ele>
<time>2026-08-16T04:22:20Z</time>
<speed>0.158053</speed>
<trueHeading>0.000000</trueHeading>
<magneticHeading>0.000000</magneticHeading>
<gpsHeading>16.628733</gpsHeading>
<haccuracy>3.588000</haccuracy>
<vaccuracy>3.588000</vaccuracy>
<internetconnect>2</internetconnect>
</trkpt>
<trkpt lat="35.849698" lon="139.062236">
<ele>771.000000</ele>
<time>2026-08-16T04:23:40Z</time>
<speed>0.575769</speed>
<trueHeading>0.000000</trueHeading>
<magneticHeading>0.000000</magneticHeading>
<gpsHeading>31.234207</gpsHeading>
<haccuracy>5.545000</haccuracy>
<vaccuracy>5.545000</vaccuracy>
<internetconnect>2</internetconnect>
</trkpt>
<trkpt lat="35.850031" lon="139.062795">
<ele>788.000000</ele>
<time>2026-08-16T04:24:27Z</time>
<speed>0.823827</speed>
<trueHeading>0.000000</trueHeading>
<magneticHeading>0.000000</magneticHeading>
<gpsHeading>53.701305</gpsHeading>
<haccuracy>5.094000</haccuracy>
<vaccuracy>5.094000</vaccuracy>
<internetconnect>2</internetconnect>
</trkpt>
<trkpt lat="35.850218" lon="139.063128">
<ele>797.333333</ele>
<time>2026-08-16T04:25:56Z</time>
<speed>0.654368</speed>
<trueHeading>0.000000</trueHeading>
<magneticHeading>0.000000</magneticHeading>
<gpsHeading>55.244026</gpsHeading>
<haccuracy>3.002000</haccuracy>
<vaccuracy>3.002000</vaccuracy>
<internetconnect>2</internetconnect>
</trkpt>
<trkpt lat="35.850504" lon="139.063147">
<ele>806.666667</ele>
<time>2026-08-16T04:27:43Z</time>
<speed>1.022669</speed>
<trueHeading>0.000000</trueHeading>
<magneticHeading>0.000000</magneticHeading>
<gpsHeading>3.130840</gpsHeading>
<haccuracy>3.041000</haccuracy>
<vaccuracy>3.041000</vaccuracy>
<internetconnect>2</internetconnect>
</trkpt>
<trkpt lat="35.850886" lon="139.062645">
<ele>806.333333</ele>
<time>2026-08-16T04:28:29Z</time>
<speed>1.093818</speed>
<trueHeading>0.000000</trueHeading>
<magneticHeading>0.000000</magneticHeading>
<gpsHeading>313.215027</gpsHeading>
<haccuracy>5.924000</haccuracy>
<vaccuracy>5.924000</vaccuracy>
<internetconnect>2</internetconnect>
</trkpt>
<trkpt lat="35.851532" lon="139.062616">
<ele>804.000000</ele>
<time>2026-08-16T04:29:18Z</time>
<speed>1.151246</speed>
<trueHeading>0.000000</trueHeading>
<magneticHeading>0.000000</magneticHeading>
<gpsHeading>357.908630</gpsHeading>
<haccuracy>5.204000</haccuracy>
<vaccuracy>5.204000</vaccuracy>
<internetconnect>2</internetconnect>
</trkpt>
<trkpt lat="35.851866" lon="139.062485">
<ele>804.666667</ele>
<time>2026-08-16T04:30:05Z</time>
<speed>0.240804</speed>
<trueHeading>0.000000</trueHeading>
<magneticHeading>0.000000</magneticHeading>
<gpsHeading>342.392303</gpsHeading>
<haccuracy>4.520000</haccuracy>
<vaccuracy>4.520000</vaccuracy>
<internetconnect>2</internetconnect>
</trkpt>
<trkpt lat="35.852013" lon="139.062061">
<ele>808.333333</ele>
<time>2026-08-16T04:30:53Z</time>
<speed>0.421662</speed>
<trueHeading>0.000000</trueHeading>
<magneticHeading>0.000000</magneticHeading>
<gpsHeading>293.147491</gpsHeading>
<haccuracy>5.826000</haccuracy>
<vaccuracy>5.826000</vaccuracy>
<internetconnect>2</internetconnect>
</trkpt>
<trkpt lat="35.852598" lon="139.061943">
<ele>814.333333</ele>
<time>2026-08-16T04:31:40Z</time>
<speed>0.796653</speed>
<trueHeading>0.000000</trueHeading>
<magneticHeading>0.000000</magneticHeading>
<gpsHeading>350.720886</gpsHeading>
<haccuracy>5.441000</haccuracy>
<vaccuracy>5.441000</vaccuracy>
<internetconnect>2</internetconnect>
</trkpt>
<trkpt lat="35.852803" lon="139.061676">
<ele>811.666667</ele>
<time>2026-08-16T04:33:34Z</time>
<speed>0.521569</speed>
<trueHeading>0.000000</trueHeading>
<magneticHeading>0.000000</magneticHeading>
<gpsHeading>313.459717</gpsHeading>
<haccuracy>3.383000</haccuracy>
<vaccuracy>3.383000</vaccuracy>
<internetconnect>2</internetconnect>
</trkpt>
<trkpt lat="35.853069" lon="139.061549">
<ele>809.000000</ele>
<time>2026-08-16T04:34:50Z</time>
<speed>0.272693</speed>
<trueHeading>0.000000</trueHeading>
<magneticHeading>0.000000</magneticHeading>
<gpsHeading>338.939972</gpsHeading>
<haccuracy>4.060000</haccuracy>
<vaccuracy>4.060000</vaccuracy>
<internetconnect>2</internetconnect>
</trkpt>
<trkpt lat="35.853239" lon="139.061468">
<ele>806.333333</ele>
<time>2026-08-16T04:36:52Z</time>
<speed>0.000000</speed>
<trueHeading>0.000000</trueHeading>
<magneticHeading>0.000000</magneticHeading>
<gpsHeading>338.874847</gpsHeading>
<haccuracy>11.535000</haccuracy>
<vaccuracy>11.535000</vaccuracy>
<internetconnect>2</internetconnect>
</trkpt>
<trkpt lat="35.853489" lon="139.061269">
<ele>806.333333</ele>
<time>2026-08-16T04:38:18Z</time>
<speed>0.930000</speed>
<trueHeading>0.000000</trueHeading>
<magneticHeading>0.000000</magneticHeading>
<gpsHeading>327.215393</gpsHeading>
<haccuracy>11.177000</haccuracy>
<vaccuracy>11.177000</vaccuracy>
<internetconnect>2</internetconnect>
</trkpt>
<trkpt lat="35.853592" lon="139.061181">
<ele>810.000000</ele>
<time>2026-08-16T04:40:47Z</time>
<speed>0.490000</speed>
<trueHeading>0.000000</trueHeading>
<magneticHeading>0.000000</magneticHeading>
<gpsHeading>324.984802</gpsHeading>
<haccuracy>7.366000</haccuracy>
<vaccuracy>7.366000</vaccuracy>
<internetconnect>2</internetconnect>
</trkpt>
<trkpt lat="35.853757" lon="139.061105">
<ele>810.000000</ele>
<time>2026-08-16T04:43:08Z</time>
<speed>0.297481</speed>
<trueHeading>0.000000</trueHeading>
<magneticHeading>0.000000</magneticHeading>
<gpsHeading>339.640259</gpsHeading>
<haccuracy>3.946000</haccuracy>
<vaccuracy>3.946000</vaccuracy>
<internetconnect>2</internetconnect>
</trkpt>
<trkpt lat="35.853742" lon="139.061456">
<ele>812.333333</ele>
<time>2026-08-16T04:45:05Z</time>
<speed>0.142134</speed>
<trueHeading>0.000000</trueHeading>
<magneticHeading>0.000000</magneticHeading>
<gpsHeading>92.900131</gpsHeading>
<haccuracy>3.006000</haccuracy>
<vaccuracy>3.006000</vaccuracy>
<internetconnect>2</internetconnect>
</trkpt>
<trkpt lat="35.853843" lon="139.061701">
<ele>816.666667</ele>
<time>2026-08-16T04:47:08Z</time>
<speed>0.160155</speed>
<trueHeading>0.000000</trueHeading>
<magneticHeading>0.000000</magneticHeading>
<gpsHeading>63.119381</gpsHeading>
<haccuracy>3.000000</haccuracy>
<vaccuracy>3.000000</vaccuracy>
<internetconnect>2</internetconnect>
</trkpt>
<trkpt lat="35.853891" lon="139.061953">
<ele>826.333333</ele>
<time>2026-08-16T04:49:27Z</time>
<speed>0.830000</speed>
<trueHeading>0.000000</trueHeading>
<magneticHeading>0.000000</magneticHeading>
<gpsHeading>76.748497</gpsHeading>
<haccuracy>4.137000</haccuracy>
<vaccuracy>4.137000</vaccuracy>
<internetconnect>2</internetconnect>
</trkpt>
<trkpt lat="35.853975" lon="139.062101">
<ele>836.666667</ele>
<time>2026-08-16T04:51:29Z</time>
<speed>0.000000</speed>
<trueHeading>0.000000</trueHeading>
<magneticHeading>0.000000</magneticHeading>
<gpsHeading>55.021542</gpsHeading>
<haccuracy>10.046000</haccuracy>
<vaccuracy>10.046000</vaccuracy>
<internetconnect>2</internetconnect>
</trkpt>
<trkpt lat="35.854020" lon="139.062315">
<ele>846.000000</ele>
<time>2026-08-16T04:53:32Z</time>
<speed>0.000000</speed>
<trueHeading>0.000000</trueHeading>
<magneticHeading>0.000000</magneticHeading>
<gpsHeading>75.556480</gpsHeading>
<haccuracy>10.289000</haccuracy>
<vaccuracy>10.289000</vaccuracy>
<internetconnect>2</internetconnect>
</trkpt>
<trkpt lat="35.854025" lon="139.062585">
<ele>860.666667</ele>
<time>2026-08-16T05:00:53Z</time>
<speed>0.000000</speed>
<trueHeading>0.000000</trueHeading>
<magneticHeading>0.000000</magneticHeading>
<gpsHeading>88.691139</gpsHeading>
<haccuracy>3.800000</haccuracy>
<vaccuracy>3.800000</vaccuracy>
<internetconnect>2</internetconnect>
</trkpt>
<trkpt lat="35.854301" lon="139.062634">
<ele>866.333333</ele>
<time>2026-08-16T05:01:54Z</time>
<speed>6.160000</speed>
<trueHeading>0.000000</trueHeading>
<magneticHeading>0.000000</magneticHeading>
<gpsHeading>8.132142</gpsHeading>
<haccuracy>8.361000</haccuracy>
<vaccuracy>8.361000</vaccuracy>
<internetconnect>2</internetconnect>
</trkpt>
<trkpt lat="35.854081" lon="139.062853">
<ele>871.333333</ele>
<time>2026-08-16T05:03:08Z</time>
<speed>0.000000</speed>
<trueHeading>0.000000</trueHeading>
<magneticHeading>0.000000</magneticHeading>
<gpsHeading>141.064133</gpsHeading>
<haccuracy>10.138000</haccuracy>
<vaccuracy>10.138000</vaccuracy>
<internetconnect>2</internetconnect>
</trkpt>
<trkpt lat="35.854183" lon="139.062900">
<ele>871.333333</ele>
<time>2026-08-16T05:05:12Z</time>
<speed>0.293277</speed>
<trueHeading>0.000000</trueHeading>
<magneticHeading>0.000000</magneticHeading>
<gpsHeading>20.417601</gpsHeading>
<haccuracy>6.804000</haccuracy>
<vaccuracy>6.804000</vaccuracy>
<internetconnect>2</internetconnect>
</trkpt>
<trkpt lat="35.854344" lon="139.062812">
<ele>882.000000</ele>
<time>2026-08-16T05:07:14Z</time>
<speed>0.331059</speed>
<trueHeading>0.000000</trueHeading>
<magneticHeading>0.000000</magneticHeading>
<gpsHeading>336.026794</gpsHeading>
<haccuracy>6.370000</haccuracy>
<vaccuracy>6.370000</vaccuracy>
<internetconnect>2</internetconnect>
</trkpt>
<trkpt lat="35.854553" lon="139.062568">
<ele>892.666667</ele>
<time>2026-08-16T05:08:50Z</time>
<speed>0.959184</speed>
<trueHeading>0.000000</trueHeading>
<magneticHeading>0.000000</magneticHeading>
<gpsHeading>316.623322</gpsHeading>
<haccuracy>8.081000</haccuracy>
<vaccuracy>8.081000</vaccuracy>
<internetconnect>2</internetconnect>
</trkpt>
<trkpt lat="35.854565" lon="139.062224">
<ele>905.666667</ele>
<time>2026-08-16T05:10:05Z</time>
<speed>0.268045</speed>
<trueHeading>0.000000</trueHeading>
<magneticHeading>0.000000</magneticHeading>
<gpsHeading>272.527466</gpsHeading>
<haccuracy>4.362000</haccuracy>
<vaccuracy>4.362000</vaccuracy>
<internetconnect>2</internetconnect>
</trkpt>
<trkpt lat="35.854814" lon="139.062400">
<ele>917.666667</ele>
<time>2026-08-16T05:12:08Z</time>
<speed>0.000000</speed>
<trueHeading>0.000000</trueHeading>
<magneticHeading>0.000000</magneticHeading>
<gpsHeading>29.767342</gpsHeading>
<haccuracy>10.444000</haccuracy>
<vaccuracy>10.444000</vaccuracy>
<internetconnect>2</internetconnect>
</trkpt>
<trkpt lat="35.854967" lon="139.062596">
<ele>937.333333</ele>
<time>2026-08-16T05:14:14Z</time>
<speed>0.620000</speed>
<trueHeading>0.000000</trueHeading>
<magneticHeading>0.000000</magneticHeading>
<gpsHeading>46.157463</gpsHeading>
<haccuracy>9.975000</haccuracy>
<vaccuracy>9.975000</vaccuracy>
<internetconnect>2</internetconnect>
</trkpt>
<trkpt lat="35.855196" lon="139.062542">
<ele>954.333333</ele>
<time>2026-08-16T05:16:16Z</time>
<speed>0.200463</speed>
<trueHeading>0.000000</trueHeading>
<magneticHeading>0.000000</magneticHeading>
<gpsHeading>349.075684</gpsHeading>
<haccuracy>5.295000</haccuracy>
<vaccuracy>5.295000</vaccuracy>
<internetconnect>2</internetconnect>
</trkpt>
<trkpt lat="35.855265" lon="139.062876">
<ele>970.666667</ele>
<time>2026-08-16T05:17:39Z</time>
<speed>0.000000</speed>
<trueHeading>0.000000</trueHeading>
<magneticHeading>0.000000</magneticHeading>
<gpsHeading>75.712769</gpsHeading>
<haccuracy>10.240000</haccuracy>
<vaccuracy>10.240000</vaccuracy>
<internetconnect>2</internetconnect>
</trkpt>
<trkpt lat="35.855440" lon="139.063051">
<ele>983.000000</ele>
<time>2026-08-16T05:19:41Z</time>
<speed>0.490000</speed>
<trueHeading>0.000000</trueHeading>
<magneticHeading>0.000000</magneticHeading>
<gpsHeading>39.088932</gpsHeading>
<haccuracy>10.553000</haccuracy>
<vaccuracy>10.553000</vaccuracy>
<internetconnect>2</internetconnect>
</trkpt>
<trkpt lat="35.855646" lon="139.062810">
<ele>997.333333</ele>
<time>2026-08-16T05:21:13Z</time>
<speed>0.787629</speed>
<trueHeading>0.000000</trueHeading>
<magneticHeading>0.000000</magneticHeading>
<gpsHeading>316.594330</gpsHeading>
<haccuracy>4.846000</haccuracy>
<vaccuracy>4.846000</vaccuracy>
<internetconnect>2</internetconnect>
</trkpt>
<trkpt lat="35.855919" lon="139.062718">
<ele>1012.666667</ele>
<time>2026-08-16T05:22:58Z</time>
<speed>1.046212</speed>
<trueHeading>0.000000</trueHeading>
<magneticHeading>0.000000</magneticHeading>
<gpsHeading>344.685791</gpsHeading>
<haccuracy>5.683000</haccuracy>
<vaccuracy>5.683000</vaccuracy>
<internetconnect>2</internetconnect>
</trkpt>
<trkpt lat="35.856197" lon="139.062656">
<ele>1027.000000</ele>
<time>2026-08-16T05:24:06Z</time>
<speed>0.814206</speed>
<trueHeading>0.000000</trueHeading>
<magneticHeading>0.000000</magneticHeading>
<gpsHeading>349.788177</gpsHeading>
<haccuracy>4.814000</haccuracy>
<vaccuracy>4.814000</vaccuracy>
<internetconnect>2</internetconnect>
</trkpt>
<trkpt lat="35.856479" lon="139.062766">
<ele>1042.333333</ele>
<time>2026-08-16T05:26:04Z</time>
<speed>0.969693</speed>
<trueHeading>0.000000</trueHeading>
<magneticHeading>0.000000</magneticHeading>
<gpsHeading>17.579346</gpsHeading>
<haccuracy>5.124000</haccuracy>
<vaccuracy>5.124000</vaccuracy>
<internetconnect>2</internetconnect>
</trkpt>
<trkpt lat="35.856690" lon="139.062540">
<ele>1059.333333</ele>
<time>2026-08-16T05:27:37Z</time>
<speed>0.677504</speed>
<trueHeading>0.000000</trueHeading>
<magneticHeading>0.000000</magneticHeading>
<gpsHeading>319.078949</gpsHeading>
<haccuracy>4.591000</haccuracy>
<vaccuracy>4.591000</vaccuracy>
<internetconnect>2</internetconnect>
</trkpt>
<trkpt lat="35.856968" lon="139.062435">
<ele>1075.333333</ele>
<time>2026-08-16T05:29:00Z</time>
<speed>0.927283</speed>
<trueHeading>0.000000</trueHeading>
<magneticHeading>0.000000</magneticHeading>
<gpsHeading>342.947113</gpsHeading>
<haccuracy>5.688000</haccuracy>
<vaccuracy>5.688000</vaccuracy>
<internetconnect>2</internetconnect>
</trkpt>
<trkpt lat="35.857092" lon="139.062280">
<ele>1091.666667</ele>
<time>2026-08-16T05:31:03Z</time>
<speed>0.991688</speed>
<trueHeading>0.000000</trueHeading>
<magneticHeading>0.000000</magneticHeading>
<gpsHeading>314.793396</gpsHeading>
<haccuracy>4.653000</haccuracy>
<vaccuracy>4.653000</vaccuracy>
<internetconnect>2</internetconnect>
</trkpt>
<trkpt lat="35.857337" lon="139.062084">
<ele>1106.666667</ele>
<time>2026-08-16T05:31:57Z</time>
<speed>0.748376</speed>
<trueHeading>0.000000</trueHeading>
<magneticHeading>0.000000</magneticHeading>
<gpsHeading>327.126678</gpsHeading>
<haccuracy>5.004000</haccuracy>
<vaccuracy>5.004000</vaccuracy>
<internetconnect>2</internetconnect>
</trkpt>
<trkpt lat="35.857535" lon="139.061825">
<ele>1124.000000</ele>
<time>2026-08-16T05:33:47Z</time>
<speed>0.851356</speed>
<trueHeading>0.000000</trueHeading>
<magneticHeading>0.000000</magneticHeading>
<gpsHeading>313.196167</gpsHeading>
<haccuracy>7.180000</haccuracy>
<vaccuracy>7.180000</vaccuracy>
<internetconnect>2</internetconnect>
</trkpt>
<trkpt lat="35.857712" lon="139.061807">
<ele>1132.000000</ele>
<time>2026-08-16T05:35:53Z</time>
<speed>0.074629</speed>
<trueHeading>0.000000</trueHeading>
<magneticHeading>0.000000</magneticHeading>
<gpsHeading>355.389923</gpsHeading>
<haccuracy>3.000000</haccuracy>
<vaccuracy>3.000000</vaccuracy>
<internetconnect>2</internetconnect>
</trkpt>
<trkpt lat="35.857680" lon="139.062057">
<ele>1141.666667</ele>
<time>2026-08-16T05:40:07Z</time>
<speed>0.350000</speed>
<trueHeading>0.000000</trueHeading>
<magneticHeading>0.000000</magneticHeading>
<gpsHeading>98.750427</gpsHeading>
<haccuracy>10.240000</haccuracy>
<vaccuracy>10.240000</vaccuracy>
<internetconnect>2</internetconnect>
</trkpt>
<trkpt lat="35.857938" lon="139.062188">
<ele>1153.333333</ele>
<time>2026-08-16T05:42:28Z</time>
<speed>0.175243</speed>
<trueHeading>0.000000</trueHeading>
<magneticHeading>0.000000</magneticHeading>
<gpsHeading>22.307285</gpsHeading>
<haccuracy>3.000000</haccuracy>
<vaccuracy>3.000000</vaccuracy>
<internetconnect>2</internetconnect>
</trkpt>
<trkpt lat="35.858178" lon="139.061952">
<ele>1171.666667</ele>
<time>2026-08-16T05:43:20Z</time>
<speed>1.181076</speed>
<trueHeading>0.000000</trueHeading>
<magneticHeading>0.000000</magneticHeading>
<gpsHeading>321.517303</gpsHeading>
<haccuracy>4.665000</haccuracy>
<vaccuracy>4.665000</vaccuracy>
<internetconnect>2</internetconnect>
</trkpt>
<trkpt lat="35.858294" lon="139.061566">
<ele>1189.000000</ele>
<time>2026-08-16T05:44:07Z</time>
<speed>0.302412</speed>
<trueHeading>0.000000</trueHeading>
<magneticHeading>0.000000</magneticHeading>
<gpsHeading>290.448944</gpsHeading>
<haccuracy>5.045000</haccuracy>
<vaccuracy>5.045000</vaccuracy>
<internetconnect>2</internetconnect>
</trkpt>
<trkpt lat="35.858509" lon="139.061325">
<ele>1201.000000</ele>
<time>2026-08-16T05:45:14Z</time>
<speed>1.128408</speed>
<trueHeading>0.000000</trueHeading>
<magneticHeading>0.000000</magneticHeading>
<gpsHeading>317.732300</gpsHeading>
<haccuracy>8.895000</haccuracy>
<vaccuracy>8.895000</vaccuracy>
<internetconnect>2</internetconnect>
</trkpt>
<trkpt lat="35.858646" lon="139.061009">
<ele>1212.666667</ele>
<time>2026-08-16T05:46:32Z</time>
<speed>1.039882</speed>
<trueHeading>0.000000</trueHeading>
<magneticHeading>0.000000</magneticHeading>
<gpsHeading>298.071808</gpsHeading>
<haccuracy>6.067000</haccuracy>
<vaccuracy>6.067000</vaccuracy>
<internetconnect>2</internetconnect>
</trkpt>
<trkpt lat="35.858735" lon="139.060659">
<ele>1221.000000</ele>
<time>2026-08-16T05:47:47Z</time>
<speed>1.054569</speed>
<trueHeading>0.000000</trueHeading>
<magneticHeading>0.000000</magneticHeading>
<gpsHeading>287.415039</gpsHeading>
<haccuracy>3.802000</haccuracy>
<vaccuracy>3.802000</vaccuracy>
<internetconnect>2</internetconnect>
</trkpt>
<trkpt lat="35.858740" lon="139.060281">
<ele>1228.000000</ele>
<time>2026-08-16T05:48:51Z</time>
<speed>1.169337</speed>
<trueHeading>0.000000</trueHeading>
<magneticHeading>0.000000</magneticHeading>
<gpsHeading>271.027710</gpsHeading>
<haccuracy>3.113000</haccuracy>
<vaccuracy>3.113000</vaccuracy>
<internetconnect>0</internetconnect>
</trkpt>
<trkpt lat="35.858801" lon="139.059920">
<ele>1234.000000</ele>
<time>2026-08-16T05:49:40Z</time>
<speed>0.612113</speed>
<trueHeading>0.000000</trueHeading>
<magneticHeading>0.000000</magneticHeading>
<gpsHeading>281.695740</gpsHeading>
<haccuracy>6.027000</haccuracy>
<vaccuracy>6.027000</vaccuracy>
<internetconnect>0</internetconnect>
</trkpt>
<trkpt lat="35.858958" lon="139.059631">
<ele>1238.666667</ele>
<time>2026-08-16T05:50:28Z</time>
<speed>0.432813</speed>
<trueHeading>0.000000</trueHeading>
<magneticHeading>0.000000</magneticHeading>
<gpsHeading>303.933563</gpsHeading>
<haccuracy>4.751000</haccuracy>
<vaccuracy>4.751000</vaccuracy>
<internetconnect>0</internetconnect>
</trkpt>
<trkpt lat="35.858894" lon="139.059259">
<ele>1244.333333</ele>
<time>2026-08-16T05:51:17Z</time>
<speed>0.737888</speed>
<trueHeading>0.000000</trueHeading>
<magneticHeading>0.000000</magneticHeading>
<gpsHeading>257.884888</gpsHeading>
<haccuracy>4.855000</haccuracy>
<vaccuracy>4.855000</vaccuracy>
<internetconnect>0</internetconnect>
</trkpt>
<trkpt lat="35.858900" lon="139.058771">
<ele>1250.333333</ele>
<time>2026-08-16T05:52:06Z</time>
<speed>0.910282</speed>
<trueHeading>0.000000</trueHeading>
<magneticHeading>0.000000</magneticHeading>
<gpsHeading>270.911469</gpsHeading>
<haccuracy>4.580000</haccuracy>
<vaccuracy>4.580000</vaccuracy>
<internetconnect>0</internetconnect>
</trkpt>
<trkpt lat="35.858998" lon="139.058410">
<ele>1262.666667</ele>
<time>2026-08-16T05:53:53Z</time>
<speed>0.769909</speed>
<trueHeading>0.000000</trueHeading>
<magneticHeading>0.000000</magneticHeading>
<gpsHeading>288.608124</gpsHeading>
<haccuracy>3.037000</haccuracy>
<vaccuracy>3.037000</vaccuracy>
<internetconnect>0</internetconnect>
</trkpt>
<trkpt lat="35.859223" lon="139.058075">
<ele>1273.666667</ele>
<time>2026-08-16T05:54:42Z</time>
<speed>0.558509</speed>
<trueHeading>0.000000</trueHeading>
<magneticHeading>0.000000</magneticHeading>
<gpsHeading>309.515320</gpsHeading>
<haccuracy>3.000000</haccuracy>
<vaccuracy>3.000000</vaccuracy>
<internetconnect>0</internetconnect>
</trkpt>
<trkpt lat="35.859346" lon="139.057868">
<ele>1282.000000</ele>
<time>2026-08-16T05:56:45Z</time>
<speed>0.096034</speed>
<trueHeading>0.000000</trueHeading>
<magneticHeading>0.000000</magneticHeading>
<gpsHeading>306.438049</gpsHeading>
<haccuracy>3.666000</haccuracy>
<vaccuracy>3.666000</vaccuracy>
<internetconnect>0</internetconnect>
</trkpt>
<trkpt lat="35.859333" lon="139.057858">
<ele>1283.000000</ele>
<time>2026-08-16T05:59:20Z</time>
<speed>0.144139</speed>
<trueHeading>0.000000</trueHeading>
<magneticHeading>0.000000</magneticHeading>
<gpsHeading>211.481033</gpsHeading>
<haccuracy>4.875000</haccuracy>
<vaccuracy>4.875000</vaccuracy>
<internetconnect>0</internetconnect>
</trkpt>
<trkpt lat="35.859337" lon="139.057840">
<ele>1283.000000</ele>
<time>2026-08-16T06:01:36Z</time>
<speed>0.160925</speed>
<trueHeading>0.000000</trueHeading>
<magneticHeading>0.000000</magneticHeading>
<gpsHeading>285.291779</gpsHeading>
<haccuracy>6.547000</haccuracy>
<vaccuracy>6.547000</vaccuracy>
<internetconnect>0</internetconnect>
</trkpt>
<trkpt lat="35.859343" lon="139.057864">
<ele>1283.000000</ele>
<time>2026-08-16T06:03:49Z</time>
<speed>0.075749</speed>
<trueHeading>0.000000</trueHeading>
<magneticHeading>0.000000</magneticHeading>
<gpsHeading>72.301880</gpsHeading>
<haccuracy>5.475000</haccuracy>
<vaccuracy>5.475000</vaccuracy>
<internetconnect>0</internetconnect>
</trkpt>
<trkpt lat="35.859346" lon="139.057878">
<ele>1283.000000</ele>
<time>2026-08-16T06:05:52Z</time>
<speed>0.021632</speed>
<trueHeading>0.000000</trueHeading>
<magneticHeading>0.000000</magneticHeading>
<gpsHeading>75.509216</gpsHeading>
<haccuracy>3.000000</haccuracy>
<vaccuracy>3.000000</vaccuracy>
<internetconnect>0</internetconnect>
</trkpt>
<trkpt lat="35.859381" lon="139.057580">
<ele>1279.666667</ele>
<time>2026-08-16T06:07:54Z</time>
<speed>0.353279</speed>
<trueHeading>0.000000</trueHeading>
<magneticHeading>0.000000</magneticHeading>
<gpsHeading>278.289490</gpsHeading>
<haccuracy>3.376000</haccuracy>
<vaccuracy>3.376000</vaccuracy>
<internetconnect>0</internetconnect>
</trkpt>
<trkpt lat="35.859039" lon="139.057142">
<ele>1273.333333</ele>
<time>2026-08-16T06:08:40Z</time>
<speed>0.533959</speed>
<trueHeading>0.000000</trueHeading>
<magneticHeading>0.000000</magneticHeading>
<gpsHeading>226.066986</gpsHeading>
<haccuracy>4.405000</haccuracy>
<vaccuracy>4.405000</vaccuracy>
<internetconnect>0</internetconnect>
</trkpt>
<trkpt lat="35.858785" lon="139.056754">
<ele>1264.666667</ele>
<time>2026-08-16T06:09:29Z</time>
<speed>1.082749</speed>
<trueHeading>0.000000</trueHeading>
<magneticHeading>0.000000</magneticHeading>
<gpsHeading>231.096817</gpsHeading>
<haccuracy>3.001000</haccuracy>
<vaccuracy>3.001000</vaccuracy>
<internetconnect>0</internetconnect>
</trkpt>
<trkpt lat="35.858503" lon="139.056381">
<ele>1260.000000</ele>
<time>2026-08-16T06:10:16Z</time>
<speed>0.983528</speed>
<trueHeading>0.000000</trueHeading>
<magneticHeading>0.000000</magneticHeading>
<gpsHeading>227.015778</gpsHeading>
<haccuracy>3.059000</haccuracy>
<vaccuracy>3.059000</vaccuracy>
<internetconnect>0</internetconnect>
</trkpt>
<trkpt lat="35.858208" lon="139.056014">
<ele>1257.666667</ele>
<time>2026-08-16T06:11:05Z</time>
<speed>0.878753</speed>
<trueHeading>0.000000</trueHeading>
<magneticHeading>0.000000</magneticHeading>
<gpsHeading>225.243942</gpsHeading>
<haccuracy>5.826000</haccuracy>
<vaccuracy>5.826000</vaccuracy>
<internetconnect>0</internetconnect>
</trkpt>
<trkpt lat="35.858028" lon="139.055694">
<ele>1261.666667</ele>
<time>2026-08-16T06:11:52Z</time>
<speed>0.110389</speed>
<trueHeading>0.000000</trueHeading>
<magneticHeading>0.000000</magneticHeading>
<gpsHeading>235.193863</gpsHeading>
<haccuracy>5.011000</haccuracy>
<vaccuracy>5.011000</vaccuracy>
<internetconnect>0</internetconnect>
</trkpt>
<trkpt lat="35.857579" lon="139.055145">
<ele>1269.333333</ele>
<time>2026-08-16T06:12:40Z</time>
<speed>0.981878</speed>
<trueHeading>0.000000</trueHeading>
<magneticHeading>0.000000</magneticHeading>
<gpsHeading>224.758942</gpsHeading>
<haccuracy>5.366000</haccuracy>
<vaccuracy>5.366000</vaccuracy>
<internetconnect>0</internetconnect>
</trkpt>
<trkpt lat="35.857294" lon="139.054794">
<ele>1276.666667</ele>
<time>2026-08-16T06:13:27Z</time>
<speed>1.109837</speed>
<trueHeading>0.000000</trueHeading>
<magneticHeading>0.000000</magneticHeading>
<gpsHeading>224.904709</gpsHeading>
<haccuracy>8.202000</haccuracy>
<vaccuracy>8.202000</vaccuracy>
<internetconnect>0</internetconnect>
</trkpt>
<trkpt lat="35.857048" lon="139.054489">
<ele>1286.666667</ele>
<time>2026-08-16T06:14:16Z</time>
<speed>1.021551</speed>
<trueHeading>0.000000</trueHeading>
<magneticHeading>0.000000</magneticHeading>
<gpsHeading>225.162277</gpsHeading>
<haccuracy>5.083000</haccuracy>
<vaccuracy>5.083000</vaccuracy>
<internetconnect>0</internetconnect>
</trkpt>
<trkpt lat="35.856591" lon="139.054183">
<ele>1287.666667</ele>
<time>2026-08-16T06:15:05Z</time>
<speed>1.133924</speed>
<trueHeading>0.000000</trueHeading>
<magneticHeading>0.000000</magneticHeading>
<gpsHeading>208.496033</gpsHeading>
<haccuracy>5.468000</haccuracy>
<vaccuracy>5.468000</vaccuracy>
<internetconnect>0</internetconnect>
</trkpt>
<trkpt lat="35.856083" lon="139.054176">
<ele>1287.666667</ele>
<time>2026-08-16T06:15:52Z</time>
<speed>1.159152</speed>
<trueHeading>0.000000</trueHeading>
<magneticHeading>0.000000</magneticHeading>
<gpsHeading>180.684616</gpsHeading>
<haccuracy>6.016000</haccuracy>
<vaccuracy>6.016000</vaccuracy>
<internetconnect>0</internetconnect>
</trkpt>
<trkpt lat="35.855628" lon="139.054040">
<ele>1278.666667</ele>
<time>2026-08-16T06:16:40Z</time>
<speed>1.458464</speed>
<trueHeading>0.000000</trueHeading>
<magneticHeading>0.000000</magneticHeading>
<gpsHeading>193.648788</gpsHeading>
<haccuracy>5.626000</haccuracy>
<vaccuracy>5.626000</vaccuracy>
<internetconnect>0</internetconnect>
</trkpt>
<trkpt lat="35.855350" lon="139.053812">
<ele>1271.333333</ele>
<time>2026-08-16T06:17:37Z</time>
<speed>0.826142</speed>
<trueHeading>0.000000</trueHeading>
<magneticHeading>0.000000</magneticHeading>
<gpsHeading>213.556046</gpsHeading>
<haccuracy>4.475000</haccuracy>
<vaccuracy>4.475000</vaccuracy>
<internetconnect>0</internetconnect>
</trkpt>
<trkpt lat="35.854674" lon="139.053621">
<ele>1261.666667</ele>
<time>2026-08-16T06:18:23Z</time>
<speed>1.507337</speed>
<trueHeading>0.000000</trueHeading>
<magneticHeading>0.000000</magneticHeading>
<gpsHeading>192.942413</gpsHeading>
<haccuracy>5.763000</haccuracy>
<vaccuracy>5.763000</vaccuracy>
<internetconnect>0</internetconnect>
</trkpt>
<trkpt lat="35.854198" lon="139.053467">
<ele>1249.333333</ele>
<time>2026-08-16T06:19:10Z</time>
<speed>0.358596</speed>
<trueHeading>0.000000</trueHeading>
<magneticHeading>0.000000</magneticHeading>
<gpsHeading>194.686737</gpsHeading>
<haccuracy>4.055000</haccuracy>
<vaccuracy>4.055000</vaccuracy>
<internetconnect>0</internetconnect>
</trkpt>
<trkpt lat="35.853874" lon="139.053074">
<ele>1240.666667</ele>
<time>2026-08-16T06:19:56Z</time>
<speed>1.318983</speed>
<trueHeading>0.000000</trueHeading>
<magneticHeading>0.000000</magneticHeading>
<gpsHeading>224.397949</gpsHeading>
<haccuracy>4.405000</haccuracy>
<vaccuracy>4.405000</vaccuracy>
<internetconnect>0</internetconnect>
</trkpt>
<trkpt lat="35.853835" lon="139.052464">
<ele>1232.333333</ele>
<time>2026-08-16T06:20:46Z</time>
<speed>0.866500</speed>
<trueHeading>0.000000</trueHeading>
<magneticHeading>0.000000</magneticHeading>
<gpsHeading>265.489777</gpsHeading>
<haccuracy>5.833000</haccuracy>
<vaccuracy>5.833000</vaccuracy>
<internetconnect>0</internetconnect>
</trkpt>
<trkpt lat="35.853596" lon="139.051862">
<ele>1219.666667</ele>
<time>2026-08-16T06:21:33Z</time>
<speed>1.212216</speed>
<trueHeading>0.000000</trueHeading>
<magneticHeading>0.000000</magneticHeading>
<gpsHeading>243.955994</gpsHeading>
<haccuracy>5.445000</haccuracy>
<vaccuracy>5.445000</vaccuracy>
<internetconnect>0</internetconnect>
</trkpt>
<trkpt lat="35.852954" lon="139.051439">
<ele>1201.666667</ele>
<time>2026-08-16T06:22:24Z</time>
<speed>1.527108</speed>
<trueHeading>0.000000</trueHeading>
<magneticHeading>0.000000</magneticHeading>
<gpsHeading>208.105392</gpsHeading>
<haccuracy>5.389000</haccuracy>
<vaccuracy>5.389000</vaccuracy>
<internetconnect>0</internetconnect>
</trkpt>
<trkpt lat="35.852832" lon="139.050856">
<ele>1183.000000</ele>
<time>2026-08-16T06:23:12Z</time>
<speed>0.953035</speed>
<trueHeading>0.000000</trueHeading>
<magneticHeading>0.000000</magneticHeading>
<gpsHeading>255.536636</gpsHeading>
<haccuracy>4.807000</haccuracy>
<vaccuracy>4.807000</vaccuracy>
<internetconnect>0</internetconnect>
</trkpt>
<trkpt lat="35.852497" lon="139.050363">
<ele>1169.000000</ele>
<time>2026-08-16T06:24:00Z</time>
<speed>1.295624</speed>
<trueHeading>0.000000</trueHeading>
<magneticHeading>0.000000</magneticHeading>
<gpsHeading>229.943420</gpsHeading>
<haccuracy>4.504000</haccuracy>
<vaccuracy>4.504000</vaccuracy>
<internetconnect>0</internetconnect>
</trkpt>
<trkpt lat="35.852251" lon="139.049845">
<ele>1156.666667</ele>
<time>2026-08-16T06:24:46Z</time>
<speed>0.847005</speed>
<trueHeading>0.000000</trueHeading>
<magneticHeading>0.000000</magneticHeading>
<gpsHeading>239.713440</gpsHeading>
<haccuracy>4.934000</haccuracy>
<vaccuracy>4.934000</vaccuracy>
<internetconnect>0</internetconnect>
</trkpt>
<trkpt lat="35.851918" lon="139.049411">
<ele>1147.000000</ele>
<time>2026-08-16T06:25:32Z</time>
<speed>0.824478</speed>
<trueHeading>0.000000</trueHeading>
<magneticHeading>0.000000</magneticHeading>
<gpsHeading>226.522659</gpsHeading>
<haccuracy>6.767000</haccuracy>
<vaccuracy>6.767000</vaccuracy>
<internetconnect>0</internetconnect>
</trkpt>
<trkpt lat="35.851447" lon="139.049055">
<ele>1140.666667</ele>
<time>2026-08-16T06:26:20Z</time>
<speed>0.456824</speed>
<trueHeading>0.000000</trueHeading>
<magneticHeading>0.000000</magneticHeading>
<gpsHeading>211.518433</gpsHeading>
<haccuracy>6.172000</haccuracy>
<vaccuracy>6.172000</vaccuracy>
<internetconnect>0</internetconnect>
</trkpt>
<trkpt lat="35.851046" lon="139.048528">
<ele>1134.333333</ele>
<time>2026-08-16T06:27:07Z</time>
<speed>1.350214</speed>
<trueHeading>0.000000</trueHeading>
<magneticHeading>0.000000</magneticHeading>
<gpsHeading>226.809219</gpsHeading>
<haccuracy>5.368000</haccuracy>
<vaccuracy>5.368000</vaccuracy>
<internetconnect>0</internetconnect>
</trkpt>
<trkpt lat="35.850742" lon="139.048031">
<ele>1123.000000</ele>
<time>2026-08-16T06:27:54Z</time>
<speed>0.581219</speed>
<trueHeading>0.000000</trueHeading>
<magneticHeading>0.000000</magneticHeading>
<gpsHeading>232.979919</gpsHeading>
<haccuracy>5.603000</haccuracy>
<vaccuracy>5.603000</vaccuracy>
<internetconnect>0</internetconnect>
</trkpt>
<trkpt lat="35.850136" lon="139.047676">
<ele>1113.000000</ele>
<time>2026-08-16T06:28:41Z</time>
<speed>1.522949</speed>
<trueHeading>0.000000</trueHeading>
<magneticHeading>0.000000</magneticHeading>
<gpsHeading>205.386017</gpsHeading>
<haccuracy>5.582000</haccuracy>
<vaccuracy>5.582000</vaccuracy>
<internetconnect>0</internetconnect>
</trkpt>
<trkpt lat="35.849910" lon="139.047456">
<ele>1104.000000</ele>
<time>2026-08-16T06:29:38Z</time>
<speed>1.398191</speed>
<trueHeading>0.000000</trueHeading>
<magneticHeading>0.000000</magneticHeading>
<gpsHeading>218.325562</gpsHeading>
<haccuracy>3.161000</haccuracy>
<vaccuracy>3.161000</vaccuracy>
<internetconnect>0</internetconnect>
</trkpt>
<trkpt lat="35.849330" lon="139.047132">
<ele>1098.333333</ele>
<time>2026-08-16T06:30:25Z</time>
<speed>1.364194</speed>
<trueHeading>0.000000</trueHeading>
<magneticHeading>0.000000</magneticHeading>
<gpsHeading>204.340012</gpsHeading>
<haccuracy>4.841000</haccuracy>
<vaccuracy>4.841000</vaccuracy>
<internetconnect>0</internetconnect>
</trkpt>
<trkpt lat="35.848660" lon="139.047318">
<ele>1087.666667</ele>
<time>2026-08-16T06:31:15Z</time>
<speed>1.304429</speed>
<trueHeading>0.000000</trueHeading>
<magneticHeading>0.000000</magneticHeading>
<gpsHeading>167.332336</gpsHeading>
<haccuracy>6.842000</haccuracy>
<vaccuracy>6.842000</vaccuracy>
<internetconnect>0</internetconnect>
</trkpt>
<trkpt lat="35.848028" lon="139.047468">
<ele>1073.666667</ele>
<time>2026-08-16T06:32:03Z</time>
<speed>1.557019</speed>
<trueHeading>0.000000</trueHeading>
<magneticHeading>0.000000</magneticHeading>
<gpsHeading>169.091141</gpsHeading>
<haccuracy>3.608000</haccuracy>
<vaccuracy>3.608000</vaccuracy>
<internetconnect>0</internetconnect>
</trkpt>
<trkpt lat="35.847579" lon="139.047346">
<ele>1059.000000</ele>
<time>2026-08-16T06:32:54Z</time>
<speed>0.382380</speed>
<trueHeading>0.000000</trueHeading>
<magneticHeading>0.000000</magneticHeading>
<gpsHeading>192.416321</gpsHeading>
<haccuracy>4.043000</haccuracy>
<vaccuracy>4.043000</vaccuracy>
<internetconnect>0</internetconnect>
</trkpt>
<trkpt lat="35.847454" lon="139.046528">
<ele>1046.000000</ele>
<time>2026-08-16T06:33:41Z</time>
<speed>0.670688</speed>
<trueHeading>0.000000</trueHeading>
<magneticHeading>0.000000</magneticHeading>
<gpsHeading>259.356476</gpsHeading>
<haccuracy>5.252000</haccuracy>
<vaccuracy>5.252000</vaccuracy>
<internetconnect>0</internetconnect>
</trkpt>
<trkpt lat="35.847305" lon="139.045919">
<ele>1035.000000</ele>
<time>2026-08-16T06:34:29Z</time>
<speed>0.912698</speed>
<trueHeading>0.000000</trueHeading>
<magneticHeading>0.000000</magneticHeading>
<gpsHeading>253.122116</gpsHeading>
<haccuracy>4.377000</haccuracy>
<vaccuracy>4.377000</vaccuracy>
<internetconnect>0</internetconnect>
</trkpt>
<trkpt lat="35.847129" lon="139.045153">
<ele>1020.333333</ele>
<time>2026-08-16T06:35:16Z</time>
<speed>0.532004</speed>
<trueHeading>0.000000</trueHeading>
<magneticHeading>0.000000</magneticHeading>
<gpsHeading>254.205048</gpsHeading>
<haccuracy>5.849000</haccuracy>
<vaccuracy>5.849000</vaccuracy>
<internetconnect>0</internetconnect>
</trkpt>
<trkpt lat="35.847023" lon="139.044518">
<ele>1002.333333</ele>
<time>2026-08-16T06:36:06Z</time>
<speed>1.674727</speed>
<trueHeading>0.000000</trueHeading>
<magneticHeading>0.000000</magneticHeading>
<gpsHeading>258.406067</gpsHeading>
<haccuracy>5.051000</haccuracy>
<vaccuracy>5.051000</vaccuracy>
<internetconnect>0</internetconnect>
</trkpt>
<trkpt lat="35.846490" lon="139.044247">
<ele>984.333333</ele>
<time>2026-08-16T06:37:15Z</time>
<speed>0.285980</speed>
<trueHeading>0.000000</trueHeading>
<magneticHeading>0.000000</magneticHeading>
<gpsHeading>202.342529</gpsHeading>
<haccuracy>8.419000</haccuracy>
<vaccuracy>8.419000</vaccuracy>
<internetconnect>0</internetconnect>
</trkpt>
<trkpt lat="35.846214" lon="139.044151">
<ele>967.333333</ele>
<time>2026-08-16T06:38:02Z</time>
<speed>0.155789</speed>
<trueHeading>0.000000</trueHeading>
<magneticHeading>0.000000</magneticHeading>
<gpsHeading>195.713043</gpsHeading>
<haccuracy>3.015000</haccuracy>
<vaccuracy>3.015000</vaccuracy>
<internetconnect>2</internetconnect>
</trkpt>
<trkpt lat="35.845824" lon="139.044416">
<ele>948.666667</ele>
<time>2026-08-16T06:38:49Z</time>
<speed>1.734000</speed>
<trueHeading>0.000000</trueHeading>
<magneticHeading>0.000000</magneticHeading>
<gpsHeading>151.157135</gpsHeading>
<haccuracy>5.711000</haccuracy>
<vaccuracy>5.711000</vaccuracy>
<internetconnect>2</internetconnect>
</trkpt>
<trkpt lat="35.845510" lon="139.044405">
<ele>927.666667</ele>
<time>2026-08-16T06:39:37Z</time>
<speed>1.508754</speed>
<trueHeading>0.000000</trueHeading>
<magneticHeading>0.000000</magneticHeading>
<gpsHeading>181.593979</gpsHeading>
<haccuracy>9.213000</haccuracy>
<vaccuracy>9.213000</vaccuracy>
<internetconnect>2</internetconnect>
</trkpt>
<trkpt lat="35.845191" lon="139.044494">
<ele>908.000000</ele>
<time>2026-08-16T06:40:29Z</time>
<speed>1.591581</speed>
<trueHeading>0.000000</trueHeading>
<magneticHeading>0.000000</magneticHeading>
<gpsHeading>167.304352</gpsHeading>
<haccuracy>6.206000</haccuracy>
<vaccuracy>6.206000</vaccuracy>
<internetconnect>2</internetconnect>
</trkpt>
<trkpt lat="35.844878" lon="139.044552">
<ele>895.666667</ele>
<time>2026-08-16T06:41:17Z</time>
<speed>1.471968</speed>
<trueHeading>0.000000</trueHeading>
<magneticHeading>0.000000</magneticHeading>
<gpsHeading>171.397827</gpsHeading>
<haccuracy>5.495000</haccuracy>
<vaccuracy>5.495000</vaccuracy>
<internetconnect>2</internetconnect>
</trkpt>
<trkpt lat="35.844875" lon="139.044340">
<ele>891.666667</ele>
<time>2026-08-16T06:43:43Z</time>
<speed>0.319595</speed>
<trueHeading>0.000000</trueHeading>
<magneticHeading>0.000000</magneticHeading>
<gpsHeading>268.902985</gpsHeading>
<haccuracy>7.229000</haccuracy>
<vaccuracy>7.229000</vaccuracy>
<internetconnect>2</internetconnect>
</trkpt>
<trkpt lat="35.845123" lon="139.044173">
<ele>881.000000</ele>
<time>2026-08-16T06:44:55Z</time>
<speed>1.277696</speed>
<trueHeading>0.000000</trueHeading>
<magneticHeading>0.000000</magneticHeading>
<gpsHeading>331.362335</gpsHeading>
<haccuracy>5.968000</haccuracy>
<vaccuracy>5.968000</vaccuracy>
<internetconnect>2</internetconnect>
</trkpt>
<trkpt lat="35.844927" lon="139.043327">
<ele>866.000000</ele>
<time>2026-08-16T06:45:41Z</time>
<speed>1.456908</speed>
<trueHeading>0.000000</trueHeading>
<magneticHeading>0.000000</magneticHeading>
<gpsHeading>254.022797</gpsHeading>
<haccuracy>6.605000</haccuracy>
<vaccuracy>6.605000</vaccuracy>
<internetconnect>2</internetconnect>
</trkpt>
<trkpt lat="35.844717" lon="139.043598">
<ele>841.333333</ele>
<time>2026-08-16T06:46:48Z</time>
<speed>1.431534</speed>
<trueHeading>0.000000</trueHeading>
<magneticHeading>0.000000</magneticHeading>
<gpsHeading>133.604080</gpsHeading>
<haccuracy>5.268000</haccuracy>
<vaccuracy>5.268000</vaccuracy>
<internetconnect>2</internetconnect>
</trkpt>
<trkpt lat="35.844459" lon="139.043011">
<ele>824.333333</ele>
<time>2026-08-16T06:47:35Z</time>
<speed>1.366104</speed>
<trueHeading>0.000000</trueHeading>
<magneticHeading>0.000000</magneticHeading>
<gpsHeading>241.480026</gpsHeading>
<haccuracy>5.244000</haccuracy>
<vaccuracy>5.244000</vaccuracy>
<internetconnect>2</internetconnect>
</trkpt>
<trkpt lat="35.844216" lon="139.042795">
<ele>810.000000</ele>
<time>2026-08-16T06:48:56Z</time>
<speed>1.123145</speed>
<trueHeading>0.000000</trueHeading>
<magneticHeading>0.000000</magneticHeading>
<gpsHeading>215.694519</gpsHeading>
<haccuracy>6.145000</haccuracy>
<vaccuracy>6.145000</vaccuracy>
<internetconnect>2</internetconnect>
</trkpt>
<trkpt lat="35.843924" lon="139.042383">
<ele>794.666667</ele>
<time>2026-08-16T06:49:43Z</time>
<speed>1.359880</speed>
<trueHeading>0.000000</trueHeading>
<magneticHeading>0.000000</magneticHeading>
<gpsHeading>228.820694</gpsHeading>
<haccuracy>5.309000</haccuracy>
<vaccuracy>5.309000</vaccuracy>
<internetconnect>2</internetconnect>
</trkpt>
<trkpt lat="35.843607" lon="139.042046">
<ele>783.000000</ele>
<time>2026-08-16T06:50:32Z</time>
<speed>1.059139</speed>
<trueHeading>0.000000</trueHeading>
<magneticHeading>0.000000</magneticHeading>
<gpsHeading>220.780807</gpsHeading>
<haccuracy>5.879000</haccuracy>
<vaccuracy>5.879000</vaccuracy>
<internetconnect>2</internetconnect>
</trkpt>
<trkpt lat="35.843651" lon="139.041495">
<ele>770.000000</ele>
<time>2026-08-16T06:51:19Z</time>
<speed>0.855583</speed>
<trueHeading>0.000000</trueHeading>
<magneticHeading>0.000000</magneticHeading>
<gpsHeading>275.609375</gpsHeading>
<haccuracy>5.081000</haccuracy>
<vaccuracy>5.081000</vaccuracy>
<internetconnect>2</internetconnect>
</trkpt>
<trkpt lat="35.843476" lon="139.041202">
<ele>758.333333</ele>
<time>2026-08-16T06:52:16Z</time>
<speed>0.179657</speed>
<trueHeading>0.000000</trueHeading>
<magneticHeading>0.000000</magneticHeading>
<gpsHeading>233.660583</gpsHeading>
<haccuracy>3.409000</haccuracy>
<vaccuracy>3.409000</vaccuracy>
<internetconnect>2</internetconnect>
</trkpt>
<trkpt lat="35.843319" lon="139.040593">
<ele>745.000000</ele>
<time>2026-08-16T06:53:03Z</time>
<speed>1.151755</speed>
<trueHeading>0.000000</trueHeading>
<magneticHeading>0.000000</magneticHeading>
<gpsHeading>252.346695</gpsHeading>
<haccuracy>6.130000</haccuracy>
<vaccuracy>6.130000</vaccuracy>
<internetconnect>2</internetconnect>
</trkpt>
<trkpt lat="35.843035" lon="139.040711">
<ele>731.000000</ele>
<time>2026-08-16T06:54:16Z</time>
<speed>1.269963</speed>
<trueHeading>0.000000</trueHeading>
<magneticHeading>0.000000</magneticHeading>
<gpsHeading>161.463074</gpsHeading>
<haccuracy>3.000000</haccuracy>
<vaccuracy>3.000000</vaccuracy>
<internetconnect>2</internetconnect>
</trkpt>
<trkpt lat="35.842621" lon="139.041266">
<ele>720.666667</ele>
<time>2026-08-16T06:55:03Z</time>
<speed>0.850513</speed>
<trueHeading>0.000000</trueHeading>
<magneticHeading>0.000000</magneticHeading>
<gpsHeading>132.586197</gpsHeading>
<haccuracy>5.382000</haccuracy>
<vaccuracy>5.382000</vaccuracy>
<internetconnect>2</internetconnect>
</trkpt>
<trkpt lat="35.842622" lon="139.041852">
<ele>709.333333</ele>
<time>2026-08-16T06:55:50Z</time>
<speed>1.176563</speed>
<trueHeading>0.000000</trueHeading>
<magneticHeading>0.000000</magneticHeading>
<gpsHeading>89.867302</gpsHeading>
<haccuracy>5.808000</haccuracy>
<vaccuracy>5.808000</vaccuracy>
<internetconnect>2</internetconnect>
</trkpt>
<trkpt lat="35.842614" lon="139.042292">
<ele>692.333333</ele>
<time>2026-08-16T06:56:37Z</time>
<speed>0.729635</speed>
<trueHeading>0.000000</trueHeading>
<magneticHeading>0.000000</magneticHeading>
<gpsHeading>91.287224</gpsHeading>
<haccuracy>5.123000</haccuracy>
<vaccuracy>5.123000</vaccuracy>
<internetconnect>2</internetconnect>
</trkpt>
<trkpt lat="35.842450" lon="139.042643">
<ele>674.666667</ele>
<time>2026-08-16T06:57:34Z</time>
<speed>0.855451</speed>
<trueHeading>0.000000</trueHeading>
<magneticHeading>0.000000</magneticHeading>
<gpsHeading>120.014832</gpsHeading>
<haccuracy>6.163000</haccuracy>
<vaccuracy>6.163000</vaccuracy>
<internetconnect>2</internetconnect>
</trkpt>
<trkpt lat="35.842178" lon="139.042485">
<ele>657.666667</ele>
<time>2026-08-16T06:58:54Z</time>
<speed>1.467976</speed>
<trueHeading>0.000000</trueHeading>
<magneticHeading>0.000000</magneticHeading>
<gpsHeading>205.235687</gpsHeading>
<haccuracy>5.193000</haccuracy>
<vaccuracy>5.193000</vaccuracy>
<internetconnect>2</internetconnect>
</trkpt>
<trkpt lat="35.842061" lon="139.042651">
<ele>648.000000</ele>
<time>2026-08-16T07:00:58Z</time>
<speed>0.000000</speed>
<trueHeading>0.000000</trueHeading>
<magneticHeading>0.000000</magneticHeading>
<gpsHeading>131.139969</gpsHeading>
<haccuracy>11.024000</haccuracy>
<vaccuracy>11.024000</vaccuracy>
<internetconnect>2</internetconnect>
</trkpt>
<trkpt lat="35.841866" lon="139.042920">
<ele>638.000000</ele>
<time>2026-08-16T07:02:54Z</time>
<speed>1.570000</speed>
<trueHeading>0.000000</trueHeading>
<magneticHeading>0.000000</magneticHeading>
<gpsHeading>131.743591</gpsHeading>
<haccuracy>9.935000</haccuracy>
<vaccuracy>9.935000</vaccuracy>
<internetconnect>2</internetconnect>
</trkpt>
<trkpt lat="35.841559" lon="139.042927">
<ele>627.000000</ele>
<time>2026-08-16T07:03:55Z</time>
<speed>0.320064</speed>
<trueHeading>0.000000</trueHeading>
<magneticHeading>0.000000</magneticHeading>
<gpsHeading>179.031204</gpsHeading>
<haccuracy>3.976000</haccuracy>
<vaccuracy>3.976000</vaccuracy>
<internetconnect>2</internetconnect>
</trkpt>
<trkpt lat="35.841261" lon="139.043224">
<ele>619.000000</ele>
<time>2026-08-16T07:04:42Z</time>
<speed>1.402163</speed>
<trueHeading>0.000000</trueHeading>
<magneticHeading>0.000000</magneticHeading>
<gpsHeading>141.092514</gpsHeading>
<haccuracy>3.095000</haccuracy>
<vaccuracy>3.095000</vaccuracy>
<internetconnect>2</internetconnect>
</trkpt>
<trkpt lat="35.841317" lon="139.043739">
<ele>615.000000</ele>
<time>2026-08-16T07:05:20Z</time>
<speed>1.405204</speed>
<trueHeading>-999.000000</trueHeading>
<magneticHeading>-999.000000</magneticHeading>
<gpsHeading>82.256805</gpsHeading>
<haccuracy>3.114000</haccuracy>
<vaccuracy>3.114000</vaccuracy>
<internetconnect>2</internetconnect>
</trkpt>
</trkseg></trk>
</gpx>
