<?xml version="1.0" encoding="UTF-8"?>
<kml xmlns="http://www.opengis.net/kml/2.2">
<Document>
  <Name>20260606_20260606</Name>
  <Style id="L1">
    <LineStyle>
      <color>ff0000ff</color>
      <width>3</width>
    </LineStyle>
  </Style>
  <Placemark>
    <name>20260606 Start</name>
    <Point>
      <altitudeMode>relativeToGround</altitudeMode>
      <coordinates>139.044453,35.841761,621.000000</coordinates>
    </Point>
   </Placemark>
  <Placemark>
    <name>20260606 End</name>
    <Point>
      <altitudeMode>relativeToGround</altitudeMode>
      <coordinates>139.043987,35.841613,619.000000</coordinates>
    </Point>
   </Placemark>
  <Placemark>
    <name>20260606</name>
    <styleUrl>#L1</styleUrl>
    <LineString>
      <altitudeMode></altitudeMode>
      <coordinates>
139.044453,35.841761,621.000000 
139.044444,35.841775,619.000000 
139.044339,35.841603,620.333333 
139.044506,35.841860,619.000000 
139.043981,35.841472,617.333333 
139.043352,35.841114,614.000000 
139.042580,35.841295,614.000000 
139.042152,35.841323,615.666667 
139.040869,35.841010,615.000000 
139.040080,35.841116,615.000000 
139.039317,35.841563,616.000000 
139.038711,35.842059,618.333333 
139.038270,35.842599,618.000000 
139.038516,35.843159,600.666667 
139.038202,35.843748,595.666667 
139.038798,35.844387,592.333333 
139.039122,35.845000,605.666667 
139.038941,35.845645,606.666667 
139.038694,35.846195,605.333333 
139.038472,35.846831,604.000000 
139.038212,35.847421,601.666667 
139.037659,35.847811,597.333333 
139.037436,35.848438,601.666667 
139.036993,35.848916,605.666667 
139.036078,35.848854,612.333333 
139.035227,35.848901,611.333333 
139.034494,35.849091,606.000000 
139.033691,35.849050,608.333333 
139.033088,35.849242,607.000000 
139.032221,35.849226,611.666667 
139.031384,35.849518,611.000000 
139.030707,35.849925,614.000000 
139.030061,35.850238,616.000000 
139.029781,35.850402,620.000000 
139.029565,35.850781,631.666667 
139.028596,35.850913,645.000000 
139.027938,35.850627,658.000000 
139.027179,35.850734,654.333333 
139.027307,35.851335,652.666667 
139.026713,35.851630,646.000000 
139.026127,35.852103,646.666667 
139.025455,35.852485,650.666667 
139.024574,35.852448,655.333333 
139.023768,35.852455,665.000000 
139.022944,35.852378,665.666667 
139.022055,35.852508,669.666667 
139.021250,35.852528,670.666667 
139.020406,35.852482,680.333333 
139.019547,35.852426,685.333333 
139.018881,35.852664,687.666667 
139.018007,35.852857,688.333333 
139.017220,35.852772,703.333333 
139.016511,35.852506,708.333333 
139.016161,35.851929,707.333333 
139.015687,35.851449,703.666667 
139.015798,35.850795,702.333333 
139.015466,35.850887,701.000000 
139.015385,35.850924,692.000000 
139.015344,35.850834,694.000000 
139.014944,35.851073,696.666667 
139.014054,35.851066,698.000000 
139.013350,35.850849,699.333333 
139.013103,35.850348,706.666667 
139.013435,35.850191,712.333333 
139.012699,35.849840,719.333333 
139.011967,35.850117,720.000000 
139.011604,35.849800,723.000000 
139.011423,35.849286,727.666667 
139.010808,35.848966,737.333333 
139.010090,35.848786,743.666667 
139.009521,35.848456,750.666667 
139.008993,35.848681,769.000000 
139.009393,35.849155,797.000000 
139.009339,35.849801,834.000000 
139.009699,35.850314,848.666667 
139.009551,35.850980,852.000000 
139.008730,35.851245,840.000000 
139.007878,35.851184,833.000000 
139.007210,35.850887,822.333333 
139.006453,35.850827,820.666667 
139.005743,35.851233,823.666667 
139.005181,35.851322,839.333333 
139.004483,35.851313,845.666667 
139.004350,35.850653,847.000000 
139.004530,35.850059,844.333333 
139.004015,35.849639,847.333333 
139.003335,35.849912,859.000000 
139.002589,35.849761,869.000000 
139.002129,35.849795,877.666667 
139.001985,35.850344,881.666667 
139.001387,35.850761,887.000000 
139.000936,35.851169,893.000000 
139.000671,35.851720,897.333333 
139.000308,35.852284,903.333333 
138.999755,35.852283,900.000000 
138.999552,35.851646,904.333333 
138.998732,35.851538,908.000000 
138.998485,35.851028,919.000000 
138.998007,35.850557,920.666667 
138.997672,35.850151,923.000000 
138.997004,35.850310,924.666667 
138.996461,35.849873,928.333333 
138.996072,35.849524,934.333333 
138.995363,35.849340,935.000000 
138.994664,35.849522,942.333333 
138.994203,35.849957,946.333333 
138.993982,35.850565,953.666667 
138.993686,35.851111,957.333333 
138.993110,35.850980,963.666667 
138.992752,35.850471,975.000000 
138.992107,35.850465,986.000000 
138.991331,35.850391,998.666667 
138.990629,35.850435,999.000000 
138.990294,35.850305,992.333333 
138.990191,35.849601,978.333333 
138.989638,35.849023,981.000000 
138.988850,35.849019,985.333333 
138.987963,35.849126,996.000000 
138.987555,35.849185,1001.666667 
138.986381,35.848810,1010.666667 
138.986231,35.849224,1027.333333 
138.986520,35.850030,1032.333333 
138.986148,35.850567,1039.666667 
138.985551,35.850872,1040.000000 
138.984953,35.851383,1046.333333 
138.984832,35.852021,1046.333333 
138.984585,35.852582,1043.000000 
138.984570,35.853289,1045.000000 
138.984401,35.853747,1053.000000 
138.983575,35.853575,1063.333333 
138.982931,35.853538,1071.000000 
138.982059,35.853748,1075.333333 
138.981849,35.854380,1074.666667 
138.981545,35.854554,1073.666667 
138.981482,35.854567,1072.000000 
138.981425,35.854549,1071.666667 
138.981432,35.854544,1071.666667 
138.981425,35.854559,1073.000000 
138.981559,35.854661,1073.666667 
138.981425,35.854557,1070.666667 
138.981401,35.854465,1069.333333 
138.981501,35.854547,1069.666667 
138.981509,35.854591,1074.000000 
138.981503,35.854720,1084.666667 
138.981396,35.854993,1094.333333 
138.981382,35.855028,1103.333333 
138.981054,35.855114,1105.333333 
138.980971,35.855202,1106.333333 
138.980884,35.855226,1099.666667 
138.980858,35.855088,1094.333333 
138.980501,35.855166,1091.333333 
138.980150,35.855205,1093.000000 
138.980043,35.855186,1089.333333 
138.979931,35.855183,1090.333333 
138.979885,35.855410,1094.000000 
138.979938,35.855423,1100.000000 
138.979807,35.855537,1094.666667 
138.979725,35.855540,1096.000000 
138.978551,35.855520,1097.333333 
138.978583,35.855521,1089.333333 
138.978948,35.855623,1071.333333 
138.979364,35.855960,1066.000000 
138.979709,35.855925,1074.333333 
138.979760,35.856254,1083.666667 
138.979677,35.856580,1084.666667 
138.979774,35.856916,1084.333333 
138.979730,35.857259,1090.666667 
138.979652,35.857572,1091.666667 
138.979533,35.857978,1095.000000 
138.979629,35.858146,1094.333333 
138.979739,35.858587,1094.666667 
138.979721,35.858585,1092.333333 
138.979618,35.858753,1090.000000 
138.979658,35.858869,1085.333333 
138.979331,35.858800,1082.666667 
138.979211,35.858735,1083.333333 
138.979343,35.858887,1083.666667 
138.979248,35.858818,1089.333333 
138.979359,35.858986,1088.000000 
138.979169,35.859013,1087.333333 
138.979096,35.859013,1082.000000 
138.979080,35.859042,1082.333333 
138.978939,35.859249,1083.333333 
138.978639,35.859410,1085.333333 
138.978336,35.859588,1085.333333 
138.978227,35.859865,1086.666667 
138.978210,35.859977,1087.333333 
138.978169,35.860255,1088.000000 
138.978112,35.860215,1088.333333 
138.978371,35.860389,1089.000000 
138.978618,35.860493,1089.000000 
138.978487,35.860486,1090.000000 
138.978610,35.860596,1091.000000 
138.978390,35.860568,1091.000000 
138.978513,35.860510,1090.666667 
138.978158,35.860389,1089.666667 
138.978105,35.860284,1089.000000 
138.978184,35.860083,1088.666667 
138.978097,35.859886,1094.666667 
138.978038,35.859592,1101.666667 
138.978001,35.859630,1110.666667 
138.978040,35.859420,1110.000000 
138.978189,35.859309,1108.000000 
138.978240,35.859362,1103.333333 
138.978240,35.859368,1104.000000 
138.978336,35.859089,1113.666667 
138.978083,35.858827,1127.000000 
138.977835,35.858811,1139.666667 
138.977797,35.858827,1148.333333 
138.977568,35.858861,1160.000000 
138.977332,35.858762,1172.333333 
138.977221,35.858664,1189.000000 
138.976941,35.858690,1198.333333 
138.976892,35.858645,1209.000000 
138.976707,35.858577,1213.333333 
138.976633,35.858545,1220.000000 
138.976583,35.858466,1227.666667 
138.976355,35.858628,1233.666667 
138.976369,35.858314,1242.666667 
138.976133,35.858108,1250.333333 
138.975762,35.858106,1259.333333 
138.975619,35.858046,1267.000000 
138.975274,35.857855,1273.666667 
138.974962,35.857765,1279.333333 
138.974672,35.857931,1280.666667 
138.974508,35.858168,1275.666667 
138.974255,35.858382,1267.333333 
138.974043,35.858386,1261.000000 
138.974070,35.858622,1257.666667 
138.973984,35.858766,1254.333333 
138.973775,35.858881,1249.333333 
138.973576,35.859002,1244.666667 
138.973195,35.858988,1245.666667 
138.973271,35.859091,1247.333333 
138.973269,35.859083,1248.666667 
138.973243,35.859056,1247.333333 
138.973266,35.859058,1248.666667 
138.973263,35.859152,1250.000000 
138.973249,35.859104,1251.333333 
138.973235,35.859095,1252.000000 
138.972931,35.859255,1256.333333 
138.972620,35.859443,1261.000000 
138.972436,35.859593,1263.000000 
138.972175,35.859689,1264.666667 
138.972351,35.859731,1264.666667 
138.972251,35.859723,1268.666667 
138.972341,35.859874,1274.666667 
138.972461,35.860001,1286.000000 
138.972613,35.860053,1298.333333 
138.972880,35.860085,1313.333333 
138.973141,35.860291,1330.333333 
138.973149,35.860573,1347.666667 
138.972970,35.860960,1359.666667 
138.972853,35.861232,1368.333333 
138.972436,35.861229,1376.333333 
138.972200,35.861442,1387.333333 
138.972083,35.861744,1400.333333 
138.971801,35.861923,1413.000000 
138.971582,35.862158,1425.000000 
138.971286,35.862424,1433.333333 
138.970978,35.862553,1442.000000 
138.970804,35.862815,1449.333333 
138.970650,35.863073,1457.333333 
138.970440,35.863334,1466.000000 
138.970088,35.863579,1475.333333 
138.969941,35.863867,1487.666667 
138.969864,35.864183,1498.666667 
138.969994,35.864451,1510.666667 
138.969997,35.864797,1521.666667 
138.969957,35.865092,1530.333333 
138.969954,35.865376,1540.666667 
138.969583,35.865380,1553.000000 
138.969354,35.865607,1568.000000 
138.969019,35.865752,1578.333333 
138.968739,35.866011,1583.666667 
138.968433,35.866301,1587.000000 
138.968178,35.866270,1589.000000 
138.967839,35.866421,1587.666667 
138.967365,35.866675,1588.666667 
138.966880,35.866868,1591.333333 
138.966607,35.867118,1593.000000 
138.966333,35.867315,1598.000000 
138.965821,35.867460,1603.000000 
138.965552,35.867763,1612.666667 
138.965223,35.867961,1616.666667 
138.964734,35.868210,1622.333333 
138.964333,35.868270,1628.333333 
138.963790,35.868505,1634.666667 
138.963646,35.868812,1642.000000 
138.963390,35.869036,1648.000000 
138.963209,35.869296,1654.666667 
138.962630,35.869335,1661.333333 
138.962263,35.869471,1671.333333 
138.961947,35.869594,1682.000000 
138.961676,35.869788,1690.666667 
138.961368,35.869913,1698.000000 
138.960962,35.869929,1704.333333 
138.960586,35.870060,1711.000000 
138.960063,35.870230,1718.000000 
138.959674,35.870291,1724.000000 
138.959286,35.870480,1726.666667 
138.959595,35.870248,1723.666667 
138.960228,35.870139,1716.333333 
138.960758,35.870014,1708.000000 
138.961340,35.869855,1698.666667 
138.961824,35.869602,1688.333333 
138.962163,35.869526,1676.000000 
138.962446,35.869276,1665.666667 
138.962792,35.869386,1657.333333 
138.963247,35.869296,1653.000000 
138.963366,35.869009,1647.333333 
138.963567,35.868772,1642.333333 
138.963670,35.868425,1636.000000 
138.964146,35.868278,1632.000000 
138.964614,35.868061,1629.000000 
138.965132,35.867780,1625.000000 
138.965557,35.867426,1617.666667 
138.966131,35.867172,1608.666667 
138.966673,35.866993,1597.666667 
138.967079,35.866753,1590.333333 
138.967617,35.866638,1588.000000 
138.968057,35.866296,1587.000000 
138.968668,35.866129,1585.333333 
138.969117,35.865728,1574.000000 
138.969515,35.865701,1560.666667 
138.969786,35.865375,1544.000000 
138.970073,35.865044,1529.666667 
138.970019,35.864646,1515.000000 
138.969886,35.864157,1499.333333 
138.969916,35.863765,1485.000000 
138.970112,35.863402,1472.000000 
138.970532,35.863150,1461.666667 
138.970817,35.862769,1450.333333 
138.971194,35.862626,1440.666667 
138.971387,35.862374,1430.666667 
138.971539,35.861988,1418.666667 
138.972023,35.861725,1403.333333 
138.972323,35.861522,1388.000000 
138.972455,35.861183,1374.666667 
138.972936,35.860988,1362.333333 
138.973158,35.860563,1348.333333 
138.973653,35.860244,1335.000000 
138.974012,35.860002,1322.000000 
138.974327,35.859589,1310.666667 
138.974300,35.859234,1300.333333 
138.974565,35.858792,1292.000000 
138.974714,35.858297,1286.000000 
138.974802,35.857808,1280.666667 
138.975096,35.857609,1274.000000 
138.975386,35.857355,1258.666667 
138.975930,35.857061,1241.666667 
138.976285,35.857046,1223.000000 
138.976536,35.856794,1211.666667 
138.976947,35.856746,1196.000000 
138.977339,35.856383,1181.666667 
138.977436,35.856050,1168.000000 
138.977566,35.855686,1160.333333 
138.977655,35.855223,1155.000000 
138.977712,35.854773,1144.666667 
138.978090,35.854393,1137.000000 
138.978001,35.854679,1123.666667 
138.978362,35.855152,1110.333333 
138.978546,35.854890,1085.333333 
138.979041,35.855147,1062.666667 
138.979049,35.854721,1046.000000 
138.979473,35.854761,1040.000000 
138.979801,35.854577,1047.000000 
138.980288,35.854830,1049.333333 
138.980681,35.854742,1061.333333 
138.981177,35.854790,1064.666667 
138.981438,35.854561,1075.666667 
138.982132,35.853725,1073.666667 
138.983224,35.853456,1067.000000 
138.984400,35.853724,1056.000000 
138.984742,35.852793,1052.666667 
138.984889,35.851770,1048.666667 
138.985319,35.851042,1040.666667 
138.986219,35.850405,1028.666667 
138.986269,35.849556,1019.333333 
138.986531,35.848804,1013.666667 
138.987546,35.849242,1009.000000 
138.988697,35.849263,1007.000000 
138.989515,35.849401,1001.000000 
138.990059,35.850162,997.333333 
138.991173,35.850330,988.666667 
138.992262,35.850380,983.000000 
138.992906,35.850769,969.333333 
138.993766,35.851220,962.000000 
138.994129,35.850314,956.666667 
138.994695,35.849663,950.333333 
138.995671,35.849597,943.000000 
138.996362,35.850148,934.000000 
138.997375,35.850469,850.333333 
139.018778,35.852639,767.000000 
139.018786,35.852648,683.000000 
139.019215,35.852714,678.333333 
139.019286,35.852731,672.666667 
139.020023,35.852703,670.666667 
139.020092,35.852693,676.000000 
139.020778,35.852451,682.666667 
139.020827,35.852462,683.000000 
139.021491,35.852534,683.333333 
139.021522,35.852455,684.666667 
139.022301,35.852315,691.333333 
139.022376,35.852281,698.000000 
139.023084,35.852107,703.333333 
139.023171,35.852104,714.666667 
139.023885,35.851944,720.333333 
139.023960,35.851926,729.333333 
139.024715,35.852046,732.000000 
139.024811,35.852025,726.000000 
139.025454,35.851788,716.666667 
139.025534,35.851779,698.333333 
139.026215,35.851512,687.666667 
139.026215,35.851512,672.000000 
139.026996,35.851266,667.000000 
139.026996,35.851266,666.333333 
139.027026,35.850735,670.666667 
139.027026,35.850735,675.000000 
139.027822,35.850481,675.000000 
139.027822,35.850481,672.333333 
139.028600,35.850692,669.666667 
139.028600,35.850692,659.333333 
139.029309,35.850771,651.666667 
139.029309,35.850771,639.000000 
139.029651,35.850248,634.000000 
139.029651,35.850248,625.333333 
139.030457,35.850114,621.666667 
139.030457,35.850114,617.000000 
139.031110,35.849813,616.000000 
139.031110,35.849813,615.000000 
139.031803,35.849484,615.000000 
139.031803,35.849484,614.666667 
139.032525,35.849217,614.333333 
139.032525,35.849217,617.000000 
139.033342,35.849271,620.000000 
139.033342,35.849271,625.000000 
139.034095,35.849444,627.000000 
139.034095,35.849444,625.000000 
139.034858,35.849181,621.000000 
139.034858,35.849181,618.000000 
139.035507,35.849098,619.000000 
139.035507,35.849098,619.333333 
139.036387,35.848953,618.666667 
139.036387,35.848953,616.333333 
139.037183,35.848919,614.666667 
139.037183,35.848919,607.666667 
139.037559,35.848401,602.333333 
139.037559,35.848401,598.666667 
139.037799,35.847786,600.333333 
139.037799,35.847786,603.000000 
139.038414,35.847318,604.000000 
139.038414,35.847318,605.666667 
139.038656,35.846766,606.333333 
139.038656,35.846766,606.333333 
139.038664,35.846096,605.666667 
139.038664,35.846096,605.000000 
139.038980,35.845516,605.000000 
139.038980,35.845516,604.333333 
139.039056,35.844891,603.666667 
139.039056,35.844891,601.666667 
139.038691,35.844299,600.333333 
139.038691,35.844299,591.333333 
139.038321,35.843746,583.666667 
139.038321,35.843746,595.333333 
139.038631,35.843208,614.666667 
139.038631,35.843208,626.666667 
139.038122,35.842660,619.333333 
139.038122,35.842660,614.666667 
139.038532,35.842180,617.333333 
139.038532,35.842180,619.000000 
139.039102,35.841755,618.000000 
139.039102,35.841755,616.666667 
139.039619,35.841308,616.333333 
139.039619,35.841308,615.333333 
139.040275,35.841103,614.666667 
139.040275,35.841103,614.666667 
139.041143,35.841044,615.333333 
139.041143,35.841044,615.000000 
139.042035,35.841071,614.000000 
139.042035,35.841071,614.333333 
139.042669,35.841381,615.666667 
139.042669,35.841381,616.333333 
139.043406,35.841215,615.666667 
139.043406,35.841215,616.333333 
139.043913,35.841555,617.666667 
139.043913,35.841555,619.000000 
139.043987,35.841613,619.000000 
139.043987,35.841613,619.000000 
      </coordinates>
    </LineString>
  </Placemark>
</Document>
</kml>
