<?xml version="1.0" encoding="UTF-8"?>
<gpx xmlns:xsi="http://www.w3.org/2001/XMLSchema-instance" xmlns="http://www.topografix.com/GPX/1/0" xsi:schemaLocation="http://www.topografix.com/GPX/1/1 http://www.topografix.com/GPX/1/1/gpx.xsd" creator="Geographica - http://geographica.biz/" appVersion="Ver 2.1.55:4400" device="google sunfish" android="13" carrier="povo">
<trk>
<name>20260719</name>
<trkseg>
<trkpt lat="35.809069" lon="139.096641">
<ele>342.000000</ele>
<time>2026-07-18T22:39:40Z</time>
<speed>0.370000</speed>
<trueHeading>0.000000</trueHeading>
<magneticHeading>0.000000</magneticHeading>
<gpsHeading>0.000000</gpsHeading>
<haccuracy>3.790092</haccuracy>
<vaccuracy>3.790092</vaccuracy>
<internetconnect>2</internetconnect>
</trkpt>
<trkpt lat="35.808283" lon="139.096794">
<ele>330.666667</ele>
<time>2026-07-18T22:41:38Z</time>
<speed>1.391125</speed>
<trueHeading>0.000000</trueHeading>
<magneticHeading>0.000000</magneticHeading>
<gpsHeading>152.881516</gpsHeading>
<haccuracy>3.763000</haccuracy>
<vaccuracy>3.763000</vaccuracy>
<internetconnect>2</internetconnect>
</trkpt>
<trkpt lat="35.807515" lon="139.095800">
<ele>327.333333</ele>
<time>2026-07-18T22:43:11Z</time>
<speed>1.033081</speed>
<trueHeading>0.000000</trueHeading>
<magneticHeading>0.000000</magneticHeading>
<gpsHeading>230.542603</gpsHeading>
<haccuracy>3.655000</haccuracy>
<vaccuracy>3.655000</vaccuracy>
<internetconnect>2</internetconnect>
</trkpt>
<trkpt lat="35.807145" lon="139.094910">
<ele>349.666667</ele>
<time>2026-07-18T22:44:45Z</time>
<speed>1.155713</speed>
<trueHeading>0.000000</trueHeading>
<magneticHeading>0.000000</magneticHeading>
<gpsHeading>289.123138</gpsHeading>
<haccuracy>3.003000</haccuracy>
<vaccuracy>3.003000</vaccuracy>
<internetconnect>2</internetconnect>
</trkpt>
<trkpt lat="35.807978" lon="139.094450">
<ele>369.000000</ele>
<time>2026-07-18T22:46:20Z</time>
<speed>1.351384</speed>
<trueHeading>0.000000</trueHeading>
<magneticHeading>0.000000</magneticHeading>
<gpsHeading>344.192230</gpsHeading>
<haccuracy>3.455000</haccuracy>
<vaccuracy>3.455000</vaccuracy>
<internetconnect>2</internetconnect>
</trkpt>
<trkpt lat="35.807066" lon="139.093472">
<ele>384.666667</ele>
<time>2026-07-18T22:47:55Z</time>
<speed>1.430859</speed>
<trueHeading>0.000000</trueHeading>
<magneticHeading>0.000000</magneticHeading>
<gpsHeading>233.564911</gpsHeading>
<haccuracy>3.000000</haccuracy>
<vaccuracy>3.000000</vaccuracy>
<internetconnect>2</internetconnect>
</trkpt>
<trkpt lat="35.806407" lon="139.092240">
<ele>403.666667</ele>
<time>2026-07-18T22:49:33Z</time>
<speed>1.195747</speed>
<trueHeading>0.000000</trueHeading>
<magneticHeading>0.000000</magneticHeading>
<gpsHeading>221.689194</gpsHeading>
<haccuracy>4.184000</haccuracy>
<vaccuracy>4.184000</vaccuracy>
<internetconnect>2</internetconnect>
</trkpt>
<trkpt lat="35.805826" lon="139.091641">
<ele>427.333333</ele>
<time>2026-07-18T22:51:55Z</time>
<speed>1.196294</speed>
<trueHeading>0.000000</trueHeading>
<magneticHeading>0.000000</magneticHeading>
<gpsHeading>264.097626</gpsHeading>
<haccuracy>4.706000</haccuracy>
<vaccuracy>4.706000</vaccuracy>
<internetconnect>2</internetconnect>
</trkpt>
<trkpt lat="35.805588" lon="139.090478">
<ele>475.333333</ele>
<time>2026-07-18T22:54:30Z</time>
<speed>0.961281</speed>
<trueHeading>0.000000</trueHeading>
<magneticHeading>0.000000</magneticHeading>
<gpsHeading>251.779175</gpsHeading>
<haccuracy>5.475000</haccuracy>
<vaccuracy>5.475000</vaccuracy>
<internetconnect>2</internetconnect>
</trkpt>
<trkpt lat="35.806269" lon="139.089489">
<ele>491.000000</ele>
<time>2026-07-18T22:56:55Z</time>
<speed>0.732427</speed>
<trueHeading>0.000000</trueHeading>
<magneticHeading>0.000000</magneticHeading>
<gpsHeading>329.308685</gpsHeading>
<haccuracy>6.994000</haccuracy>
<vaccuracy>6.994000</vaccuracy>
<internetconnect>2</internetconnect>
</trkpt>
<trkpt lat="35.807077" lon="139.088179">
<ele>525.666667</ele>
<time>2026-07-18T22:59:19Z</time>
<speed>1.018433</speed>
<trueHeading>0.000000</trueHeading>
<magneticHeading>0.000000</magneticHeading>
<gpsHeading>288.579224</gpsHeading>
<haccuracy>5.051000</haccuracy>
<vaccuracy>5.051000</vaccuracy>
<internetconnect>2</internetconnect>
</trkpt>
<trkpt lat="35.807810" lon="139.088827">
<ele>554.333333</ele>
<time>2026-07-18T23:01:41Z</time>
<speed>1.548061</speed>
<trueHeading>0.000000</trueHeading>
<magneticHeading>0.000000</magneticHeading>
<gpsHeading>78.670044</gpsHeading>
<haccuracy>5.916000</haccuracy>
<vaccuracy>5.916000</vaccuracy>
<internetconnect>2</internetconnect>
</trkpt>
<trkpt lat="35.808029" lon="139.089182">
<ele>565.000000</ele>
<time>2026-07-18T23:03:25Z</time>
<speed>1.575729</speed>
<trueHeading>0.000000</trueHeading>
<magneticHeading>0.000000</magneticHeading>
<gpsHeading>297.049500</gpsHeading>
<haccuracy>5.559000</haccuracy>
<vaccuracy>5.559000</vaccuracy>
<internetconnect>2</internetconnect>
</trkpt>
<trkpt lat="35.808071" lon="139.087896">
<ele>577.666667</ele>
<time>2026-07-18T23:04:59Z</time>
<speed>1.516212</speed>
<trueHeading>0.000000</trueHeading>
<magneticHeading>0.000000</magneticHeading>
<gpsHeading>271.954224</gpsHeading>
<haccuracy>4.318000</haccuracy>
<vaccuracy>4.318000</vaccuracy>
<internetconnect>2</internetconnect>
</trkpt>
<trkpt lat="35.807915" lon="139.086795">
<ele>599.666667</ele>
<time>2026-07-18T23:06:34Z</time>
<speed>0.279648</speed>
<trueHeading>0.000000</trueHeading>
<magneticHeading>0.000000</magneticHeading>
<gpsHeading>226.752838</gpsHeading>
<haccuracy>4.214000</haccuracy>
<vaccuracy>4.214000</vaccuracy>
<internetconnect>2</internetconnect>
</trkpt>
<trkpt lat="35.807959" lon="139.085983">
<ele>614.000000</ele>
<time>2026-07-18T23:08:07Z</time>
<speed>1.196982</speed>
<trueHeading>0.000000</trueHeading>
<magneticHeading>0.000000</magneticHeading>
<gpsHeading>313.224915</gpsHeading>
<haccuracy>5.187000</haccuracy>
<vaccuracy>5.187000</vaccuracy>
<internetconnect>2</internetconnect>
</trkpt>
<trkpt lat="35.808064" lon="139.085853">
<ele>636.000000</ele>
<time>2026-07-18T23:10:40Z</time>
<speed>1.368243</speed>
<trueHeading>0.000000</trueHeading>
<magneticHeading>0.000000</magneticHeading>
<gpsHeading>262.792114</gpsHeading>
<haccuracy>5.694000</haccuracy>
<vaccuracy>5.694000</vaccuracy>
<internetconnect>2</internetconnect>
</trkpt>
<trkpt lat="35.808736" lon="139.085745">
<ele>652.000000</ele>
<time>2026-07-18T23:12:13Z</time>
<speed>1.088532</speed>
<trueHeading>0.000000</trueHeading>
<magneticHeading>0.000000</magneticHeading>
<gpsHeading>305.903839</gpsHeading>
<haccuracy>5.383000</haccuracy>
<vaccuracy>5.383000</vaccuracy>
<internetconnect>2</internetconnect>
</trkpt>
<trkpt lat="35.809551" lon="139.084466">
<ele>684.000000</ele>
<time>2026-07-18T23:14:37Z</time>
<speed>1.405139</speed>
<trueHeading>0.000000</trueHeading>
<magneticHeading>0.000000</magneticHeading>
<gpsHeading>300.909241</gpsHeading>
<haccuracy>5.340000</haccuracy>
<vaccuracy>5.340000</vaccuracy>
<internetconnect>2</internetconnect>
</trkpt>
<trkpt lat="35.809933" lon="139.083454">
<ele>711.000000</ele>
<time>2026-07-18T23:16:13Z</time>
<speed>0.936473</speed>
<trueHeading>0.000000</trueHeading>
<magneticHeading>0.000000</magneticHeading>
<gpsHeading>296.594543</gpsHeading>
<haccuracy>5.325000</haccuracy>
<vaccuracy>5.325000</vaccuracy>
<internetconnect>2</internetconnect>
</trkpt>
<trkpt lat="35.809279" lon="139.082246">
<ele>731.666667</ele>
<time>2026-07-18T23:18:35Z</time>
<speed>1.322409</speed>
<trueHeading>0.000000</trueHeading>
<magneticHeading>0.000000</magneticHeading>
<gpsHeading>250.660568</gpsHeading>
<haccuracy>5.418000</haccuracy>
<vaccuracy>5.418000</vaccuracy>
<internetconnect>2</internetconnect>
</trkpt>
<trkpt lat="35.810090" lon="139.082754">
<ele>752.666667</ele>
<time>2026-07-18T23:20:09Z</time>
<speed>1.237779</speed>
<trueHeading>0.000000</trueHeading>
<magneticHeading>0.000000</magneticHeading>
<gpsHeading>354.448669</gpsHeading>
<haccuracy>5.424000</haccuracy>
<vaccuracy>5.424000</vaccuracy>
<internetconnect>2</internetconnect>
</trkpt>
<trkpt lat="35.810762" lon="139.082930">
<ele>785.666667</ele>
<time>2026-07-18T23:22:36Z</time>
<speed>1.103757</speed>
<trueHeading>0.000000</trueHeading>
<magneticHeading>0.000000</magneticHeading>
<gpsHeading>304.320496</gpsHeading>
<haccuracy>5.896000</haccuracy>
<vaccuracy>5.896000</vaccuracy>
<internetconnect>2</internetconnect>
</trkpt>
<trkpt lat="35.810653" lon="139.081628">
<ele>810.000000</ele>
<time>2026-07-18T23:25:02Z</time>
<speed>0.751097</speed>
<trueHeading>0.000000</trueHeading>
<magneticHeading>0.000000</magneticHeading>
<gpsHeading>281.756592</gpsHeading>
<haccuracy>5.633000</haccuracy>
<vaccuracy>5.633000</vaccuracy>
<internetconnect>2</internetconnect>
</trkpt>
<trkpt lat="35.810303" lon="139.080319">
<ele>823.666667</ele>
<time>2026-07-18T23:26:37Z</time>
<speed>1.367515</speed>
<trueHeading>0.000000</trueHeading>
<magneticHeading>0.000000</magneticHeading>
<gpsHeading>242.323578</gpsHeading>
<haccuracy>6.190000</haccuracy>
<vaccuracy>6.190000</vaccuracy>
<internetconnect>2</internetconnect>
</trkpt>
<trkpt lat="35.810012" lon="139.079116">
<ele>845.000000</ele>
<time>2026-07-18T23:28:11Z</time>
<speed>1.410384</speed>
<trueHeading>0.000000</trueHeading>
<magneticHeading>0.000000</magneticHeading>
<gpsHeading>247.034256</gpsHeading>
<haccuracy>5.195000</haccuracy>
<vaccuracy>5.195000</vaccuracy>
<internetconnect>2</internetconnect>
</trkpt>
<trkpt lat="35.809895" lon="139.077881">
<ele>861.000000</ele>
<time>2026-07-18T23:29:46Z</time>
<speed>1.397251</speed>
<trueHeading>0.000000</trueHeading>
<magneticHeading>0.000000</magneticHeading>
<gpsHeading>267.049957</gpsHeading>
<haccuracy>4.926000</haccuracy>
<vaccuracy>4.926000</vaccuracy>
<internetconnect>2</internetconnect>
</trkpt>
<trkpt lat="35.809465" lon="139.076544">
<ele>879.000000</ele>
<time>2026-07-18T23:32:07Z</time>
<speed>0.970656</speed>
<trueHeading>0.000000</trueHeading>
<magneticHeading>0.000000</magneticHeading>
<gpsHeading>258.621521</gpsHeading>
<haccuracy>5.796000</haccuracy>
<vaccuracy>5.796000</vaccuracy>
<internetconnect>2</internetconnect>
</trkpt>
<trkpt lat="35.809583" lon="139.075232">
<ele>894.333333</ele>
<time>2026-07-18T23:33:41Z</time>
<speed>1.106749</speed>
<trueHeading>0.000000</trueHeading>
<magneticHeading>0.000000</magneticHeading>
<gpsHeading>283.961304</gpsHeading>
<haccuracy>5.298000</haccuracy>
<vaccuracy>5.298000</vaccuracy>
<internetconnect>2</internetconnect>
</trkpt>
<trkpt lat="35.810041" lon="139.073802">
<ele>925.333333</ele>
<time>2026-07-18T23:36:05Z</time>
<speed>0.744179</speed>
<trueHeading>0.000000</trueHeading>
<magneticHeading>0.000000</magneticHeading>
<gpsHeading>295.813507</gpsHeading>
<haccuracy>5.652000</haccuracy>
<vaccuracy>5.652000</vaccuracy>
<internetconnect>2</internetconnect>
</trkpt>
<trkpt lat="35.810631" lon="139.072801">
<ele>961.000000</ele>
<time>2026-07-18T23:38:37Z</time>
<speed>0.998065</speed>
<trueHeading>0.000000</trueHeading>
<magneticHeading>0.000000</magneticHeading>
<gpsHeading>323.416443</gpsHeading>
<haccuracy>4.621000</haccuracy>
<vaccuracy>4.621000</vaccuracy>
<internetconnect>2</internetconnect>
</trkpt>
<trkpt lat="35.811645" lon="139.072221">
<ele>992.000000</ele>
<time>2026-07-18T23:41:01Z</time>
<speed>1.468659</speed>
<trueHeading>0.000000</trueHeading>
<magneticHeading>0.000000</magneticHeading>
<gpsHeading>339.137878</gpsHeading>
<haccuracy>6.384000</haccuracy>
<vaccuracy>6.384000</vaccuracy>
<internetconnect>2</internetconnect>
</trkpt>
<trkpt lat="35.812341" lon="139.071318">
<ele>1020.333333</ele>
<time>2026-07-18T23:43:24Z</time>
<speed>1.011277</speed>
<trueHeading>0.000000</trueHeading>
<magneticHeading>0.000000</magneticHeading>
<gpsHeading>317.797363</gpsHeading>
<haccuracy>6.697000</haccuracy>
<vaccuracy>6.697000</vaccuracy>
<internetconnect>2</internetconnect>
</trkpt>
<trkpt lat="35.812964" lon="139.070524">
<ele>1047.333333</ele>
<time>2026-07-18T23:45:49Z</time>
<speed>0.898604</speed>
<trueHeading>0.000000</trueHeading>
<magneticHeading>0.000000</magneticHeading>
<gpsHeading>313.254150</gpsHeading>
<haccuracy>4.767000</haccuracy>
<vaccuracy>4.767000</vaccuracy>
<internetconnect>2</internetconnect>
</trkpt>
<trkpt lat="35.813566" lon="139.069707">
<ele>1078.000000</ele>
<time>2026-07-18T23:48:30Z</time>
<speed>0.370625</speed>
<trueHeading>0.000000</trueHeading>
<magneticHeading>0.000000</magneticHeading>
<gpsHeading>334.764923</gpsHeading>
<haccuracy>5.642000</haccuracy>
<vaccuracy>5.642000</vaccuracy>
<internetconnect>2</internetconnect>
</trkpt>
<trkpt lat="35.813547" lon="139.068727">
<ele>1104.666667</ele>
<time>2026-07-18T23:51:09Z</time>
<speed>0.955808</speed>
<trueHeading>0.000000</trueHeading>
<magneticHeading>0.000000</magneticHeading>
<gpsHeading>219.717880</gpsHeading>
<haccuracy>5.370000</haccuracy>
<vaccuracy>5.370000</vaccuracy>
<internetconnect>2</internetconnect>
</trkpt>
<trkpt lat="35.813141" lon="139.067654">
<ele>1135.333333</ele>
<time>2026-07-18T23:53:46Z</time>
<speed>1.211384</speed>
<trueHeading>0.000000</trueHeading>
<magneticHeading>0.000000</magneticHeading>
<gpsHeading>214.140930</gpsHeading>
<haccuracy>6.589000</haccuracy>
<vaccuracy>6.589000</vaccuracy>
<internetconnect>2</internetconnect>
</trkpt>
<trkpt lat="35.813161" lon="139.066263">
<ele>1148.333333</ele>
<time>2026-07-18T23:55:22Z</time>
<speed>1.349438</speed>
<trueHeading>0.000000</trueHeading>
<magneticHeading>0.000000</magneticHeading>
<gpsHeading>285.989288</gpsHeading>
<haccuracy>5.993000</haccuracy>
<vaccuracy>5.993000</vaccuracy>
<internetconnect>2</internetconnect>
</trkpt>
<trkpt lat="35.813478" lon="139.064995">
<ele>1159.000000</ele>
<time>2026-07-18T23:56:57Z</time>
<speed>1.242594</speed>
<trueHeading>0.000000</trueHeading>
<magneticHeading>0.000000</magneticHeading>
<gpsHeading>294.541260</gpsHeading>
<haccuracy>5.804000</haccuracy>
<vaccuracy>5.804000</vaccuracy>
<internetconnect>2</internetconnect>
</trkpt>
<trkpt lat="35.813927" lon="139.063748">
<ele>1154.666667</ele>
<time>2026-07-18T23:58:33Z</time>
<speed>0.945142</speed>
<trueHeading>0.000000</trueHeading>
<magneticHeading>0.000000</magneticHeading>
<gpsHeading>291.798950</gpsHeading>
<haccuracy>5.706000</haccuracy>
<vaccuracy>5.706000</vaccuracy>
<internetconnect>2</internetconnect>
</trkpt>
<trkpt lat="35.813789" lon="139.062440">
<ele>1153.333333</ele>
<time>2026-07-19T00:00:07Z</time>
<speed>1.492477</speed>
<trueHeading>0.000000</trueHeading>
<magneticHeading>0.000000</magneticHeading>
<gpsHeading>243.717758</gpsHeading>
<haccuracy>5.318000</haccuracy>
<vaccuracy>5.318000</vaccuracy>
<internetconnect>2</internetconnect>
</trkpt>
<trkpt lat="35.813670" lon="139.061095">
<ele>1168.666667</ele>
<time>2026-07-19T00:01:40Z</time>
<speed>1.516354</speed>
<trueHeading>0.000000</trueHeading>
<magneticHeading>0.000000</magneticHeading>
<gpsHeading>257.850616</gpsHeading>
<haccuracy>5.436000</haccuracy>
<vaccuracy>5.436000</vaccuracy>
<internetconnect>2</internetconnect>
</trkpt>
<trkpt lat="35.814080" lon="139.060007">
<ele>1166.333333</ele>
<time>2026-07-19T00:03:16Z</time>
<speed>1.545899</speed>
<trueHeading>0.000000</trueHeading>
<magneticHeading>0.000000</magneticHeading>
<gpsHeading>316.461578</gpsHeading>
<haccuracy>3.395000</haccuracy>
<vaccuracy>3.395000</vaccuracy>
<internetconnect>2</internetconnect>
</trkpt>
<trkpt lat="35.814660" lon="139.058748">
<ele>1173.333333</ele>
<time>2026-07-19T00:04:51Z</time>
<speed>1.381841</speed>
<trueHeading>0.000000</trueHeading>
<magneticHeading>0.000000</magneticHeading>
<gpsHeading>287.797882</gpsHeading>
<haccuracy>5.745000</haccuracy>
<vaccuracy>5.745000</vaccuracy>
<internetconnect>2</internetconnect>
</trkpt>
<trkpt lat="35.815252" lon="139.057736">
<ele>1206.000000</ele>
<time>2026-07-19T00:07:22Z</time>
<speed>0.574740</speed>
<trueHeading>0.000000</trueHeading>
<magneticHeading>0.000000</magneticHeading>
<gpsHeading>299.999481</gpsHeading>
<haccuracy>5.737000</haccuracy>
<vaccuracy>5.737000</vaccuracy>
<internetconnect>2</internetconnect>
</trkpt>
<trkpt lat="35.815976" lon="139.057017">
<ele>1232.333333</ele>
<time>2026-07-19T00:09:47Z</time>
<speed>1.235030</speed>
<trueHeading>0.000000</trueHeading>
<magneticHeading>0.000000</magneticHeading>
<gpsHeading>358.635101</gpsHeading>
<haccuracy>4.426000</haccuracy>
<vaccuracy>4.426000</vaccuracy>
<internetconnect>2</internetconnect>
</trkpt>
<trkpt lat="35.816694" lon="139.056542">
<ele>1266.666667</ele>
<time>2026-07-19T00:12:56Z</time>
<speed>0.940512</speed>
<trueHeading>0.000000</trueHeading>
<magneticHeading>0.000000</magneticHeading>
<gpsHeading>345.163544</gpsHeading>
<haccuracy>4.521000</haccuracy>
<vaccuracy>4.521000</vaccuracy>
<internetconnect>2</internetconnect>
</trkpt>
<trkpt lat="35.817229" lon="139.055531">
<ele>1298.333333</ele>
<time>2026-07-19T00:15:24Z</time>
<speed>1.189656</speed>
<trueHeading>0.000000</trueHeading>
<magneticHeading>0.000000</magneticHeading>
<gpsHeading>312.351227</gpsHeading>
<haccuracy>5.007000</haccuracy>
<vaccuracy>5.007000</vaccuracy>
<internetconnect>2</internetconnect>
</trkpt>
<trkpt lat="35.817436" lon="139.054432">
<ele>1329.000000</ele>
<time>2026-07-19T00:18:16Z</time>
<speed>1.298050</speed>
<trueHeading>0.000000</trueHeading>
<magneticHeading>0.000000</magneticHeading>
<gpsHeading>304.650543</gpsHeading>
<haccuracy>4.649000</haccuracy>
<vaccuracy>4.649000</vaccuracy>
<internetconnect>2</internetconnect>
</trkpt>
<trkpt lat="35.817954" lon="139.053218">
<ele>1374.333333</ele>
<time>2026-07-19T00:22:30Z</time>
<speed>0.365955</speed>
<trueHeading>0.000000</trueHeading>
<magneticHeading>0.000000</magneticHeading>
<gpsHeading>276.368896</gpsHeading>
<haccuracy>6.846000</haccuracy>
<vaccuracy>6.846000</vaccuracy>
<internetconnect>2</internetconnect>
</trkpt>
<trkpt lat="35.818571" lon="139.052301">
<ele>1405.333333</ele>
<time>2026-07-19T00:24:57Z</time>
<speed>1.129600</speed>
<trueHeading>0.000000</trueHeading>
<magneticHeading>0.000000</magneticHeading>
<gpsHeading>314.269653</gpsHeading>
<haccuracy>5.952000</haccuracy>
<vaccuracy>5.952000</vaccuracy>
<internetconnect>2</internetconnect>
</trkpt>
<trkpt lat="35.818830" lon="139.050780">
<ele>1424.333333</ele>
<time>2026-07-19T00:27:19Z</time>
<speed>1.003755</speed>
<trueHeading>0.000000</trueHeading>
<magneticHeading>0.000000</magneticHeading>
<gpsHeading>271.799164</gpsHeading>
<haccuracy>5.235000</haccuracy>
<vaccuracy>5.235000</vaccuracy>
<internetconnect>2</internetconnect>
</trkpt>
<trkpt lat="35.818466" lon="139.049668">
<ele>1433.666667</ele>
<time>2026-07-19T00:28:55Z</time>
<speed>1.278549</speed>
<trueHeading>0.000000</trueHeading>
<magneticHeading>0.000000</magneticHeading>
<gpsHeading>260.597534</gpsHeading>
<haccuracy>5.584000</haccuracy>
<vaccuracy>5.584000</vaccuracy>
<internetconnect>2</internetconnect>
</trkpt>
<trkpt lat="35.818182" lon="139.048481">
<ele>1442.666667</ele>
<time>2026-07-19T00:30:29Z</time>
<speed>1.312652</speed>
<trueHeading>0.000000</trueHeading>
<magneticHeading>0.000000</magneticHeading>
<gpsHeading>272.633453</gpsHeading>
<haccuracy>5.677000</haccuracy>
<vaccuracy>5.677000</vaccuracy>
<internetconnect>2</internetconnect>
</trkpt>
<trkpt lat="35.817705" lon="139.047413">
<ele>1456.333333</ele>
<time>2026-07-19T00:32:02Z</time>
<speed>0.350577</speed>
<trueHeading>0.000000</trueHeading>
<magneticHeading>0.000000</magneticHeading>
<gpsHeading>219.078720</gpsHeading>
<haccuracy>4.936000</haccuracy>
<vaccuracy>4.936000</vaccuracy>
<internetconnect>2</internetconnect>
</trkpt>
<trkpt lat="35.817241" lon="139.046460">
<ele>1473.000000</ele>
<time>2026-07-19T00:35:45Z</time>
<speed>0.077125</speed>
<trueHeading>0.000000</trueHeading>
<magneticHeading>0.000000</magneticHeading>
<gpsHeading>254.957565</gpsHeading>
<haccuracy>3.000000</haccuracy>
<vaccuracy>3.000000</vaccuracy>
<internetconnect>2</internetconnect>
</trkpt>
<trkpt lat="35.817817" lon="139.047659">
<ele>1451.666667</ele>
<time>2026-07-19T00:38:24Z</time>
<speed>1.352884</speed>
<trueHeading>0.000000</trueHeading>
<magneticHeading>0.000000</magneticHeading>
<gpsHeading>59.690872</gpsHeading>
<haccuracy>7.199000</haccuracy>
<vaccuracy>7.199000</vaccuracy>
<internetconnect>2</internetconnect>
</trkpt>
<trkpt lat="35.818355" lon="139.046100">
<ele>1443.000000</ele>
<time>2026-07-19T00:40:59Z</time>
<speed>1.601174</speed>
<trueHeading>0.000000</trueHeading>
<magneticHeading>0.000000</magneticHeading>
<gpsHeading>307.896149</gpsHeading>
<haccuracy>6.022000</haccuracy>
<vaccuracy>6.022000</vaccuracy>
<internetconnect>2</internetconnect>
</trkpt>
<trkpt lat="35.818613" lon="139.044907">
<ele>1427.666667</ele>
<time>2026-07-19T00:42:32Z</time>
<speed>1.478749</speed>
<trueHeading>0.000000</trueHeading>
<magneticHeading>0.000000</magneticHeading>
<gpsHeading>273.706940</gpsHeading>
<haccuracy>5.390000</haccuracy>
<vaccuracy>5.390000</vaccuracy>
<internetconnect>2</internetconnect>
</trkpt>
<trkpt lat="35.819134" lon="139.043624">
<ele>1413.666667</ele>
<time>2026-07-19T00:44:07Z</time>
<speed>1.229439</speed>
<trueHeading>0.000000</trueHeading>
<magneticHeading>0.000000</magneticHeading>
<gpsHeading>297.891327</gpsHeading>
<haccuracy>6.432000</haccuracy>
<vaccuracy>6.432000</vaccuracy>
<internetconnect>2</internetconnect>
</trkpt>
<trkpt lat="35.819737" lon="139.042423">
<ele>1396.666667</ele>
<time>2026-07-19T00:45:40Z</time>
<speed>1.607657</speed>
<trueHeading>0.000000</trueHeading>
<magneticHeading>0.000000</magneticHeading>
<gpsHeading>311.863770</gpsHeading>
<haccuracy>5.960000</haccuracy>
<vaccuracy>5.960000</vaccuracy>
<internetconnect>2</internetconnect>
</trkpt>
<trkpt lat="35.820528" lon="139.041469">
<ele>1393.666667</ele>
<time>2026-07-19T00:47:15Z</time>
<speed>1.384363</speed>
<trueHeading>0.000000</trueHeading>
<magneticHeading>0.000000</magneticHeading>
<gpsHeading>327.441284</gpsHeading>
<haccuracy>5.206000</haccuracy>
<vaccuracy>5.206000</vaccuracy>
<internetconnect>2</internetconnect>
</trkpt>
<trkpt lat="35.819913" lon="139.040621">
<ele>1419.666667</ele>
<time>2026-07-19T00:50:20Z</time>
<speed>1.354909</speed>
<trueHeading>0.000000</trueHeading>
<magneticHeading>0.000000</magneticHeading>
<gpsHeading>204.807144</gpsHeading>
<haccuracy>5.296000</haccuracy>
<vaccuracy>5.296000</vaccuracy>
<internetconnect>2</internetconnect>
</trkpt>
<trkpt lat="35.820724" lon="139.039550">
<ele>1420.666667</ele>
<time>2026-07-19T00:51:55Z</time>
<speed>1.576170</speed>
<trueHeading>0.000000</trueHeading>
<magneticHeading>0.000000</magneticHeading>
<gpsHeading>319.208862</gpsHeading>
<haccuracy>5.109000</haccuracy>
<vaccuracy>5.109000</vaccuracy>
<internetconnect>2</internetconnect>
</trkpt>
<trkpt lat="35.821359" lon="139.038253">
<ele>1422.000000</ele>
<time>2026-07-19T00:53:28Z</time>
<speed>1.561177</speed>
<trueHeading>0.000000</trueHeading>
<magneticHeading>0.000000</magneticHeading>
<gpsHeading>299.896759</gpsHeading>
<haccuracy>4.891000</haccuracy>
<vaccuracy>4.891000</vaccuracy>
<internetconnect>2</internetconnect>
</trkpt>
<trkpt lat="35.822089" lon="139.037298">
<ele>1426.666667</ele>
<time>2026-07-19T00:55:03Z</time>
<speed>1.329669</speed>
<trueHeading>0.000000</trueHeading>
<magneticHeading>0.000000</magneticHeading>
<gpsHeading>296.501068</gpsHeading>
<haccuracy>4.978000</haccuracy>
<vaccuracy>4.978000</vaccuracy>
<internetconnect>2</internetconnect>
</trkpt>
<trkpt lat="35.822498" lon="139.035766">
<ele>1443.666667</ele>
<time>2026-07-19T00:57:26Z</time>
<speed>1.455893</speed>
<trueHeading>0.000000</trueHeading>
<magneticHeading>0.000000</magneticHeading>
<gpsHeading>299.900970</gpsHeading>
<haccuracy>5.284000</haccuracy>
<vaccuracy>5.284000</vaccuracy>
<internetconnect>2</internetconnect>
</trkpt>
<trkpt lat="35.823190" lon="139.034767">
<ele>1449.666667</ele>
<time>2026-07-19T00:59:01Z</time>
<speed>1.358857</speed>
<trueHeading>0.000000</trueHeading>
<magneticHeading>0.000000</magneticHeading>
<gpsHeading>308.833557</gpsHeading>
<haccuracy>4.916000</haccuracy>
<vaccuracy>4.916000</vaccuracy>
<internetconnect>2</internetconnect>
</trkpt>
<trkpt lat="35.823597" lon="139.033663">
<ele>1456.000000</ele>
<time>2026-07-19T01:00:36Z</time>
<speed>1.528121</speed>
<trueHeading>0.000000</trueHeading>
<magneticHeading>0.000000</magneticHeading>
<gpsHeading>286.985626</gpsHeading>
<haccuracy>4.404000</haccuracy>
<vaccuracy>4.404000</vaccuracy>
<internetconnect>2</internetconnect>
</trkpt>
<trkpt lat="35.824384" lon="139.033015">
<ele>1490.000000</ele>
<time>2026-07-19T01:04:41Z</time>
<speed>0.810200</speed>
<trueHeading>0.000000</trueHeading>
<magneticHeading>0.000000</magneticHeading>
<gpsHeading>329.777588</gpsHeading>
<haccuracy>4.922000</haccuracy>
<vaccuracy>4.922000</vaccuracy>
<internetconnect>2</internetconnect>
</trkpt>
<trkpt lat="35.823990" lon="139.031495">
<ele>1502.333333</ele>
<time>2026-07-19T01:07:17Z</time>
<speed>1.248880</speed>
<trueHeading>0.000000</trueHeading>
<magneticHeading>0.000000</magneticHeading>
<gpsHeading>242.782394</gpsHeading>
<haccuracy>5.187000</haccuracy>
<vaccuracy>5.187000</vaccuracy>
<internetconnect>2</internetconnect>
</trkpt>
<trkpt lat="35.824218" lon="139.030097">
<ele>1519.000000</ele>
<time>2026-07-19T01:09:40Z</time>
<speed>1.367238</speed>
<trueHeading>0.000000</trueHeading>
<magneticHeading>0.000000</magneticHeading>
<gpsHeading>263.976715</gpsHeading>
<haccuracy>5.699000</haccuracy>
<vaccuracy>5.699000</vaccuracy>
<internetconnect>2</internetconnect>
</trkpt>
<trkpt lat="35.824285" lon="139.028819">
<ele>1516.000000</ele>
<time>2026-07-19T01:11:16Z</time>
<speed>1.506852</speed>
<trueHeading>0.000000</trueHeading>
<magneticHeading>0.000000</magneticHeading>
<gpsHeading>276.585083</gpsHeading>
<haccuracy>5.671000</haccuracy>
<vaccuracy>5.671000</vaccuracy>
<internetconnect>2</internetconnect>
</trkpt>
<trkpt lat="35.823866" lon="139.027666">
<ele>1510.666667</ele>
<time>2026-07-19T01:12:50Z</time>
<speed>1.452403</speed>
<trueHeading>0.000000</trueHeading>
<magneticHeading>0.000000</magneticHeading>
<gpsHeading>250.496536</gpsHeading>
<haccuracy>5.592000</haccuracy>
<vaccuracy>5.592000</vaccuracy>
<internetconnect>2</internetconnect>
</trkpt>
<trkpt lat="35.823746" lon="139.026353">
<ele>1512.333333</ele>
<time>2026-07-19T01:14:26Z</time>
<speed>1.634370</speed>
<trueHeading>0.000000</trueHeading>
<magneticHeading>0.000000</magneticHeading>
<gpsHeading>252.354477</gpsHeading>
<haccuracy>5.680000</haccuracy>
<vaccuracy>5.680000</vaccuracy>
<internetconnect>2</internetconnect>
</trkpt>
<trkpt lat="35.823657" lon="139.025005">
<ele>1515.666667</ele>
<time>2026-07-19T01:16:01Z</time>
<speed>1.616899</speed>
<trueHeading>0.000000</trueHeading>
<magneticHeading>0.000000</magneticHeading>
<gpsHeading>272.051941</gpsHeading>
<haccuracy>5.772000</haccuracy>
<vaccuracy>5.772000</vaccuracy>
<internetconnect>2</internetconnect>
</trkpt>
<trkpt lat="35.823819" lon="139.023646">
<ele>1517.333333</ele>
<time>2026-07-19T01:17:35Z</time>
<speed>1.600443</speed>
<trueHeading>0.000000</trueHeading>
<magneticHeading>0.000000</magneticHeading>
<gpsHeading>281.750061</gpsHeading>
<haccuracy>4.511000</haccuracy>
<vaccuracy>4.511000</vaccuracy>
<internetconnect>2</internetconnect>
</trkpt>
<trkpt lat="35.824262" lon="139.022550">
<ele>1533.000000</ele>
<time>2026-07-19T01:19:12Z</time>
<speed>1.405562</speed>
<trueHeading>0.000000</trueHeading>
<magneticHeading>0.000000</magneticHeading>
<gpsHeading>302.895355</gpsHeading>
<haccuracy>4.812000</haccuracy>
<vaccuracy>4.812000</vaccuracy>
<internetconnect>2</internetconnect>
</trkpt>
<trkpt lat="35.824066" lon="139.021172">
<ele>1557.666667</ele>
<time>2026-07-19T01:21:32Z</time>
<speed>1.166961</speed>
<trueHeading>0.000000</trueHeading>
<magneticHeading>0.000000</magneticHeading>
<gpsHeading>256.537445</gpsHeading>
<haccuracy>4.807000</haccuracy>
<vaccuracy>4.807000</vaccuracy>
<internetconnect>2</internetconnect>
</trkpt>
<trkpt lat="35.823441" lon="139.019970">
<ele>1602.666667</ele>
<time>2026-07-19T01:25:32Z</time>
<speed>1.077492</speed>
<trueHeading>0.000000</trueHeading>
<magneticHeading>0.000000</magneticHeading>
<gpsHeading>231.873901</gpsHeading>
<haccuracy>4.694000</haccuracy>
<vaccuracy>4.694000</vaccuracy>
<internetconnect>2</internetconnect>
</trkpt>
<trkpt lat="35.823818" lon="139.018368">
<ele>1613.333333</ele>
<time>2026-07-19T01:27:53Z</time>
<speed>1.575125</speed>
<trueHeading>0.000000</trueHeading>
<magneticHeading>0.000000</magneticHeading>
<gpsHeading>291.467590</gpsHeading>
<haccuracy>5.911000</haccuracy>
<vaccuracy>5.911000</vaccuracy>
<internetconnect>2</internetconnect>
</trkpt>
<trkpt lat="35.824727" lon="139.017475">
<ele>1616.333333</ele>
<time>2026-07-19T01:29:28Z</time>
<speed>1.568863</speed>
<trueHeading>0.000000</trueHeading>
<magneticHeading>0.000000</magneticHeading>
<gpsHeading>319.630707</gpsHeading>
<haccuracy>5.418000</haccuracy>
<vaccuracy>5.418000</vaccuracy>
<internetconnect>2</internetconnect>
</trkpt>
<trkpt lat="35.825784" lon="139.016865">
<ele>1642.333333</ele>
<time>2026-07-19T01:31:50Z</time>
<speed>1.257924</speed>
<trueHeading>0.000000</trueHeading>
<magneticHeading>0.000000</magneticHeading>
<gpsHeading>351.267395</gpsHeading>
<haccuracy>5.785000</haccuracy>
<vaccuracy>5.785000</vaccuracy>
<internetconnect>2</internetconnect>
</trkpt>
<trkpt lat="35.826610" lon="139.016371">
<ele>1649.000000</ele>
<time>2026-07-19T01:33:24Z</time>
<speed>1.569597</speed>
<trueHeading>0.000000</trueHeading>
<magneticHeading>0.000000</magneticHeading>
<gpsHeading>326.439972</gpsHeading>
<haccuracy>5.365000</haccuracy>
<vaccuracy>5.365000</vaccuracy>
<internetconnect>2</internetconnect>
</trkpt>
<trkpt lat="35.827390" lon="139.015342">
<ele>1648.333333</ele>
<time>2026-07-19T01:34:59Z</time>
<speed>1.608137</speed>
<trueHeading>0.000000</trueHeading>
<magneticHeading>0.000000</magneticHeading>
<gpsHeading>290.433289</gpsHeading>
<haccuracy>5.540000</haccuracy>
<vaccuracy>5.540000</vaccuracy>
<internetconnect>2</internetconnect>
</trkpt>
<trkpt lat="35.828000" lon="139.014271">
<ele>1657.333333</ele>
<time>2026-07-19T01:36:34Z</time>
<speed>1.486464</speed>
<trueHeading>0.000000</trueHeading>
<magneticHeading>0.000000</magneticHeading>
<gpsHeading>322.353699</gpsHeading>
<haccuracy>3.000000</haccuracy>
<vaccuracy>3.000000</vaccuracy>
<internetconnect>2</internetconnect>
</trkpt>
<trkpt lat="35.828962" lon="139.013478">
<ele>1685.333333</ele>
<time>2026-07-19T01:38:55Z</time>
<speed>1.220411</speed>
<trueHeading>0.000000</trueHeading>
<magneticHeading>0.000000</magneticHeading>
<gpsHeading>323.738831</gpsHeading>
<haccuracy>6.288000</haccuracy>
<vaccuracy>6.288000</vaccuracy>
<internetconnect>2</internetconnect>
</trkpt>
<trkpt lat="35.829793" lon="139.012542">
<ele>1728.333333</ele>
<time>2026-07-19T01:42:26Z</time>
<speed>1.126056</speed>
<trueHeading>0.000000</trueHeading>
<magneticHeading>0.000000</magneticHeading>
<gpsHeading>293.577728</gpsHeading>
<haccuracy>4.543000</haccuracy>
<vaccuracy>4.543000</vaccuracy>
<internetconnect>2</internetconnect>
</trkpt>
<trkpt lat="35.829601" lon="139.011407">
<ele>1711.333333</ele>
<time>2026-07-19T01:52:31Z</time>
<speed>1.280426</speed>
<trueHeading>0.000000</trueHeading>
<magneticHeading>0.000000</magneticHeading>
<gpsHeading>250.021378</gpsHeading>
<haccuracy>3.004000</haccuracy>
<vaccuracy>3.004000</vaccuracy>
<internetconnect>2</internetconnect>
</trkpt>
<trkpt lat="35.829067" lon="139.010367">
<ele>1677.333333</ele>
<time>2026-07-19T01:54:53Z</time>
<speed>1.723948</speed>
<trueHeading>0.000000</trueHeading>
<magneticHeading>0.000000</magneticHeading>
<gpsHeading>238.169357</gpsHeading>
<haccuracy>3.249000</haccuracy>
<vaccuracy>3.249000</vaccuracy>
<internetconnect>2</internetconnect>
</trkpt>
<trkpt lat="35.828762" lon="139.009161">
<ele>1657.666667</ele>
<time>2026-07-19T01:56:27Z</time>
<speed>1.548267</speed>
<trueHeading>0.000000</trueHeading>
<magneticHeading>0.000000</magneticHeading>
<gpsHeading>249.549011</gpsHeading>
<haccuracy>5.614000</haccuracy>
<vaccuracy>5.614000</vaccuracy>
<internetconnect>2</internetconnect>
</trkpt>
<trkpt lat="35.828620" lon="139.007642">
<ele>1644.333333</ele>
<time>2026-07-19T01:58:00Z</time>
<speed>1.598564</speed>
<trueHeading>0.000000</trueHeading>
<magneticHeading>0.000000</magneticHeading>
<gpsHeading>259.669769</gpsHeading>
<haccuracy>3.028000</haccuracy>
<vaccuracy>3.028000</vaccuracy>
<internetconnect>2</internetconnect>
</trkpt>
<trkpt lat="35.828625" lon="139.006310">
<ele>1622.666667</ele>
<time>2026-07-19T01:59:35Z</time>
<speed>1.420121</speed>
<trueHeading>0.000000</trueHeading>
<magneticHeading>0.000000</magneticHeading>
<gpsHeading>267.237457</gpsHeading>
<haccuracy>3.100000</haccuracy>
<vaccuracy>3.100000</vaccuracy>
<internetconnect>2</internetconnect>
</trkpt>
<trkpt lat="35.828272" lon="139.005340">
<ele>1596.666667</ele>
<time>2026-07-19T02:01:09Z</time>
<speed>1.619274</speed>
<trueHeading>0.000000</trueHeading>
<magneticHeading>0.000000</magneticHeading>
<gpsHeading>227.739716</gpsHeading>
<haccuracy>5.281000</haccuracy>
<vaccuracy>5.281000</vaccuracy>
<internetconnect>2</internetconnect>
</trkpt>
<trkpt lat="35.827994" lon="139.004339">
<ele>1576.000000</ele>
<time>2026-07-19T02:02:42Z</time>
<speed>1.465876</speed>
<trueHeading>0.000000</trueHeading>
<magneticHeading>0.000000</magneticHeading>
<gpsHeading>235.250137</gpsHeading>
<haccuracy>5.637000</haccuracy>
<vaccuracy>5.637000</vaccuracy>
<internetconnect>2</internetconnect>
</trkpt>
<trkpt lat="35.827763" lon="139.003188">
<ele>1561.333333</ele>
<time>2026-07-19T02:04:15Z</time>
<speed>1.583710</speed>
<trueHeading>0.000000</trueHeading>
<magneticHeading>0.000000</magneticHeading>
<gpsHeading>290.721954</gpsHeading>
<haccuracy>5.293000</haccuracy>
<vaccuracy>5.293000</vaccuracy>
<internetconnect>2</internetconnect>
</trkpt>
<trkpt lat="35.827976" lon="139.001672">
<ele>1559.666667</ele>
<time>2026-07-19T02:05:50Z</time>
<speed>1.412709</speed>
<trueHeading>0.000000</trueHeading>
<magneticHeading>0.000000</magneticHeading>
<gpsHeading>277.355469</gpsHeading>
<haccuracy>5.286000</haccuracy>
<vaccuracy>5.286000</vaccuracy>
<internetconnect>2</internetconnect>
</trkpt>
<trkpt lat="35.827939" lon="139.000533">
<ele>1574.666667</ele>
<time>2026-07-19T02:07:26Z</time>
<speed>1.210215</speed>
<trueHeading>0.000000</trueHeading>
<magneticHeading>0.000000</magneticHeading>
<gpsHeading>258.021606</gpsHeading>
<haccuracy>5.444000</haccuracy>
<vaccuracy>5.444000</vaccuracy>
<internetconnect>2</internetconnect>
</trkpt>
<trkpt lat="35.828398" lon="138.999030">
<ele>1598.333333</ele>
<time>2026-07-19T02:09:51Z</time>
<speed>1.334424</speed>
<trueHeading>0.000000</trueHeading>
<magneticHeading>0.000000</magneticHeading>
<gpsHeading>298.265198</gpsHeading>
<haccuracy>5.072000</haccuracy>
<vaccuracy>5.072000</vaccuracy>
<internetconnect>2</internetconnect>
</trkpt>
<trkpt lat="35.828721" lon="138.997949">
<ele>1630.333333</ele>
<time>2026-07-19T02:12:34Z</time>
<speed>1.116084</speed>
<trueHeading>0.000000</trueHeading>
<magneticHeading>0.000000</magneticHeading>
<gpsHeading>277.370972</gpsHeading>
<haccuracy>4.319000</haccuracy>
<vaccuracy>4.319000</vaccuracy>
<internetconnect>2</internetconnect>
</trkpt>
<trkpt lat="35.828917" lon="138.996563">
<ele>1678.000000</ele>
<time>2026-07-19T02:16:40Z</time>
<speed>1.053522</speed>
<trueHeading>0.000000</trueHeading>
<magneticHeading>0.000000</magneticHeading>
<gpsHeading>286.918182</gpsHeading>
<haccuracy>4.572000</haccuracy>
<vaccuracy>4.572000</vaccuracy>
<internetconnect>2</internetconnect>
</trkpt>
<trkpt lat="35.828919" lon="138.995168">
<ele>1705.333333</ele>
<time>2026-07-19T02:19:17Z</time>
<speed>0.270753</speed>
<trueHeading>0.000000</trueHeading>
<magneticHeading>0.000000</magneticHeading>
<gpsHeading>270.386963</gpsHeading>
<haccuracy>4.458000</haccuracy>
<vaccuracy>4.458000</vaccuracy>
<internetconnect>2</internetconnect>
</trkpt>
<trkpt lat="35.828487" lon="138.993508">
<ele>1715.000000</ele>
<time>2026-07-19T02:21:39Z</time>
<speed>1.449082</speed>
<trueHeading>0.000000</trueHeading>
<magneticHeading>0.000000</magneticHeading>
<gpsHeading>256.584564</gpsHeading>
<haccuracy>5.826000</haccuracy>
<vaccuracy>5.826000</vaccuracy>
<internetconnect>2</internetconnect>
</trkpt>
<trkpt lat="35.828223" lon="138.992224">
<ele>1717.000000</ele>
<time>2026-07-19T02:23:14Z</time>
<speed>1.457420</speed>
<trueHeading>0.000000</trueHeading>
<magneticHeading>0.000000</magneticHeading>
<gpsHeading>260.708679</gpsHeading>
<haccuracy>5.070000</haccuracy>
<vaccuracy>5.070000</vaccuracy>
<internetconnect>2</internetconnect>
</trkpt>
<trkpt lat="35.828650" lon="138.991109">
<ele>1699.000000</ele>
<time>2026-07-19T02:24:49Z</time>
<speed>1.471379</speed>
<trueHeading>0.000000</trueHeading>
<magneticHeading>0.000000</magneticHeading>
<gpsHeading>303.325073</gpsHeading>
<haccuracy>6.073000</haccuracy>
<vaccuracy>6.073000</vaccuracy>
<internetconnect>2</internetconnect>
</trkpt>
<trkpt lat="35.829235" lon="138.990141">
<ele>1684.000000</ele>
<time>2026-07-19T02:26:23Z</time>
<speed>1.630225</speed>
<trueHeading>0.000000</trueHeading>
<magneticHeading>0.000000</magneticHeading>
<gpsHeading>318.048859</gpsHeading>
<haccuracy>5.761000</haccuracy>
<vaccuracy>5.761000</vaccuracy>
<internetconnect>2</internetconnect>
</trkpt>
<trkpt lat="35.830083" lon="138.989053">
<ele>1673.666667</ele>
<time>2026-07-19T02:27:59Z</time>
<speed>1.502530</speed>
<trueHeading>0.000000</trueHeading>
<magneticHeading>0.000000</magneticHeading>
<gpsHeading>323.065308</gpsHeading>
<haccuracy>5.632000</haccuracy>
<vaccuracy>5.632000</vaccuracy>
<internetconnect>2</internetconnect>
</trkpt>
<trkpt lat="35.830201" lon="138.987814">
<ele>1652.666667</ele>
<time>2026-07-19T02:29:35Z</time>
<speed>1.037447</speed>
<trueHeading>0.000000</trueHeading>
<magneticHeading>0.000000</magneticHeading>
<gpsHeading>278.032227</gpsHeading>
<haccuracy>5.380000</haccuracy>
<vaccuracy>5.380000</vaccuracy>
<internetconnect>2</internetconnect>
</trkpt>
<trkpt lat="35.830336" lon="138.986288">
<ele>1637.666667</ele>
<time>2026-07-19T02:31:58Z</time>
<speed>1.579956</speed>
<trueHeading>0.000000</trueHeading>
<magneticHeading>0.000000</magneticHeading>
<gpsHeading>287.400970</gpsHeading>
<haccuracy>5.646000</haccuracy>
<vaccuracy>5.646000</vaccuracy>
<internetconnect>2</internetconnect>
</trkpt>
<trkpt lat="35.831070" lon="138.985205">
<ele>1642.000000</ele>
<time>2026-07-19T02:33:32Z</time>
<speed>1.342319</speed>
<trueHeading>0.000000</trueHeading>
<magneticHeading>0.000000</magneticHeading>
<gpsHeading>318.214813</gpsHeading>
<haccuracy>5.907000</haccuracy>
<vaccuracy>5.907000</vaccuracy>
<internetconnect>2</internetconnect>
</trkpt>
<trkpt lat="35.831816" lon="138.984508">
<ele>1672.000000</ele>
<time>2026-07-19T02:36:13Z</time>
<speed>0.964326</speed>
<trueHeading>0.000000</trueHeading>
<magneticHeading>0.000000</magneticHeading>
<gpsHeading>320.601593</gpsHeading>
<haccuracy>4.930000</haccuracy>
<vaccuracy>4.930000</vaccuracy>
<internetconnect>2</internetconnect>
</trkpt>
<trkpt lat="35.832853" lon="138.984077">
<ele>1722.666667</ele>
<time>2026-07-19T02:41:31Z</time>
<speed>0.164062</speed>
<trueHeading>0.000000</trueHeading>
<magneticHeading>0.000000</magneticHeading>
<gpsHeading>6.804198</gpsHeading>
<haccuracy>3.953000</haccuracy>
<vaccuracy>3.953000</vaccuracy>
<internetconnect>2</internetconnect>
</trkpt>
<trkpt lat="35.832311" lon="138.982910">
<ele>1686.666667</ele>
<time>2026-07-19T02:45:36Z</time>
<speed>0.216632</speed>
<trueHeading>0.000000</trueHeading>
<magneticHeading>0.000000</magneticHeading>
<gpsHeading>253.133942</gpsHeading>
<haccuracy>3.149000</haccuracy>
<vaccuracy>3.149000</vaccuracy>
<internetconnect>2</internetconnect>
</trkpt>
<trkpt lat="35.831505" lon="138.981675">
<ele>1660.000000</ele>
<time>2026-07-19T02:47:11Z</time>
<speed>0.778216</speed>
<trueHeading>0.000000</trueHeading>
<magneticHeading>0.000000</magneticHeading>
<gpsHeading>237.308807</gpsHeading>
<haccuracy>7.425000</haccuracy>
<vaccuracy>7.425000</vaccuracy>
<internetconnect>2</internetconnect>
</trkpt>
<trkpt lat="35.831074" lon="138.980540">
<ele>1640.666667</ele>
<time>2026-07-19T02:48:45Z</time>
<speed>1.419954</speed>
<trueHeading>0.000000</trueHeading>
<magneticHeading>0.000000</magneticHeading>
<gpsHeading>268.796265</gpsHeading>
<haccuracy>3.027000</haccuracy>
<vaccuracy>3.027000</vaccuracy>
<internetconnect>2</internetconnect>
</trkpt>
<trkpt lat="35.830593" lon="138.978956">
<ele>1646.666667</ele>
<time>2026-07-19T02:51:07Z</time>
<speed>1.500219</speed>
<trueHeading>0.000000</trueHeading>
<magneticHeading>0.000000</magneticHeading>
<gpsHeading>240.836975</gpsHeading>
<haccuracy>4.992000</haccuracy>
<vaccuracy>4.992000</vaccuracy>
<internetconnect>2</internetconnect>
</trkpt>
<trkpt lat="35.829889" lon="138.977758">
<ele>1637.333333</ele>
<time>2026-07-19T02:52:42Z</time>
<speed>1.443920</speed>
<trueHeading>0.000000</trueHeading>
<magneticHeading>0.000000</magneticHeading>
<gpsHeading>230.377808</gpsHeading>
<haccuracy>5.224000</haccuracy>
<vaccuracy>5.224000</vaccuracy>
<internetconnect>2</internetconnect>
</trkpt>
<trkpt lat="35.829438" lon="138.976739">
<ele>1642.333333</ele>
<time>2026-07-19T02:54:20Z</time>
<speed>0.759203</speed>
<trueHeading>0.000000</trueHeading>
<magneticHeading>0.000000</magneticHeading>
<gpsHeading>233.356949</gpsHeading>
<haccuracy>4.831000</haccuracy>
<vaccuracy>4.831000</vaccuracy>
<internetconnect>2</internetconnect>
</trkpt>
<trkpt lat="35.828981" lon="138.975556">
<ele>1654.000000</ele>
<time>2026-07-19T02:55:55Z</time>
<speed>1.432243</speed>
<trueHeading>0.000000</trueHeading>
<magneticHeading>0.000000</magneticHeading>
<gpsHeading>232.302444</gpsHeading>
<haccuracy>5.490000</haccuracy>
<vaccuracy>5.490000</vaccuracy>
<internetconnect>2</internetconnect>
</trkpt>
<trkpt lat="35.828460" lon="138.974318">
<ele>1663.000000</ele>
<time>2026-07-19T02:57:31Z</time>
<speed>1.415161</speed>
<trueHeading>0.000000</trueHeading>
<magneticHeading>0.000000</magneticHeading>
<gpsHeading>243.455627</gpsHeading>
<haccuracy>5.349000</haccuracy>
<vaccuracy>5.349000</vaccuracy>
<internetconnect>2</internetconnect>
</trkpt>
<trkpt lat="35.829049" lon="138.973623">
<ele>1669.333333</ele>
<time>2026-07-19T02:59:06Z</time>
<speed>1.403453</speed>
<trueHeading>0.000000</trueHeading>
<magneticHeading>0.000000</magneticHeading>
<gpsHeading>340.141846</gpsHeading>
<haccuracy>5.718000</haccuracy>
<vaccuracy>5.718000</vaccuracy>
<internetconnect>2</internetconnect>
</trkpt>
<trkpt lat="35.829841" lon="138.972596">
<ele>1672.333333</ele>
<time>2026-07-19T03:00:40Z</time>
<speed>1.530481</speed>
<trueHeading>0.000000</trueHeading>
<magneticHeading>0.000000</magneticHeading>
<gpsHeading>309.276001</gpsHeading>
<haccuracy>5.124000</haccuracy>
<vaccuracy>5.124000</vaccuracy>
<internetconnect>2</internetconnect>
</trkpt>
<trkpt lat="35.830643" lon="138.971597">
<ele>1678.000000</ele>
<time>2026-07-19T03:02:16Z</time>
<speed>1.298032</speed>
<trueHeading>0.000000</trueHeading>
<magneticHeading>0.000000</magneticHeading>
<gpsHeading>302.879333</gpsHeading>
<haccuracy>5.409000</haccuracy>
<vaccuracy>5.409000</vaccuracy>
<internetconnect>2</internetconnect>
</trkpt>
<trkpt lat="35.831041" lon="138.970150">
<ele>1683.333333</ele>
<time>2026-07-19T03:03:51Z</time>
<speed>1.547248</speed>
<trueHeading>0.000000</trueHeading>
<magneticHeading>0.000000</magneticHeading>
<gpsHeading>284.730164</gpsHeading>
<haccuracy>5.804000</haccuracy>
<vaccuracy>5.804000</vaccuracy>
<internetconnect>2</internetconnect>
</trkpt>
<trkpt lat="35.830789" lon="138.968860">
<ele>1679.333333</ele>
<time>2026-07-19T03:05:27Z</time>
<speed>1.421276</speed>
<trueHeading>0.000000</trueHeading>
<magneticHeading>0.000000</magneticHeading>
<gpsHeading>240.828049</gpsHeading>
<haccuracy>5.514000</haccuracy>
<vaccuracy>5.514000</vaccuracy>
<internetconnect>2</internetconnect>
</trkpt>
<trkpt lat="35.830456" lon="138.967536">
<ele>1669.333333</ele>
<time>2026-07-19T03:07:00Z</time>
<speed>1.523904</speed>
<trueHeading>0.000000</trueHeading>
<magneticHeading>0.000000</magneticHeading>
<gpsHeading>246.772049</gpsHeading>
<haccuracy>5.307000</haccuracy>
<vaccuracy>5.307000</vaccuracy>
<internetconnect>2</internetconnect>
</trkpt>
<trkpt lat="35.830034" lon="138.966318">
<ele>1670.333333</ele>
<time>2026-07-19T03:08:36Z</time>
<speed>1.385833</speed>
<trueHeading>0.000000</trueHeading>
<magneticHeading>0.000000</magneticHeading>
<gpsHeading>263.217072</gpsHeading>
<haccuracy>5.598000</haccuracy>
<vaccuracy>5.598000</vaccuracy>
<internetconnect>2</internetconnect>
</trkpt>
<trkpt lat="35.829582" lon="138.965160">
<ele>1679.666667</ele>
<time>2026-07-19T03:10:10Z</time>
<speed>1.371595</speed>
<trueHeading>0.000000</trueHeading>
<magneticHeading>0.000000</magneticHeading>
<gpsHeading>238.197754</gpsHeading>
<haccuracy>5.488000</haccuracy>
<vaccuracy>5.488000</vaccuracy>
<internetconnect>2</internetconnect>
</trkpt>
<trkpt lat="35.829191" lon="138.963990">
<ele>1704.000000</ele>
<time>2026-07-19T03:12:38Z</time>
<speed>1.410880</speed>
<trueHeading>0.000000</trueHeading>
<magneticHeading>0.000000</magneticHeading>
<gpsHeading>275.809387</gpsHeading>
<haccuracy>5.366000</haccuracy>
<vaccuracy>5.366000</vaccuracy>
<internetconnect>2</internetconnect>
</trkpt>
<trkpt lat="35.829289" lon="138.962632">
<ele>1729.666667</ele>
<time>2026-07-19T03:15:07Z</time>
<speed>1.243266</speed>
<trueHeading>0.000000</trueHeading>
<magneticHeading>0.000000</magneticHeading>
<gpsHeading>289.679260</gpsHeading>
<haccuracy>5.426000</haccuracy>
<vaccuracy>5.426000</vaccuracy>
<internetconnect>2</internetconnect>
</trkpt>
<trkpt lat="35.829806" lon="138.961723">
<ele>1750.333333</ele>
<time>2026-07-19T03:18:14Z</time>
<speed>1.272011</speed>
<trueHeading>0.000000</trueHeading>
<magneticHeading>0.000000</magneticHeading>
<gpsHeading>339.431396</gpsHeading>
<haccuracy>3.008000</haccuracy>
<vaccuracy>3.008000</vaccuracy>
<internetconnect>2</internetconnect>
</trkpt>
<trkpt lat="35.830636" lon="138.961086">
<ele>1725.000000</ele>
<time>2026-07-19T03:20:40Z</time>
<speed>0.044558</speed>
<trueHeading>0.000000</trueHeading>
<magneticHeading>0.000000</magneticHeading>
<gpsHeading>311.021637</gpsHeading>
<haccuracy>4.000000</haccuracy>
<vaccuracy>4.000000</vaccuracy>
<internetconnect>2</internetconnect>
</trkpt>
<trkpt lat="35.830984" lon="138.959582">
<ele>1673.000000</ele>
<time>2026-07-19T03:24:32Z</time>
<speed>1.423317</speed>
<trueHeading>0.000000</trueHeading>
<magneticHeading>0.000000</magneticHeading>
<gpsHeading>284.142517</gpsHeading>
<haccuracy>3.324000</haccuracy>
<vaccuracy>3.324000</vaccuracy>
<internetconnect>2</internetconnect>
</trkpt>
<trkpt lat="35.831943" lon="138.958754">
<ele>1658.000000</ele>
<time>2026-07-19T03:26:06Z</time>
<speed>1.583884</speed>
<trueHeading>0.000000</trueHeading>
<magneticHeading>0.000000</magneticHeading>
<gpsHeading>337.678589</gpsHeading>
<haccuracy>5.512000</haccuracy>
<vaccuracy>5.512000</vaccuracy>
<internetconnect>2</internetconnect>
</trkpt>
<trkpt lat="35.832845" lon="138.958027">
<ele>1662.000000</ele>
<time>2026-07-19T03:27:41Z</time>
<speed>1.513083</speed>
<trueHeading>0.000000</trueHeading>
<magneticHeading>0.000000</magneticHeading>
<gpsHeading>321.901154</gpsHeading>
<haccuracy>5.247000</haccuracy>
<vaccuracy>5.247000</vaccuracy>
<internetconnect>2</internetconnect>
</trkpt>
<trkpt lat="35.833386" lon="138.957127">
<ele>1677.000000</ele>
<time>2026-07-19T03:29:18Z</time>
<speed>1.373235</speed>
<trueHeading>0.000000</trueHeading>
<magneticHeading>0.000000</magneticHeading>
<gpsHeading>318.072388</gpsHeading>
<haccuracy>3.047000</haccuracy>
<vaccuracy>3.047000</vaccuracy>
<internetconnect>2</internetconnect>
</trkpt>
<trkpt lat="35.834216" lon="138.956279">
<ele>1686.000000</ele>
<time>2026-07-19T03:30:52Z</time>
<speed>1.547404</speed>
<trueHeading>0.000000</trueHeading>
<magneticHeading>0.000000</magneticHeading>
<gpsHeading>326.282349</gpsHeading>
<haccuracy>3.038000</haccuracy>
<vaccuracy>3.038000</vaccuracy>
<internetconnect>2</internetconnect>
</trkpt>
<trkpt lat="35.834944" lon="138.955169">
<ele>1694.666667</ele>
<time>2026-07-19T03:32:27Z</time>
<speed>1.495503</speed>
<trueHeading>0.000000</trueHeading>
<magneticHeading>0.000000</magneticHeading>
<gpsHeading>312.570648</gpsHeading>
<haccuracy>3.026000</haccuracy>
<vaccuracy>3.026000</vaccuracy>
<internetconnect>2</internetconnect>
</trkpt>
<trkpt lat="35.835883" lon="138.954106">
<ele>1697.333333</ele>
<time>2026-07-19T03:34:01Z</time>
<speed>1.722880</speed>
<trueHeading>0.000000</trueHeading>
<magneticHeading>0.000000</magneticHeading>
<gpsHeading>320.781494</gpsHeading>
<haccuracy>3.601000</haccuracy>
<vaccuracy>3.601000</vaccuracy>
<internetconnect>2</internetconnect>
</trkpt>
<trkpt lat="35.836803" lon="138.952919">
<ele>1693.333333</ele>
<time>2026-07-19T03:35:34Z</time>
<speed>1.533356</speed>
<trueHeading>0.000000</trueHeading>
<magneticHeading>0.000000</magneticHeading>
<gpsHeading>322.214172</gpsHeading>
<haccuracy>4.997000</haccuracy>
<vaccuracy>4.997000</vaccuracy>
<internetconnect>2</internetconnect>
</trkpt>
<trkpt lat="35.837641" lon="138.952104">
<ele>1705.333333</ele>
<time>2026-07-19T03:37:09Z</time>
<speed>1.433079</speed>
<trueHeading>0.000000</trueHeading>
<magneticHeading>0.000000</magneticHeading>
<gpsHeading>320.750427</gpsHeading>
<haccuracy>5.205000</haccuracy>
<vaccuracy>5.205000</vaccuracy>
<internetconnect>2</internetconnect>
</trkpt>
<trkpt lat="35.838478" lon="138.951046">
<ele>1731.000000</ele>
<time>2026-07-19T03:39:34Z</time>
<speed>1.341615</speed>
<trueHeading>0.000000</trueHeading>
<magneticHeading>0.000000</magneticHeading>
<gpsHeading>301.672607</gpsHeading>
<haccuracy>6.031000</haccuracy>
<vaccuracy>6.031000</vaccuracy>
<internetconnect>2</internetconnect>
</trkpt>
<trkpt lat="35.839178" lon="138.950210">
<ele>1740.333333</ele>
<time>2026-07-19T03:41:10Z</time>
<speed>1.289702</speed>
<trueHeading>0.000000</trueHeading>
<magneticHeading>0.000000</magneticHeading>
<gpsHeading>309.554993</gpsHeading>
<haccuracy>5.174000</haccuracy>
<vaccuracy>5.174000</vaccuracy>
<internetconnect>2</internetconnect>
</trkpt>
<trkpt lat="35.840042" lon="138.949316">
<ele>1742.333333</ele>
<time>2026-07-19T03:42:45Z</time>
<speed>1.592838</speed>
<trueHeading>0.000000</trueHeading>
<magneticHeading>0.000000</magneticHeading>
<gpsHeading>321.118713</gpsHeading>
<haccuracy>5.381000</haccuracy>
<vaccuracy>5.381000</vaccuracy>
<internetconnect>2</internetconnect>
</trkpt>
<trkpt lat="35.841133" lon="138.948403">
<ele>1747.666667</ele>
<time>2026-07-19T03:44:20Z</time>
<speed>1.524834</speed>
<trueHeading>0.000000</trueHeading>
<magneticHeading>0.000000</magneticHeading>
<gpsHeading>330.485535</gpsHeading>
<haccuracy>5.325000</haccuracy>
<vaccuracy>5.325000</vaccuracy>
<internetconnect>2</internetconnect>
</trkpt>
<trkpt lat="35.841984" lon="138.947720">
<ele>1761.666667</ele>
<time>2026-07-19T03:45:58Z</time>
<speed>1.259333</speed>
<trueHeading>0.000000</trueHeading>
<magneticHeading>0.000000</magneticHeading>
<gpsHeading>311.332275</gpsHeading>
<haccuracy>3.043000</haccuracy>
<vaccuracy>3.043000</vaccuracy>
<internetconnect>2</internetconnect>
</trkpt>
<trkpt lat="35.842975" lon="138.947718">
<ele>1772.333333</ele>
<time>2026-07-19T03:47:35Z</time>
<speed>1.538899</speed>
<trueHeading>0.000000</trueHeading>
<magneticHeading>0.000000</magneticHeading>
<gpsHeading>6.564753</gpsHeading>
<haccuracy>5.419000</haccuracy>
<vaccuracy>5.419000</vaccuracy>
<internetconnect>2</internetconnect>
</trkpt>
<trkpt lat="35.844018" lon="138.947977">
<ele>1784.000000</ele>
<time>2026-07-19T03:49:10Z</time>
<speed>1.501236</speed>
<trueHeading>0.000000</trueHeading>
<magneticHeading>0.000000</magneticHeading>
<gpsHeading>350.799652</gpsHeading>
<haccuracy>5.448000</haccuracy>
<vaccuracy>5.448000</vaccuracy>
<internetconnect>2</internetconnect>
</trkpt>
<trkpt lat="35.845036" lon="138.947778">
<ele>1798.666667</ele>
<time>2026-07-19T03:50:45Z</time>
<speed>1.409055</speed>
<trueHeading>0.000000</trueHeading>
<magneticHeading>0.000000</magneticHeading>
<gpsHeading>3.401914</gpsHeading>
<haccuracy>5.329000</haccuracy>
<vaccuracy>5.329000</vaccuracy>
<internetconnect>2</internetconnect>
</trkpt>
<trkpt lat="35.845961" lon="138.947693">
<ele>1810.666667</ele>
<time>2026-07-19T03:52:20Z</time>
<speed>1.302259</speed>
<trueHeading>0.000000</trueHeading>
<magneticHeading>0.000000</magneticHeading>
<gpsHeading>347.329315</gpsHeading>
<haccuracy>4.536000</haccuracy>
<vaccuracy>4.536000</vaccuracy>
<internetconnect>2</internetconnect>
</trkpt>
<trkpt lat="35.846927" lon="138.947545">
<ele>1838.333333</ele>
<time>2026-07-19T03:54:45Z</time>
<speed>1.192902</speed>
<trueHeading>0.000000</trueHeading>
<magneticHeading>0.000000</magneticHeading>
<gpsHeading>353.410187</gpsHeading>
<haccuracy>5.074000</haccuracy>
<vaccuracy>5.074000</vaccuracy>
<internetconnect>2</internetconnect>
</trkpt>
<trkpt lat="35.848036" lon="138.947901">
<ele>1877.000000</ele>
<time>2026-07-19T03:58:16Z</time>
<speed>1.421858</speed>
<trueHeading>0.000000</trueHeading>
<magneticHeading>0.000000</magneticHeading>
<gpsHeading>40.701450</gpsHeading>
<haccuracy>5.892000</haccuracy>
<vaccuracy>5.892000</vaccuracy>
<internetconnect>2</internetconnect>
</trkpt>
<trkpt lat="35.848974" lon="138.948414">
<ele>1918.333333</ele>
<time>2026-07-19T04:01:32Z</time>
<speed>1.072180</speed>
<trueHeading>0.000000</trueHeading>
<magneticHeading>0.000000</magneticHeading>
<gpsHeading>21.402100</gpsHeading>
<haccuracy>3.004000</haccuracy>
<vaccuracy>3.004000</vaccuracy>
<internetconnect>2</internetconnect>
</trkpt>
<trkpt lat="35.850193" lon="138.948062">
<ele>1930.666667</ele>
<time>2026-07-19T04:04:04Z</time>
<speed>1.532801</speed>
<trueHeading>0.000000</trueHeading>
<magneticHeading>0.000000</magneticHeading>
<gpsHeading>344.179932</gpsHeading>
<haccuracy>3.053000</haccuracy>
<vaccuracy>3.053000</vaccuracy>
<internetconnect>2</internetconnect>
</trkpt>
<trkpt lat="35.851216" lon="138.947471">
<ele>1940.333333</ele>
<time>2026-07-19T04:05:40Z</time>
<speed>1.392411</speed>
<trueHeading>0.000000</trueHeading>
<magneticHeading>0.000000</magneticHeading>
<gpsHeading>326.825958</gpsHeading>
<haccuracy>3.006000</haccuracy>
<vaccuracy>3.006000</vaccuracy>
<internetconnect>2</internetconnect>
</trkpt>
<trkpt lat="35.852476" lon="138.946762">
<ele>1961.333333</ele>
<time>2026-07-19T04:08:04Z</time>
<speed>1.409109</speed>
<trueHeading>0.000000</trueHeading>
<magneticHeading>0.000000</magneticHeading>
<gpsHeading>334.170380</gpsHeading>
<haccuracy>5.187000</haccuracy>
<vaccuracy>5.187000</vaccuracy>
<internetconnect>2</internetconnect>
</trkpt>
<trkpt lat="35.853395" lon="138.946142">
<ele>1973.000000</ele>
<time>2026-07-19T04:09:41Z</time>
<speed>1.460674</speed>
<trueHeading>0.000000</trueHeading>
<magneticHeading>0.000000</magneticHeading>
<gpsHeading>332.461395</gpsHeading>
<haccuracy>5.180000</haccuracy>
<vaccuracy>5.180000</vaccuracy>
<internetconnect>2</internetconnect>
</trkpt>
<trkpt lat="35.854220" lon="138.945201">
<ele>1979.000000</ele>
<time>2026-07-19T04:11:16Z</time>
<speed>1.586534</speed>
<trueHeading>0.000000</trueHeading>
<magneticHeading>0.000000</magneticHeading>
<gpsHeading>311.723694</gpsHeading>
<haccuracy>5.335000</haccuracy>
<vaccuracy>5.335000</vaccuracy>
<internetconnect>2</internetconnect>
</trkpt>
<trkpt lat="35.854828" lon="138.944146">
<ele>2002.000000</ele>
<time>2026-07-19T04:13:43Z</time>
<speed>1.045260</speed>
<trueHeading>0.000000</trueHeading>
<magneticHeading>0.000000</magneticHeading>
<gpsHeading>341.399048</gpsHeading>
<haccuracy>4.739000</haccuracy>
<vaccuracy>4.739000</vaccuracy>
<internetconnect>2</internetconnect>
</trkpt>
<trkpt lat="35.855264" lon="138.944078">
<ele>2008.000000</ele>
<time>2026-07-19T04:17:31Z</time>
<speed>1.496626</speed>
<trueHeading>0.000000</trueHeading>
<magneticHeading>0.000000</magneticHeading>
<gpsHeading>161.344925</gpsHeading>
<haccuracy>3.119000</haccuracy>
<vaccuracy>3.119000</vaccuracy>
<internetconnect>2</internetconnect>
</trkpt>
<trkpt lat="35.854583" lon="138.944366">
<ele>1993.000000</ele>
<time>2026-07-19T04:23:42Z</time>
<speed>1.699335</speed>
<trueHeading>0.000000</trueHeading>
<magneticHeading>0.000000</magneticHeading>
<gpsHeading>102.144913</gpsHeading>
<haccuracy>5.250000</haccuracy>
<vaccuracy>5.250000</vaccuracy>
<internetconnect>2</internetconnect>
</trkpt>
<trkpt lat="35.854170" lon="138.945380">
<ele>1978.666667</ele>
<time>2026-07-19T04:25:17Z</time>
<speed>1.629779</speed>
<trueHeading>0.000000</trueHeading>
<magneticHeading>0.000000</magneticHeading>
<gpsHeading>115.585342</gpsHeading>
<haccuracy>5.377000</haccuracy>
<vaccuracy>5.377000</vaccuracy>
<internetconnect>2</internetconnect>
</trkpt>
<trkpt lat="35.853143" lon="138.946380">
<ele>1971.000000</ele>
<time>2026-07-19T04:26:53Z</time>
<speed>1.345199</speed>
<trueHeading>0.000000</trueHeading>
<magneticHeading>0.000000</magneticHeading>
<gpsHeading>148.948395</gpsHeading>
<haccuracy>5.923000</haccuracy>
<vaccuracy>5.923000</vaccuracy>
<internetconnect>2</internetconnect>
</trkpt>
<trkpt lat="35.852020" lon="138.947066">
<ele>1954.666667</ele>
<time>2026-07-19T04:28:27Z</time>
<speed>1.333161</speed>
<trueHeading>0.000000</trueHeading>
<magneticHeading>0.000000</magneticHeading>
<gpsHeading>154.892700</gpsHeading>
<haccuracy>4.778000</haccuracy>
<vaccuracy>4.778000</vaccuracy>
<internetconnect>2</internetconnect>
</trkpt>
<trkpt lat="35.850993" lon="138.947710">
<ele>1937.333333</ele>
<time>2026-07-19T04:30:01Z</time>
<speed>1.400160</speed>
<trueHeading>0.000000</trueHeading>
<magneticHeading>0.000000</magneticHeading>
<gpsHeading>143.228348</gpsHeading>
<haccuracy>5.509000</haccuracy>
<vaccuracy>5.509000</vaccuracy>
<internetconnect>2</internetconnect>
</trkpt>
<trkpt lat="35.849961" lon="138.948141">
<ele>1931.666667</ele>
<time>2026-07-19T04:31:35Z</time>
<speed>1.616292</speed>
<trueHeading>0.000000</trueHeading>
<magneticHeading>0.000000</magneticHeading>
<gpsHeading>150.423981</gpsHeading>
<haccuracy>5.287000</haccuracy>
<vaccuracy>5.287000</vaccuracy>
<internetconnect>2</internetconnect>
</trkpt>
<trkpt lat="35.848914" lon="138.948328">
<ele>1916.333333</ele>
<time>2026-07-19T04:33:11Z</time>
<speed>1.585599</speed>
<trueHeading>0.000000</trueHeading>
<magneticHeading>0.000000</magneticHeading>
<gpsHeading>170.782013</gpsHeading>
<haccuracy>5.447000</haccuracy>
<vaccuracy>5.447000</vaccuracy>
<internetconnect>2</internetconnect>
</trkpt>
<trkpt lat="35.847748" lon="138.947792">
<ele>1869.333333</ele>
<time>2026-07-19T04:36:33Z</time>
<speed>1.610622</speed>
<trueHeading>0.000000</trueHeading>
<magneticHeading>0.000000</magneticHeading>
<gpsHeading>180.859985</gpsHeading>
<haccuracy>5.148000</haccuracy>
<vaccuracy>5.148000</vaccuracy>
<internetconnect>2</internetconnect>
</trkpt>
<trkpt lat="35.846846" lon="138.947615">
<ele>1835.666667</ele>
<time>2026-07-19T04:39:11Z</time>
<speed>1.608512</speed>
<trueHeading>0.000000</trueHeading>
<magneticHeading>0.000000</magneticHeading>
<gpsHeading>169.842590</gpsHeading>
<haccuracy>4.991000</haccuracy>
<vaccuracy>4.991000</vaccuracy>
<internetconnect>2</internetconnect>
</trkpt>
<trkpt lat="35.845784" lon="138.947710">
<ele>1807.000000</ele>
<time>2026-07-19T04:41:32Z</time>
<speed>1.521867</speed>
<trueHeading>0.000000</trueHeading>
<magneticHeading>0.000000</magneticHeading>
<gpsHeading>170.568970</gpsHeading>
<haccuracy>6.535000</haccuracy>
<vaccuracy>6.535000</vaccuracy>
<internetconnect>2</internetconnect>
</trkpt>
<trkpt lat="35.844708" lon="138.947716">
<ele>1793.000000</ele>
<time>2026-07-19T04:43:06Z</time>
<speed>1.586775</speed>
<trueHeading>0.000000</trueHeading>
<magneticHeading>0.000000</magneticHeading>
<gpsHeading>181.756058</gpsHeading>
<haccuracy>5.707000</haccuracy>
<vaccuracy>5.707000</vaccuracy>
<internetconnect>2</internetconnect>
</trkpt>
<trkpt lat="35.843624" lon="138.947995">
<ele>1781.666667</ele>
<time>2026-07-19T04:44:39Z</time>
<speed>1.426269</speed>
<trueHeading>0.000000</trueHeading>
<magneticHeading>0.000000</magneticHeading>
<gpsHeading>174.530807</gpsHeading>
<haccuracy>5.625000</haccuracy>
<vaccuracy>5.625000</vaccuracy>
<internetconnect>2</internetconnect>
</trkpt>
<trkpt lat="35.842527" lon="138.947714">
<ele>1768.333333</ele>
<time>2026-07-19T04:46:13Z</time>
<speed>1.534927</speed>
<trueHeading>0.000000</trueHeading>
<magneticHeading>0.000000</magneticHeading>
<gpsHeading>183.091217</gpsHeading>
<haccuracy>5.105000</haccuracy>
<vaccuracy>5.105000</vaccuracy>
<internetconnect>2</internetconnect>
</trkpt>
<trkpt lat="35.841631" lon="138.948182">
<ele>1754.666667</ele>
<time>2026-07-19T04:47:48Z</time>
<speed>1.383290</speed>
<trueHeading>0.000000</trueHeading>
<magneticHeading>0.000000</magneticHeading>
<gpsHeading>136.738968</gpsHeading>
<haccuracy>4.914000</haccuracy>
<vaccuracy>4.914000</vaccuracy>
<internetconnect>2</internetconnect>
</trkpt>
<trkpt lat="35.840834" lon="138.948702">
<ele>1744.000000</ele>
<time>2026-07-19T04:49:49Z</time>
<speed>1.555827</speed>
<trueHeading>0.000000</trueHeading>
<magneticHeading>0.000000</magneticHeading>
<gpsHeading>158.855331</gpsHeading>
<haccuracy>4.927000</haccuracy>
<vaccuracy>4.927000</vaccuracy>
<internetconnect>2</internetconnect>
</trkpt>
<trkpt lat="35.839895" lon="138.949532">
<ele>1742.000000</ele>
<time>2026-07-19T04:51:24Z</time>
<speed>1.566416</speed>
<trueHeading>0.000000</trueHeading>
<magneticHeading>0.000000</magneticHeading>
<gpsHeading>137.868210</gpsHeading>
<haccuracy>5.016000</haccuracy>
<vaccuracy>5.016000</vaccuracy>
<internetconnect>2</internetconnect>
</trkpt>
<trkpt lat="35.838973" lon="138.950531">
<ele>1738.000000</ele>
<time>2026-07-19T04:52:58Z</time>
<speed>1.440709</speed>
<trueHeading>0.000000</trueHeading>
<magneticHeading>0.000000</magneticHeading>
<gpsHeading>131.957916</gpsHeading>
<haccuracy>5.186000</haccuracy>
<vaccuracy>5.186000</vaccuracy>
<internetconnect>2</internetconnect>
</trkpt>
<trkpt lat="35.838304" lon="138.951527">
<ele>1721.333333</ele>
<time>2026-07-19T04:54:32Z</time>
<speed>1.447240</speed>
<trueHeading>0.000000</trueHeading>
<magneticHeading>0.000000</magneticHeading>
<gpsHeading>119.633324</gpsHeading>
<haccuracy>5.062000</haccuracy>
<vaccuracy>5.062000</vaccuracy>
<internetconnect>2</internetconnect>
</trkpt>
<trkpt lat="35.837556" lon="138.952199">
<ele>1701.666667</ele>
<time>2026-07-19T04:56:10Z</time>
<speed>1.523685</speed>
<trueHeading>0.000000</trueHeading>
<magneticHeading>0.000000</magneticHeading>
<gpsHeading>161.832306</gpsHeading>
<haccuracy>5.723000</haccuracy>
<vaccuracy>5.723000</vaccuracy>
<internetconnect>2</internetconnect>
</trkpt>
<trkpt lat="35.836684" lon="138.952842">
<ele>1692.666667</ele>
<time>2026-07-19T04:57:44Z</time>
<speed>1.424669</speed>
<trueHeading>0.000000</trueHeading>
<magneticHeading>0.000000</magneticHeading>
<gpsHeading>157.235107</gpsHeading>
<haccuracy>5.323000</haccuracy>
<vaccuracy>5.323000</vaccuracy>
<internetconnect>2</internetconnect>
</trkpt>
<trkpt lat="35.836000" lon="138.953893">
<ele>1697.666667</ele>
<time>2026-07-19T04:59:21Z</time>
<speed>1.470949</speed>
<trueHeading>0.000000</trueHeading>
<magneticHeading>0.000000</magneticHeading>
<gpsHeading>126.588867</gpsHeading>
<haccuracy>5.395000</haccuracy>
<vaccuracy>5.395000</vaccuracy>
<internetconnect>2</internetconnect>
</trkpt>
<trkpt lat="35.835078" lon="138.954879">
<ele>1696.666667</ele>
<time>2026-07-19T05:00:54Z</time>
<speed>1.703056</speed>
<trueHeading>0.000000</trueHeading>
<magneticHeading>0.000000</magneticHeading>
<gpsHeading>141.884537</gpsHeading>
<haccuracy>5.849000</haccuracy>
<vaccuracy>5.849000</vaccuracy>
<internetconnect>2</internetconnect>
</trkpt>
<trkpt lat="35.834243" lon="138.956239">
<ele>1686.666667</ele>
<time>2026-07-19T05:02:28Z</time>
<speed>1.664444</speed>
<trueHeading>0.000000</trueHeading>
<magneticHeading>0.000000</magneticHeading>
<gpsHeading>129.028442</gpsHeading>
<haccuracy>5.699000</haccuracy>
<vaccuracy>5.699000</vaccuracy>
<internetconnect>2</internetconnect>
</trkpt>
<trkpt lat="35.833327" lon="138.957289">
<ele>1675.333333</ele>
<time>2026-07-19T05:04:01Z</time>
<speed>1.706713</speed>
<trueHeading>0.000000</trueHeading>
<magneticHeading>0.000000</magneticHeading>
<gpsHeading>125.054008</gpsHeading>
<haccuracy>5.717000</haccuracy>
<vaccuracy>5.717000</vaccuracy>
<internetconnect>2</internetconnect>
</trkpt>
<trkpt lat="35.832737" lon="138.958386">
<ele>1660.000000</ele>
<time>2026-07-19T05:05:35Z</time>
<speed>1.551617</speed>
<trueHeading>0.000000</trueHeading>
<magneticHeading>0.000000</magneticHeading>
<gpsHeading>115.673225</gpsHeading>
<haccuracy>5.918000</haccuracy>
<vaccuracy>5.918000</vaccuracy>
<internetconnect>2</internetconnect>
</trkpt>
<trkpt lat="35.831596" lon="138.958722">
<ele>1655.333333</ele>
<time>2026-07-19T05:07:08Z</time>
<speed>1.489314</speed>
<trueHeading>0.000000</trueHeading>
<magneticHeading>0.000000</magneticHeading>
<gpsHeading>178.069931</gpsHeading>
<haccuracy>5.461000</haccuracy>
<vaccuracy>5.461000</vaccuracy>
<internetconnect>2</internetconnect>
</trkpt>
<trkpt lat="35.830828" lon="138.959276">
<ele>1652.000000</ele>
<time>2026-07-19T05:08:43Z</time>
<speed>1.437420</speed>
<trueHeading>0.000000</trueHeading>
<magneticHeading>0.000000</magneticHeading>
<gpsHeading>128.297775</gpsHeading>
<haccuracy>5.504000</haccuracy>
<vaccuracy>5.504000</vaccuracy>
<internetconnect>2</internetconnect>
</trkpt>
<trkpt lat="35.829978" lon="138.959880">
<ele>1651.333333</ele>
<time>2026-07-19T05:10:17Z</time>
<speed>1.491785</speed>
<trueHeading>0.000000</trueHeading>
<magneticHeading>0.000000</magneticHeading>
<gpsHeading>166.764603</gpsHeading>
<haccuracy>6.262000</haccuracy>
<vaccuracy>6.262000</vaccuracy>
<internetconnect>2</internetconnect>
</trkpt>
<trkpt lat="35.828984" lon="138.959736">
<ele>1650.666667</ele>
<time>2026-07-19T05:11:51Z</time>
<speed>1.560213</speed>
<trueHeading>0.000000</trueHeading>
<magneticHeading>0.000000</magneticHeading>
<gpsHeading>193.237091</gpsHeading>
<haccuracy>5.959000</haccuracy>
<vaccuracy>5.959000</vaccuracy>
<internetconnect>2</internetconnect>
</trkpt>
<trkpt lat="35.827855" lon="138.959604">
<ele>1646.000000</ele>
<time>2026-07-19T05:13:26Z</time>
<speed>1.545786</speed>
<trueHeading>0.000000</trueHeading>
<magneticHeading>0.000000</magneticHeading>
<gpsHeading>192.884979</gpsHeading>
<haccuracy>6.128000</haccuracy>
<vaccuracy>6.128000</vaccuracy>
<internetconnect>2</internetconnect>
</trkpt>
<trkpt lat="35.826934" lon="138.959949">
<ele>1639.333333</ele>
<time>2026-07-19T05:15:00Z</time>
<speed>1.556732</speed>
<trueHeading>0.000000</trueHeading>
<magneticHeading>0.000000</magneticHeading>
<gpsHeading>131.960281</gpsHeading>
<haccuracy>5.197000</haccuracy>
<vaccuracy>5.197000</vaccuracy>
<internetconnect>2</internetconnect>
</trkpt>
<trkpt lat="35.825913" lon="138.960391">
<ele>1627.666667</ele>
<time>2026-07-19T05:16:34Z</time>
<speed>1.658316</speed>
<trueHeading>0.000000</trueHeading>
<magneticHeading>0.000000</magneticHeading>
<gpsHeading>157.249542</gpsHeading>
<haccuracy>5.853000</haccuracy>
<vaccuracy>5.853000</vaccuracy>
<internetconnect>2</internetconnect>
</trkpt>
<trkpt lat="35.824984" lon="138.960891">
<ele>1608.333333</ele>
<time>2026-07-19T05:18:08Z</time>
<speed>1.493911</speed>
<trueHeading>0.000000</trueHeading>
<magneticHeading>0.000000</magneticHeading>
<gpsHeading>133.470047</gpsHeading>
<haccuracy>5.893000</haccuracy>
<vaccuracy>5.893000</vaccuracy>
<internetconnect>2</internetconnect>
</trkpt>
<trkpt lat="35.825115" lon="138.962007">
<ele>1588.000000</ele>
<time>2026-07-19T05:19:42Z</time>
<speed>1.517347</speed>
<trueHeading>0.000000</trueHeading>
<magneticHeading>0.000000</magneticHeading>
<gpsHeading>97.630920</gpsHeading>
<haccuracy>4.955000</haccuracy>
<vaccuracy>4.955000</vaccuracy>
<internetconnect>2</internetconnect>
</trkpt>
<trkpt lat="35.825544" lon="138.962680">
<ele>1577.333333</ele>
<time>2026-07-19T05:21:15Z</time>
<speed>1.595366</speed>
<trueHeading>0.000000</trueHeading>
<magneticHeading>0.000000</magneticHeading>
<gpsHeading>3.661991</gpsHeading>
<haccuracy>5.610000</haccuracy>
<vaccuracy>5.610000</vaccuracy>
<internetconnect>2</internetconnect>
</trkpt>
<trkpt lat="35.826527" lon="138.962698">
<ele>1556.333333</ele>
<time>2026-07-19T05:22:50Z</time>
<speed>1.344564</speed>
<trueHeading>0.000000</trueHeading>
<magneticHeading>0.000000</magneticHeading>
<gpsHeading>8.133491</gpsHeading>
<haccuracy>5.065000</haccuracy>
<vaccuracy>5.065000</vaccuracy>
<internetconnect>2</internetconnect>
</trkpt>
<trkpt lat="35.826547" lon="138.963530">
<ele>1540.000000</ele>
<time>2026-07-19T05:24:24Z</time>
<speed>1.607624</speed>
<trueHeading>0.000000</trueHeading>
<magneticHeading>0.000000</magneticHeading>
<gpsHeading>128.319763</gpsHeading>
<haccuracy>5.583000</haccuracy>
<vaccuracy>5.583000</vaccuracy>
<internetconnect>2</internetconnect>
</trkpt>
<trkpt lat="35.826427" lon="138.964640">
<ele>1532.666667</ele>
<time>2026-07-19T05:26:20Z</time>
<speed>1.560360</speed>
<trueHeading>0.000000</trueHeading>
<magneticHeading>0.000000</magneticHeading>
<gpsHeading>96.557915</gpsHeading>
<haccuracy>5.769000</haccuracy>
<vaccuracy>5.769000</vaccuracy>
<internetconnect>2</internetconnect>
</trkpt>
<trkpt lat="35.826752" lon="138.965543">
<ele>1522.666667</ele>
<time>2026-07-19T05:28:49Z</time>
<speed>1.381368</speed>
<trueHeading>0.000000</trueHeading>
<magneticHeading>0.000000</magneticHeading>
<gpsHeading>123.075287</gpsHeading>
<haccuracy>5.317000</haccuracy>
<vaccuracy>5.317000</vaccuracy>
<internetconnect>2</internetconnect>
</trkpt>
<trkpt lat="35.825818" lon="138.965754">
<ele>1496.666667</ele>
<time>2026-07-19T05:30:23Z</time>
<speed>1.372081</speed>
<trueHeading>0.000000</trueHeading>
<magneticHeading>0.000000</magneticHeading>
<gpsHeading>185.041077</gpsHeading>
<haccuracy>6.224000</haccuracy>
<vaccuracy>6.224000</vaccuracy>
<internetconnect>2</internetconnect>
</trkpt>
<trkpt lat="35.824898" lon="138.966853">
<ele>1471.666667</ele>
<time>2026-07-19T05:32:45Z</time>
<speed>1.554940</speed>
<trueHeading>0.000000</trueHeading>
<magneticHeading>0.000000</magneticHeading>
<gpsHeading>160.546310</gpsHeading>
<haccuracy>5.539000</haccuracy>
<vaccuracy>5.539000</vaccuracy>
<internetconnect>2</internetconnect>
</trkpt>
<trkpt lat="35.823813" lon="138.967012">
<ele>1424.666667</ele>
<time>2026-07-19T05:35:33Z</time>
<speed>1.547544</speed>
<trueHeading>0.000000</trueHeading>
<magneticHeading>0.000000</magneticHeading>
<gpsHeading>190.072464</gpsHeading>
<haccuracy>6.689000</haccuracy>
<vaccuracy>6.689000</vaccuracy>
<internetconnect>2</internetconnect>
</trkpt>
<trkpt lat="35.822711" lon="138.967328">
<ele>1389.666667</ele>
<time>2026-07-19T05:37:53Z</time>
<speed>1.380502</speed>
<trueHeading>0.000000</trueHeading>
<magneticHeading>0.000000</magneticHeading>
<gpsHeading>138.556137</gpsHeading>
<haccuracy>5.749000</haccuracy>
<vaccuracy>5.749000</vaccuracy>
<internetconnect>2</internetconnect>
</trkpt>
<trkpt lat="35.821550" lon="138.966845">
<ele>1362.000000</ele>
<time>2026-07-19T05:40:14Z</time>
<speed>1.527636</speed>
<trueHeading>0.000000</trueHeading>
<magneticHeading>0.000000</magneticHeading>
<gpsHeading>224.643997</gpsHeading>
<haccuracy>6.215000</haccuracy>
<vaccuracy>6.215000</vaccuracy>
<internetconnect>2</internetconnect>
</trkpt>
<trkpt lat="35.820743" lon="138.966660">
<ele>1321.000000</ele>
<time>2026-07-19T05:42:50Z</time>
<speed>1.484377</speed>
<trueHeading>0.000000</trueHeading>
<magneticHeading>0.000000</magneticHeading>
<gpsHeading>163.356155</gpsHeading>
<haccuracy>5.546000</haccuracy>
<vaccuracy>5.546000</vaccuracy>
<internetconnect>2</internetconnect>
</trkpt>
<trkpt lat="35.819574" lon="138.966906">
<ele>1291.666667</ele>
<time>2026-07-19T05:45:11Z</time>
<speed>1.239998</speed>
<trueHeading>0.000000</trueHeading>
<magneticHeading>0.000000</magneticHeading>
<gpsHeading>189.893936</gpsHeading>
<haccuracy>5.232000</haccuracy>
<vaccuracy>5.232000</vaccuracy>
<internetconnect>2</internetconnect>
</trkpt>
<trkpt lat="35.818675" lon="138.966560">
<ele>1281.666667</ele>
<time>2026-07-19T05:46:46Z</time>
<speed>1.327544</speed>
<trueHeading>0.000000</trueHeading>
<magneticHeading>0.000000</magneticHeading>
<gpsHeading>184.492249</gpsHeading>
<haccuracy>6.061000</haccuracy>
<vaccuracy>6.061000</vaccuracy>
<internetconnect>2</internetconnect>
</trkpt>
<trkpt lat="35.817589" lon="138.966531">
<ele>1268.000000</ele>
<time>2026-07-19T05:48:20Z</time>
<speed>1.663945</speed>
<trueHeading>0.000000</trueHeading>
<magneticHeading>0.000000</magneticHeading>
<gpsHeading>179.629517</gpsHeading>
<haccuracy>5.585000</haccuracy>
<vaccuracy>5.585000</vaccuracy>
<internetconnect>2</internetconnect>
</trkpt>
<trkpt lat="35.815944" lon="138.967047">
<ele>1254.666667</ele>
<time>2026-07-19T05:51:56Z</time>
<speed>0.628281</speed>
<trueHeading>0.000000</trueHeading>
<magneticHeading>0.000000</magneticHeading>
<gpsHeading>171.400696</gpsHeading>
<haccuracy>6.217000</haccuracy>
<vaccuracy>6.217000</vaccuracy>
<internetconnect>2</internetconnect>
</trkpt>
<trkpt lat="35.814734" lon="138.967207">
<ele>1235.666667</ele>
<time>2026-07-19T05:53:30Z</time>
<speed>1.534098</speed>
<trueHeading>0.000000</trueHeading>
<magneticHeading>0.000000</magneticHeading>
<gpsHeading>166.942947</gpsHeading>
<haccuracy>5.724000</haccuracy>
<vaccuracy>5.724000</vaccuracy>
<internetconnect>2</internetconnect>
</trkpt>
<trkpt lat="35.813715" lon="138.967141">
<ele>1220.333333</ele>
<time>2026-07-19T05:55:04Z</time>
<speed>1.667447</speed>
<trueHeading>0.000000</trueHeading>
<magneticHeading>0.000000</magneticHeading>
<gpsHeading>166.333160</gpsHeading>
<haccuracy>6.020000</haccuracy>
<vaccuracy>6.020000</vaccuracy>
<internetconnect>2</internetconnect>
</trkpt>
<trkpt lat="35.812771" lon="138.967434">
<ele>1205.000000</ele>
<time>2026-07-19T05:56:38Z</time>
<speed>1.746858</speed>
<trueHeading>0.000000</trueHeading>
<magneticHeading>0.000000</magneticHeading>
<gpsHeading>191.317856</gpsHeading>
<haccuracy>5.461000</haccuracy>
<vaccuracy>5.461000</vaccuracy>
<internetconnect>2</internetconnect>
</trkpt>
<trkpt lat="35.811499" lon="138.967672">
<ele>1192.333333</ele>
<time>2026-07-19T05:58:12Z</time>
<speed>1.675739</speed>
<trueHeading>0.000000</trueHeading>
<magneticHeading>0.000000</magneticHeading>
<gpsHeading>170.553635</gpsHeading>
<haccuracy>5.589000</haccuracy>
<vaccuracy>5.589000</vaccuracy>
<internetconnect>2</internetconnect>
</trkpt>
<trkpt lat="35.810309" lon="138.967414">
<ele>1169.666667</ele>
<time>2026-07-19T05:59:46Z</time>
<speed>1.708320</speed>
<trueHeading>0.000000</trueHeading>
<magneticHeading>0.000000</magneticHeading>
<gpsHeading>193.275436</gpsHeading>
<haccuracy>5.770000</haccuracy>
<vaccuracy>5.770000</vaccuracy>
<internetconnect>2</internetconnect>
</trkpt>
<trkpt lat="35.809280" lon="138.966852">
<ele>1136.333333</ele>
<time>2026-07-19T06:01:20Z</time>
<speed>1.740505</speed>
<trueHeading>0.000000</trueHeading>
<magneticHeading>0.000000</magneticHeading>
<gpsHeading>198.783463</gpsHeading>
<haccuracy>5.493000</haccuracy>
<vaccuracy>5.493000</vaccuracy>
<internetconnect>2</internetconnect>
</trkpt>
<trkpt lat="35.808091" lon="138.967431">
<ele>1123.666667</ele>
<time>2026-07-19T06:02:54Z</time>
<speed>1.572220</speed>
<trueHeading>0.000000</trueHeading>
<magneticHeading>0.000000</magneticHeading>
<gpsHeading>162.191391</gpsHeading>
<haccuracy>5.237000</haccuracy>
<vaccuracy>5.237000</vaccuracy>
<internetconnect>2</internetconnect>
</trkpt>
<trkpt lat="35.807065" lon="138.967398">
<ele>1107.666667</ele>
<time>2026-07-19T06:04:30Z</time>
<speed>1.707722</speed>
<trueHeading>0.000000</trueHeading>
<magneticHeading>0.000000</magneticHeading>
<gpsHeading>181.948944</gpsHeading>
<haccuracy>5.387000</haccuracy>
<vaccuracy>5.387000</vaccuracy>
<internetconnect>2</internetconnect>
</trkpt>
<trkpt lat="35.806115" lon="138.966830">
<ele>1086.333333</ele>
<time>2026-07-19T06:06:02Z</time>
<speed>1.576442</speed>
<trueHeading>0.000000</trueHeading>
<magneticHeading>0.000000</magneticHeading>
<gpsHeading>202.031387</gpsHeading>
<haccuracy>6.068000</haccuracy>
<vaccuracy>6.068000</vaccuracy>
<internetconnect>2</internetconnect>
</trkpt>
<trkpt lat="35.805002" lon="138.966773">
<ele>1075.333333</ele>
<time>2026-07-19T06:07:36Z</time>
<speed>1.692466</speed>
<trueHeading>0.000000</trueHeading>
<magneticHeading>0.000000</magneticHeading>
<gpsHeading>184.146255</gpsHeading>
<haccuracy>6.220000</haccuracy>
<vaccuracy>6.220000</vaccuracy>
<internetconnect>2</internetconnect>
</trkpt>
<trkpt lat="35.804082" lon="138.967406">
<ele>1052.666667</ele>
<time>2026-07-19T06:09:10Z</time>
<speed>1.347000</speed>
<trueHeading>0.000000</trueHeading>
<magneticHeading>0.000000</magneticHeading>
<gpsHeading>120.750839</gpsHeading>
<haccuracy>5.481000</haccuracy>
<vaccuracy>5.481000</vaccuracy>
<internetconnect>2</internetconnect>
</trkpt>
<trkpt lat="35.803170" lon="138.968267">
<ele>1038.333333</ele>
<time>2026-07-19T06:10:44Z</time>
<speed>1.549471</speed>
<trueHeading>0.000000</trueHeading>
<magneticHeading>0.000000</magneticHeading>
<gpsHeading>149.595901</gpsHeading>
<haccuracy>5.836000</haccuracy>
<vaccuracy>5.836000</vaccuracy>
<internetconnect>2</internetconnect>
</trkpt>
<trkpt lat="35.802020" lon="138.968159">
<ele>1021.000000</ele>
<time>2026-07-19T06:12:18Z</time>
<speed>1.615432</speed>
<trueHeading>0.000000</trueHeading>
<magneticHeading>0.000000</magneticHeading>
<gpsHeading>189.182037</gpsHeading>
<haccuracy>6.923000</haccuracy>
<vaccuracy>6.923000</vaccuracy>
<internetconnect>2</internetconnect>
</trkpt>
<trkpt lat="35.801059" lon="138.967729">
<ele>1010.333333</ele>
<time>2026-07-19T06:13:52Z</time>
<speed>1.688467</speed>
<trueHeading>0.000000</trueHeading>
<magneticHeading>0.000000</magneticHeading>
<gpsHeading>226.642014</gpsHeading>
<haccuracy>6.045000</haccuracy>
<vaccuracy>6.045000</vaccuracy>
<internetconnect>2</internetconnect>
</trkpt>
<trkpt lat="35.799828" lon="138.967233">
<ele>997.000000</ele>
<time>2026-07-19T06:15:26Z</time>
<speed>1.641417</speed>
<trueHeading>0.000000</trueHeading>
<magneticHeading>0.000000</magneticHeading>
<gpsHeading>180.677155</gpsHeading>
<haccuracy>6.283000</haccuracy>
<vaccuracy>6.283000</vaccuracy>
<internetconnect>2</internetconnect>
</trkpt>
<trkpt lat="35.799026" lon="138.968553">
<ele>973.333333</ele>
<time>2026-07-19T06:17:00Z</time>
<speed>1.590746</speed>
<trueHeading>0.000000</trueHeading>
<magneticHeading>0.000000</magneticHeading>
<gpsHeading>129.801682</gpsHeading>
<haccuracy>5.418000</haccuracy>
<vaccuracy>5.418000</vaccuracy>
<internetconnect>2</internetconnect>
</trkpt>
<trkpt lat="35.798114" lon="138.969399">
<ele>954.000000</ele>
<time>2026-07-19T06:18:34Z</time>
<speed>1.638777</speed>
<trueHeading>0.000000</trueHeading>
<magneticHeading>0.000000</magneticHeading>
<gpsHeading>137.152939</gpsHeading>
<haccuracy>5.553000</haccuracy>
<vaccuracy>5.553000</vaccuracy>
<internetconnect>2</internetconnect>
</trkpt>
<trkpt lat="35.797509" lon="138.970356">
<ele>936.000000</ele>
<time>2026-07-19T06:21:13Z</time>
<speed>1.391508</speed>
<trueHeading>0.000000</trueHeading>
<magneticHeading>0.000000</magneticHeading>
<gpsHeading>113.847267</gpsHeading>
<haccuracy>6.902000</haccuracy>
<vaccuracy>6.902000</vaccuracy>
<internetconnect>2</internetconnect>
</trkpt>
<trkpt lat="35.796371" lon="138.971601">
<ele>892.333333</ele>
<time>2026-07-19T06:23:34Z</time>
<speed>1.508087</speed>
<trueHeading>0.000000</trueHeading>
<magneticHeading>0.000000</magneticHeading>
<gpsHeading>140.094177</gpsHeading>
<haccuracy>8.080000</haccuracy>
<vaccuracy>8.080000</vaccuracy>
<internetconnect>2</internetconnect>
</trkpt>
<trkpt lat="35.795254" lon="138.971458">
<ele>881.666667</ele>
<time>2026-07-19T06:25:08Z</time>
<speed>1.622889</speed>
<trueHeading>0.000000</trueHeading>
<magneticHeading>0.000000</magneticHeading>
<gpsHeading>189.313263</gpsHeading>
<haccuracy>5.317000</haccuracy>
<vaccuracy>5.317000</vaccuracy>
<internetconnect>2</internetconnect>
</trkpt>
<trkpt lat="35.794158" lon="138.971509">
<ele>892.333333</ele>
<time>2026-07-19T06:26:42Z</time>
<speed>1.616013</speed>
<trueHeading>0.000000</trueHeading>
<magneticHeading>0.000000</magneticHeading>
<gpsHeading>151.401230</gpsHeading>
<haccuracy>5.340000</haccuracy>
<vaccuracy>5.340000</vaccuracy>
<internetconnect>2</internetconnect>
</trkpt>
<trkpt lat="35.793276" lon="138.972264">
<ele>885.666667</ele>
<time>2026-07-19T06:28:15Z</time>
<speed>1.610879</speed>
<trueHeading>0.000000</trueHeading>
<magneticHeading>0.000000</magneticHeading>
<gpsHeading>131.702362</gpsHeading>
<haccuracy>5.388000</haccuracy>
<vaccuracy>5.388000</vaccuracy>
<internetconnect>2</internetconnect>
</trkpt>
<trkpt lat="35.792632" lon="138.973420">
<ele>860.000000</ele>
<time>2026-07-19T06:29:49Z</time>
<speed>1.669008</speed>
<trueHeading>0.000000</trueHeading>
<magneticHeading>0.000000</magneticHeading>
<gpsHeading>129.173996</gpsHeading>
<haccuracy>5.967000</haccuracy>
<vaccuracy>5.967000</vaccuracy>
<internetconnect>2</internetconnect>
</trkpt>
<trkpt lat="35.791640" lon="138.972725">
<ele>843.333333</ele>
<time>2026-07-19T06:31:24Z</time>
<speed>1.632861</speed>
<trueHeading>0.000000</trueHeading>
<magneticHeading>0.000000</magneticHeading>
<gpsHeading>195.477982</gpsHeading>
<haccuracy>5.628000</haccuracy>
<vaccuracy>5.628000</vaccuracy>
<internetconnect>2</internetconnect>
</trkpt>
<trkpt lat="35.790557" lon="138.973430">
<ele>831.333333</ele>
<time>2026-07-19T06:32:58Z</time>
<speed>1.573044</speed>
<trueHeading>0.000000</trueHeading>
<magneticHeading>0.000000</magneticHeading>
<gpsHeading>139.208099</gpsHeading>
<haccuracy>5.531000</haccuracy>
<vaccuracy>5.531000</vaccuracy>
<internetconnect>2</internetconnect>
</trkpt>
<trkpt lat="35.789346" lon="138.973709">
<ele>816.666667</ele>
<time>2026-07-19T06:34:32Z</time>
<speed>1.708445</speed>
<trueHeading>0.000000</trueHeading>
<magneticHeading>0.000000</magneticHeading>
<gpsHeading>161.120163</gpsHeading>
<haccuracy>5.378000</haccuracy>
<vaccuracy>5.378000</vaccuracy>
<internetconnect>2</internetconnect>
</trkpt>
<trkpt lat="35.788486" lon="138.974912">
<ele>774.666667</ele>
<time>2026-07-19T06:36:05Z</time>
<speed>1.695307</speed>
<trueHeading>0.000000</trueHeading>
<magneticHeading>0.000000</magneticHeading>
<gpsHeading>131.349823</gpsHeading>
<haccuracy>5.226000</haccuracy>
<vaccuracy>5.226000</vaccuracy>
<internetconnect>2</internetconnect>
</trkpt>
<trkpt lat="35.787676" lon="138.976068">
<ele>750.333333</ele>
<time>2026-07-19T06:37:39Z</time>
<speed>1.575545</speed>
<trueHeading>0.000000</trueHeading>
<magneticHeading>0.000000</magneticHeading>
<gpsHeading>141.595642</gpsHeading>
<haccuracy>5.237000</haccuracy>
<vaccuracy>5.237000</vaccuracy>
<internetconnect>2</internetconnect>
</trkpt>
<trkpt lat="35.786442" lon="138.976671">
<ele>743.000000</ele>
<time>2026-07-19T06:39:16Z</time>
<speed>1.604763</speed>
<trueHeading>0.000000</trueHeading>
<magneticHeading>0.000000</magneticHeading>
<gpsHeading>164.464493</gpsHeading>
<haccuracy>5.409000</haccuracy>
<vaccuracy>5.409000</vaccuracy>
<internetconnect>2</internetconnect>
</trkpt>
<trkpt lat="35.785834" lon="138.977623">
<ele>728.000000</ele>
<time>2026-07-19T06:41:11Z</time>
<speed>2.395345</speed>
<trueHeading>0.000000</trueHeading>
<magneticHeading>0.000000</magneticHeading>
<gpsHeading>117.777267</gpsHeading>
<haccuracy>7.942000</haccuracy>
<vaccuracy>7.942000</vaccuracy>
<internetconnect>2</internetconnect>
</trkpt>
<trkpt lat="35.784603" lon="138.978395">
<ele>705.666667</ele>
<time>2026-07-19T06:42:47Z</time>
<speed>1.716240</speed>
<trueHeading>0.000000</trueHeading>
<magneticHeading>0.000000</magneticHeading>
<gpsHeading>160.249359</gpsHeading>
<haccuracy>6.311000</haccuracy>
<vaccuracy>6.311000</vaccuracy>
<internetconnect>2</internetconnect>
</trkpt>
<trkpt lat="35.783316" lon="138.979077">
<ele>680.000000</ele>
<time>2026-07-19T06:44:20Z</time>
<speed>1.774903</speed>
<trueHeading>0.000000</trueHeading>
<magneticHeading>0.000000</magneticHeading>
<gpsHeading>162.733185</gpsHeading>
<haccuracy>6.564000</haccuracy>
<vaccuracy>6.564000</vaccuracy>
<internetconnect>2</internetconnect>
</trkpt>
<trkpt lat="35.782120" lon="138.979291">
<ele>645.000000</ele>
<time>2026-07-19T06:45:53Z</time>
<speed>1.559516</speed>
<trueHeading>0.000000</trueHeading>
<magneticHeading>0.000000</magneticHeading>
<gpsHeading>197.014267</gpsHeading>
<haccuracy>5.950000</haccuracy>
<vaccuracy>5.950000</vaccuracy>
<internetconnect>2</internetconnect>
</trkpt>
<trkpt lat="35.781156" lon="138.980156">
<ele>625.333333</ele>
<time>2026-07-19T06:47:26Z</time>
<speed>1.603053</speed>
<trueHeading>0.000000</trueHeading>
<magneticHeading>0.000000</magneticHeading>
<gpsHeading>135.479050</gpsHeading>
<haccuracy>6.037000</haccuracy>
<vaccuracy>6.037000</vaccuracy>
<internetconnect>2</internetconnect>
</trkpt>
<trkpt lat="35.780020" lon="138.980876">
<ele>606.666667</ele>
<time>2026-07-19T06:48:59Z</time>
<speed>1.623545</speed>
<trueHeading>0.000000</trueHeading>
<magneticHeading>0.000000</magneticHeading>
<gpsHeading>146.178345</gpsHeading>
<haccuracy>5.701000</haccuracy>
<vaccuracy>5.701000</vaccuracy>
<internetconnect>2</internetconnect>
</trkpt>
<trkpt lat="35.779425" lon="138.982294">
<ele>579.333333</ele>
<time>2026-07-19T06:50:34Z</time>
<speed>1.679609</speed>
<trueHeading>0.000000</trueHeading>
<magneticHeading>0.000000</magneticHeading>
<gpsHeading>108.223747</gpsHeading>
<haccuracy>5.236000</haccuracy>
<vaccuracy>5.236000</vaccuracy>
<internetconnect>2</internetconnect>
</trkpt>
<trkpt lat="35.779998" lon="138.983777">
<ele>559.000000</ele>
<time>2026-07-19T06:52:08Z</time>
<speed>1.759023</speed>
<trueHeading>0.000000</trueHeading>
<magneticHeading>0.000000</magneticHeading>
<gpsHeading>45.829296</gpsHeading>
<haccuracy>4.949000</haccuracy>
<vaccuracy>4.949000</vaccuracy>
<internetconnect>2</internetconnect>
</trkpt>
<trkpt lat="35.780361" lon="138.984483">
<ele>547.000000</ele>
<time>2026-07-19T06:53:28Z</time>
<speed>1.350730</speed>
<trueHeading>-999.000000</trueHeading>
<magneticHeading>-999.000000</magneticHeading>
<gpsHeading>123.737740</gpsHeading>
<haccuracy>5.406000</haccuracy>
<vaccuracy>5.406000</vaccuracy>
<internetconnect>2</internetconnect>
</trkpt>
</trkseg></trk>
</gpx>
