<?xml version="1.0" encoding="UTF-8"?>
<gpx xmlns:xsi="http://www.w3.org/2001/XMLSchema-instance" xmlns="http://www.topografix.com/GPX/1/0" xsi:schemaLocation="http://www.topografix.com/GPX/1/1 http://www.topografix.com/GPX/1/1/gpx.xsd" creator="Geographica - http://geographica.biz/" appVersion="Ver 2.1.61:4412" device="google sunfish" android="13" carrier="povo">
<trk>
<name>20260927</name>
<trkseg>
<trkpt lat="35.809066" lon="139.096731">
<ele>342.000000</ele>
<time>2026-09-26T22:45:22Z</time>
<speed>0.000000</speed>
<trueHeading>0.000000</trueHeading>
<magneticHeading>0.000000</magneticHeading>
<gpsHeading>0.000000</gpsHeading>
<haccuracy>3.790000</haccuracy>
<vaccuracy>3.790000</vaccuracy>
<internetconnect>2</internetconnect>
</trkpt>
<trkpt lat="35.809064" lon="139.096729">
<ele>342.000000</ele>
<time>2026-09-26T22:45:23Z</time>
<speed>0.000000</speed>
<trueHeading>0.000000</trueHeading>
<magneticHeading>0.000000</magneticHeading>
<gpsHeading>0.000000</gpsHeading>
<haccuracy>3.790000</haccuracy>
<vaccuracy>3.790000</vaccuracy>
<internetconnect>2</internetconnect>
</trkpt>
<trkpt lat="35.808970" lon="139.096639">
<ele>342.333333</ele>
<time>2026-09-26T22:47:40Z</time>
<speed>0.165273</speed>
<trueHeading>0.000000</trueHeading>
<magneticHeading>0.000000</magneticHeading>
<gpsHeading>217.770386</gpsHeading>
<haccuracy>4.841000</haccuracy>
<vaccuracy>4.841000</vaccuracy>
<internetconnect>2</internetconnect>
</trkpt>
<trkpt lat="35.808583" lon="139.097027">
<ele>342.666667</ele>
<time>2026-09-26T22:48:26Z</time>
<speed>1.461959</speed>
<trueHeading>0.000000</trueHeading>
<magneticHeading>0.000000</magneticHeading>
<gpsHeading>140.915390</gpsHeading>
<haccuracy>8.255000</haccuracy>
<vaccuracy>8.255000</vaccuracy>
<internetconnect>2</internetconnect>
</trkpt>
<trkpt lat="35.808351" lon="139.097621">
<ele>343.333333</ele>
<time>2026-09-26T22:49:14Z</time>
<speed>1.477789</speed>
<trueHeading>0.000000</trueHeading>
<magneticHeading>0.000000</magneticHeading>
<gpsHeading>115.642784</gpsHeading>
<haccuracy>5.801000</haccuracy>
<vaccuracy>5.801000</vaccuracy>
<internetconnect>2</internetconnect>
</trkpt>
<trkpt lat="35.808328" lon="139.098404">
<ele>342.666667</ele>
<time>2026-09-26T22:50:01Z</time>
<speed>1.485062</speed>
<trueHeading>0.000000</trueHeading>
<magneticHeading>0.000000</magneticHeading>
<gpsHeading>92.128181</gpsHeading>
<haccuracy>10.155000</haccuracy>
<vaccuracy>10.155000</vaccuracy>
<internetconnect>2</internetconnect>
</trkpt>
<trkpt lat="35.808122" lon="139.098753">
<ele>343.666667</ele>
<time>2026-09-26T22:51:02Z</time>
<speed>1.410831</speed>
<trueHeading>0.000000</trueHeading>
<magneticHeading>0.000000</magneticHeading>
<gpsHeading>126.127151</gpsHeading>
<haccuracy>7.879000</haccuracy>
<vaccuracy>7.879000</vaccuracy>
<internetconnect>2</internetconnect>
</trkpt>
<trkpt lat="35.808223" lon="139.099784">
<ele>343.666667</ele>
<time>2026-09-26T22:51:50Z</time>
<speed>1.301171</speed>
<trueHeading>0.000000</trueHeading>
<magneticHeading>0.000000</magneticHeading>
<gpsHeading>83.084595</gpsHeading>
<haccuracy>5.334000</haccuracy>
<vaccuracy>5.334000</vaccuracy>
<internetconnect>2</internetconnect>
</trkpt>
<trkpt lat="35.807831" lon="139.100387">
<ele>345.000000</ele>
<time>2026-09-26T22:52:38Z</time>
<speed>1.418028</speed>
<trueHeading>0.000000</trueHeading>
<magneticHeading>0.000000</magneticHeading>
<gpsHeading>128.671463</gpsHeading>
<haccuracy>8.359000</haccuracy>
<vaccuracy>8.359000</vaccuracy>
<internetconnect>2</internetconnect>
</trkpt>
<trkpt lat="35.807595" lon="139.100648">
<ele>344.333333</ele>
<time>2026-09-26T22:54:12Z</time>
<speed>1.386951</speed>
<trueHeading>0.000000</trueHeading>
<magneticHeading>0.000000</magneticHeading>
<gpsHeading>138.124466</gpsHeading>
<haccuracy>6.720000</haccuracy>
<vaccuracy>6.720000</vaccuracy>
<internetconnect>2</internetconnect>
</trkpt>
<trkpt lat="35.807093" lon="139.100963">
<ele>354.000000</ele>
<time>2026-09-26T22:54:59Z</time>
<speed>1.421700</speed>
<trueHeading>0.000000</trueHeading>
<magneticHeading>0.000000</magneticHeading>
<gpsHeading>153.037247</gpsHeading>
<haccuracy>6.305000</haccuracy>
<vaccuracy>6.305000</vaccuracy>
<internetconnect>2</internetconnect>
</trkpt>
<trkpt lat="35.806794" lon="139.101386">
<ele>363.333333</ele>
<time>2026-09-26T22:55:49Z</time>
<speed>0.498252</speed>
<trueHeading>0.000000</trueHeading>
<magneticHeading>0.000000</magneticHeading>
<gpsHeading>131.118668</gpsHeading>
<haccuracy>7.660000</haccuracy>
<vaccuracy>7.660000</vaccuracy>
<internetconnect>2</internetconnect>
</trkpt>
<trkpt lat="35.806292" lon="139.101965">
<ele>387.000000</ele>
<time>2026-09-26T22:56:36Z</time>
<speed>1.344288</speed>
<trueHeading>0.000000</trueHeading>
<magneticHeading>0.000000</magneticHeading>
<gpsHeading>136.884201</gpsHeading>
<haccuracy>3.729000</haccuracy>
<vaccuracy>3.729000</vaccuracy>
<internetconnect>2</internetconnect>
</trkpt>
<trkpt lat="35.805973" lon="139.102461">
<ele>402.000000</ele>
<time>2026-09-26T22:57:23Z</time>
<speed>1.474731</speed>
<trueHeading>0.000000</trueHeading>
<magneticHeading>0.000000</magneticHeading>
<gpsHeading>128.434113</gpsHeading>
<haccuracy>5.353000</haccuracy>
<vaccuracy>5.353000</vaccuracy>
<internetconnect>2</internetconnect>
</trkpt>
<trkpt lat="35.805566" lon="139.102862">
<ele>413.000000</ele>
<time>2026-09-26T22:58:11Z</time>
<speed>1.413598</speed>
<trueHeading>0.000000</trueHeading>
<magneticHeading>0.000000</magneticHeading>
<gpsHeading>141.366165</gpsHeading>
<haccuracy>5.665000</haccuracy>
<vaccuracy>5.665000</vaccuracy>
<internetconnect>2</internetconnect>
</trkpt>
<trkpt lat="35.805163" lon="139.103114">
<ele>399.000000</ele>
<time>2026-09-26T22:59:03Z</time>
<speed>0.098953</speed>
<trueHeading>0.000000</trueHeading>
<magneticHeading>0.000000</magneticHeading>
<gpsHeading>153.143387</gpsHeading>
<haccuracy>4.140000</haccuracy>
<vaccuracy>4.140000</vaccuracy>
<internetconnect>2</internetconnect>
</trkpt>
<trkpt lat="35.804904" lon="139.102957">
<ele>385.333333</ele>
<time>2026-09-26T23:00:34Z</time>
<speed>1.554764</speed>
<trueHeading>0.000000</trueHeading>
<magneticHeading>0.000000</magneticHeading>
<gpsHeading>206.110275</gpsHeading>
<haccuracy>7.248000</haccuracy>
<vaccuracy>7.248000</vaccuracy>
<internetconnect>2</internetconnect>
</trkpt>
<trkpt lat="35.804488" lon="139.103342">
<ele>362.000000</ele>
<time>2026-09-26T23:01:21Z</time>
<speed>1.095670</speed>
<trueHeading>0.000000</trueHeading>
<magneticHeading>0.000000</magneticHeading>
<gpsHeading>143.157272</gpsHeading>
<haccuracy>5.337000</haccuracy>
<vaccuracy>5.337000</vaccuracy>
<internetconnect>2</internetconnect>
</trkpt>
<trkpt lat="35.804307" lon="139.103078">
<ele>348.666667</ele>
<time>2026-09-26T23:02:36Z</time>
<speed>0.134531</speed>
<trueHeading>0.000000</trueHeading>
<magneticHeading>0.000000</magneticHeading>
<gpsHeading>229.752090</gpsHeading>
<haccuracy>4.582000</haccuracy>
<vaccuracy>4.582000</vaccuracy>
<internetconnect>2</internetconnect>
</trkpt>
<trkpt lat="35.804025" lon="139.103206">
<ele>331.333333</ele>
<time>2026-09-26T23:03:27Z</time>
<speed>1.490250</speed>
<trueHeading>0.000000</trueHeading>
<magneticHeading>0.000000</magneticHeading>
<gpsHeading>159.849625</gpsHeading>
<haccuracy>4.386000</haccuracy>
<vaccuracy>4.386000</vaccuracy>
<internetconnect>2</internetconnect>
</trkpt>
<trkpt lat="35.803462" lon="139.103559">
<ele>327.333333</ele>
<time>2026-09-26T23:04:13Z</time>
<speed>1.522905</speed>
<trueHeading>0.000000</trueHeading>
<magneticHeading>0.000000</magneticHeading>
<gpsHeading>153.020813</gpsHeading>
<haccuracy>5.751000</haccuracy>
<vaccuracy>5.751000</vaccuracy>
<internetconnect>2</internetconnect>
</trkpt>
<trkpt lat="35.802938" lon="139.103955">
<ele>326.666667</ele>
<time>2026-09-26T23:04:59Z</time>
<speed>1.467097</speed>
<trueHeading>0.000000</trueHeading>
<magneticHeading>0.000000</magneticHeading>
<gpsHeading>148.537033</gpsHeading>
<haccuracy>5.452000</haccuracy>
<vaccuracy>5.452000</vaccuracy>
<internetconnect>2</internetconnect>
</trkpt>
<trkpt lat="35.802751" lon="139.104267">
<ele>335.000000</ele>
<time>2026-09-26T23:06:38Z</time>
<speed>1.347928</speed>
<trueHeading>0.000000</trueHeading>
<magneticHeading>0.000000</magneticHeading>
<gpsHeading>126.488022</gpsHeading>
<haccuracy>5.368000</haccuracy>
<vaccuracy>5.368000</vaccuracy>
<internetconnect>2</internetconnect>
</trkpt>
<trkpt lat="35.803130" lon="139.104515">
<ele>343.666667</ele>
<time>2026-09-26T23:07:26Z</time>
<speed>1.382537</speed>
<trueHeading>0.000000</trueHeading>
<magneticHeading>0.000000</magneticHeading>
<gpsHeading>27.983381</gpsHeading>
<haccuracy>6.929000</haccuracy>
<vaccuracy>6.929000</vaccuracy>
<internetconnect>2</internetconnect>
</trkpt>
<trkpt lat="35.803004" lon="139.104944">
<ele>348.000000</ele>
<time>2026-09-26T23:08:14Z</time>
<speed>1.461840</speed>
<trueHeading>0.000000</trueHeading>
<magneticHeading>0.000000</magneticHeading>
<gpsHeading>109.863594</gpsHeading>
<haccuracy>3.412000</haccuracy>
<vaccuracy>3.412000</vaccuracy>
<internetconnect>2</internetconnect>
</trkpt>
<trkpt lat="35.802787" lon="139.105240">
<ele>347.333333</ele>
<time>2026-09-26T23:09:01Z</time>
<speed>1.483526</speed>
<trueHeading>0.000000</trueHeading>
<magneticHeading>0.000000</magneticHeading>
<gpsHeading>132.081177</gpsHeading>
<haccuracy>3.026000</haccuracy>
<vaccuracy>3.026000</vaccuracy>
<internetconnect>2</internetconnect>
</trkpt>
<trkpt lat="35.802965" lon="139.105089">
<ele>350.000000</ele>
<time>2026-09-26T23:11:07Z</time>
<speed>1.126621</speed>
<trueHeading>0.000000</trueHeading>
<magneticHeading>0.000000</magneticHeading>
<gpsHeading>325.522003</gpsHeading>
<haccuracy>3.058000</haccuracy>
<vaccuracy>3.058000</vaccuracy>
<internetconnect>2</internetconnect>
</trkpt>
<trkpt lat="35.803306" lon="139.105066">
<ele>354.000000</ele>
<time>2026-09-26T23:11:54Z</time>
<speed>0.668391</speed>
<trueHeading>0.000000</trueHeading>
<magneticHeading>0.000000</magneticHeading>
<gpsHeading>356.960419</gpsHeading>
<haccuracy>5.170000</haccuracy>
<vaccuracy>5.170000</vaccuracy>
<internetconnect>2</internetconnect>
</trkpt>
<trkpt lat="35.803312" lon="139.104721">
<ele>356.666667</ele>
<time>2026-09-26T23:13:15Z</time>
<speed>0.121160</speed>
<trueHeading>0.000000</trueHeading>
<magneticHeading>0.000000</magneticHeading>
<gpsHeading>271.227020</gpsHeading>
<haccuracy>3.000000</haccuracy>
<vaccuracy>3.000000</vaccuracy>
<internetconnect>2</internetconnect>
</trkpt>
<trkpt lat="35.803306" lon="139.104711">
<ele>356.000000</ele>
<time>2026-09-26T23:15:38Z</time>
<speed>0.103944</speed>
<trueHeading>0.000000</trueHeading>
<magneticHeading>0.000000</magneticHeading>
<gpsHeading>235.227341</gpsHeading>
<haccuracy>5.659000</haccuracy>
<vaccuracy>5.659000</vaccuracy>
<internetconnect>2</internetconnect>
</trkpt>
<trkpt lat="35.803297" lon="139.104699">
<ele>356.000000</ele>
<time>2026-09-26T23:17:51Z</time>
<speed>0.140171</speed>
<trueHeading>0.000000</trueHeading>
<magneticHeading>0.000000</magneticHeading>
<gpsHeading>226.301376</gpsHeading>
<haccuracy>5.946000</haccuracy>
<vaccuracy>5.946000</vaccuracy>
<internetconnect>2</internetconnect>
</trkpt>
<trkpt lat="35.803243" lon="139.104877">
<ele>356.666667</ele>
<time>2026-09-26T23:19:57Z</time>
<speed>1.050675</speed>
<trueHeading>0.000000</trueHeading>
<magneticHeading>0.000000</magneticHeading>
<gpsHeading>110.383072</gpsHeading>
<haccuracy>6.780000</haccuracy>
<vaccuracy>6.780000</vaccuracy>
<internetconnect>2</internetconnect>
</trkpt>
<trkpt lat="35.803446" lon="139.104569">
<ele>363.666667</ele>
<time>2026-09-26T23:22:03Z</time>
<speed>0.960000</speed>
<trueHeading>0.000000</trueHeading>
<magneticHeading>0.000000</magneticHeading>
<gpsHeading>309.149628</gpsHeading>
<haccuracy>6.175000</haccuracy>
<vaccuracy>6.175000</vaccuracy>
<internetconnect>2</internetconnect>
</trkpt>
<trkpt lat="35.803692" lon="139.104749">
<ele>366.000000</ele>
<time>2026-09-26T23:23:05Z</time>
<speed>0.925143</speed>
<trueHeading>0.000000</trueHeading>
<magneticHeading>0.000000</magneticHeading>
<gpsHeading>30.637995</gpsHeading>
<haccuracy>5.801000</haccuracy>
<vaccuracy>5.801000</vaccuracy>
<internetconnect>2</internetconnect>
</trkpt>
<trkpt lat="35.803536" lon="139.104747">
<ele>369.000000</ele>
<time>2026-09-26T23:25:06Z</time>
<speed>0.078507</speed>
<trueHeading>0.000000</trueHeading>
<magneticHeading>0.000000</magneticHeading>
<gpsHeading>180.623520</gpsHeading>
<haccuracy>3.130000</haccuracy>
<vaccuracy>3.130000</vaccuracy>
<internetconnect>2</internetconnect>
</trkpt>
<trkpt lat="35.803556" lon="139.104732">
<ele>367.333333</ele>
<time>2026-09-26T23:27:41Z</time>
<speed>2.190000</speed>
<trueHeading>0.000000</trueHeading>
<magneticHeading>0.000000</magneticHeading>
<gpsHeading>329.527771</gpsHeading>
<haccuracy>11.224000</haccuracy>
<vaccuracy>11.224000</vaccuracy>
<internetconnect>2</internetconnect>
</trkpt>
<trkpt lat="35.803675" lon="139.104717">
<ele>370.333333</ele>
<time>2026-09-26T23:31:43Z</time>
<speed>0.000000</speed>
<trueHeading>0.000000</trueHeading>
<magneticHeading>0.000000</magneticHeading>
<gpsHeading>354.167480</gpsHeading>
<haccuracy>12.978000</haccuracy>
<vaccuracy>12.978000</vaccuracy>
<internetconnect>2</internetconnect>
</trkpt>
<trkpt lat="35.803661" lon="139.104704">
<ele>378.666667</ele>
<time>2026-09-26T23:36:14Z</time>
<speed>0.000000</speed>
<trueHeading>0.000000</trueHeading>
<magneticHeading>0.000000</magneticHeading>
<gpsHeading>218.432785</gpsHeading>
<haccuracy>12.371000</haccuracy>
<vaccuracy>12.371000</vaccuracy>
<internetconnect>2</internetconnect>
</trkpt>
<trkpt lat="35.803840" lon="139.104613">
<ele>381.000000</ele>
<time>2026-09-26T23:38:22Z</time>
<speed>0.000000</speed>
<trueHeading>0.000000</trueHeading>
<magneticHeading>0.000000</magneticHeading>
<gpsHeading>337.671051</gpsHeading>
<haccuracy>11.295000</haccuracy>
<vaccuracy>11.295000</vaccuracy>
<internetconnect>2</internetconnect>
</trkpt>
<trkpt lat="35.803749" lon="139.104397">
<ele>380.666667</ele>
<time>2026-09-26T23:41:13Z</time>
<speed>0.000000</speed>
<trueHeading>0.000000</trueHeading>
<magneticHeading>0.000000</magneticHeading>
<gpsHeading>242.541763</gpsHeading>
<haccuracy>11.781000</haccuracy>
<vaccuracy>11.781000</vaccuracy>
<internetconnect>2</internetconnect>
</trkpt>
<trkpt lat="35.803625" lon="139.104184">
<ele>373.666667</ele>
<time>2026-09-26T23:43:15Z</time>
<speed>1.960000</speed>
<trueHeading>0.000000</trueHeading>
<magneticHeading>0.000000</magneticHeading>
<gpsHeading>234.299850</gpsHeading>
<haccuracy>10.639000</haccuracy>
<vaccuracy>10.639000</vaccuracy>
<internetconnect>2</internetconnect>
</trkpt>
<trkpt lat="35.803620" lon="139.104241">
<ele>369.000000</ele>
<time>2026-09-26T23:45:21Z</time>
<speed>0.000000</speed>
<trueHeading>0.000000</trueHeading>
<magneticHeading>0.000000</magneticHeading>
<gpsHeading>96.462891</gpsHeading>
<haccuracy>12.240000</haccuracy>
<vaccuracy>12.240000</vaccuracy>
<internetconnect>2</internetconnect>
</trkpt>
<trkpt lat="35.803617" lon="139.104200">
<ele>367.000000</ele>
<time>2026-09-26T23:47:36Z</time>
<speed>0.000000</speed>
<trueHeading>0.000000</trueHeading>
<magneticHeading>0.000000</magneticHeading>
<gpsHeading>265.496277</gpsHeading>
<haccuracy>13.221000</haccuracy>
<vaccuracy>13.221000</vaccuracy>
<internetconnect>2</internetconnect>
</trkpt>
<trkpt lat="35.803608" lon="139.104196">
<ele>363.333333</ele>
<time>2026-09-26T23:50:12Z</time>
<speed>0.000000</speed>
<trueHeading>0.000000</trueHeading>
<magneticHeading>0.000000</magneticHeading>
<gpsHeading>198.070221</gpsHeading>
<haccuracy>8.340000</haccuracy>
<vaccuracy>8.340000</vaccuracy>
<internetconnect>2</internetconnect>
</trkpt>
<trkpt lat="35.803501" lon="139.104280">
<ele>358.666667</ele>
<time>2026-09-26T23:52:14Z</time>
<speed>0.340000</speed>
<trueHeading>0.000000</trueHeading>
<magneticHeading>0.000000</magneticHeading>
<gpsHeading>147.673843</gpsHeading>
<haccuracy>13.612000</haccuracy>
<vaccuracy>13.612000</vaccuracy>
<internetconnect>2</internetconnect>
</trkpt>
<trkpt lat="35.803378" lon="139.104142">
<ele>355.666667</ele>
<time>2026-09-26T23:54:17Z</time>
<speed>0.121334</speed>
<trueHeading>0.000000</trueHeading>
<magneticHeading>0.000000</magneticHeading>
<gpsHeading>222.315750</gpsHeading>
<haccuracy>3.459000</haccuracy>
<vaccuracy>3.459000</vaccuracy>
<internetconnect>2</internetconnect>
</trkpt>
<trkpt lat="35.803442" lon="139.104177">
<ele>352.000000</ele>
<time>2026-09-26T23:56:32Z</time>
<speed>0.000000</speed>
<trueHeading>0.000000</trueHeading>
<magneticHeading>0.000000</magneticHeading>
<gpsHeading>23.535660</gpsHeading>
<haccuracy>12.749000</haccuracy>
<vaccuracy>12.749000</vaccuracy>
<internetconnect>2</internetconnect>
</trkpt>
<trkpt lat="35.803336" lon="139.104259">
<ele>350.666667</ele>
<time>2026-09-26T23:58:34Z</time>
<speed>0.167870</speed>
<trueHeading>0.000000</trueHeading>
<magneticHeading>0.000000</magneticHeading>
<gpsHeading>147.877563</gpsHeading>
<haccuracy>5.017000</haccuracy>
<vaccuracy>5.017000</vaccuracy>
<internetconnect>2</internetconnect>
</trkpt>
<trkpt lat="35.803320" lon="139.104149">
<ele>343.333333</ele>
<time>2026-09-27T00:00:43Z</time>
<speed>0.138091</speed>
<trueHeading>0.000000</trueHeading>
<magneticHeading>0.000000</magneticHeading>
<gpsHeading>260.197388</gpsHeading>
<haccuracy>3.918000</haccuracy>
<vaccuracy>3.918000</vaccuracy>
<internetconnect>2</internetconnect>
</trkpt>
<trkpt lat="35.803318" lon="139.103854">
<ele>338.666667</ele>
<time>2026-09-27T00:02:44Z</time>
<speed>0.095676</speed>
<trueHeading>0.000000</trueHeading>
<magneticHeading>0.000000</magneticHeading>
<gpsHeading>269.474426</gpsHeading>
<haccuracy>4.529000</haccuracy>
<vaccuracy>4.529000</vaccuracy>
<internetconnect>2</internetconnect>
</trkpt>
<trkpt lat="35.803438" lon="139.103764">
<ele>339.333333</ele>
<time>2026-09-27T00:04:51Z</time>
<speed>0.317245</speed>
<trueHeading>0.000000</trueHeading>
<magneticHeading>0.000000</magneticHeading>
<gpsHeading>328.646576</gpsHeading>
<haccuracy>3.422000</haccuracy>
<vaccuracy>3.422000</vaccuracy>
<internetconnect>2</internetconnect>
</trkpt>
<trkpt lat="35.803716" lon="139.103708">
<ele>349.333333</ele>
<time>2026-09-27T00:05:45Z</time>
<speed>0.073632</speed>
<trueHeading>0.000000</trueHeading>
<magneticHeading>0.000000</magneticHeading>
<gpsHeading>350.848358</gpsHeading>
<haccuracy>5.191000</haccuracy>
<vaccuracy>5.191000</vaccuracy>
<internetconnect>2</internetconnect>
</trkpt>
<trkpt lat="35.803958" lon="139.103556">
<ele>354.666667</ele>
<time>2026-09-27T00:07:48Z</time>
<speed>0.670000</speed>
<trueHeading>0.000000</trueHeading>
<magneticHeading>0.000000</magneticHeading>
<gpsHeading>332.862030</gpsHeading>
<haccuracy>10.888000</haccuracy>
<vaccuracy>10.888000</vaccuracy>
<internetconnect>2</internetconnect>
</trkpt>
<trkpt lat="35.804046" lon="139.103455">
<ele>350.333333</ele>
<time>2026-09-27T00:10:01Z</time>
<speed>0.440000</speed>
<trueHeading>0.000000</trueHeading>
<magneticHeading>0.000000</magneticHeading>
<gpsHeading>316.966827</gpsHeading>
<haccuracy>19.788000</haccuracy>
<vaccuracy>19.788000</vaccuracy>
<internetconnect>2</internetconnect>
</trkpt>
<trkpt lat="35.803977" lon="139.103303">
<ele>341.000000</ele>
<time>2026-09-27T00:12:06Z</time>
<speed>0.960000</speed>
<trueHeading>0.000000</trueHeading>
<magneticHeading>0.000000</magneticHeading>
<gpsHeading>240.885605</gpsHeading>
<haccuracy>10.419000</haccuracy>
<vaccuracy>10.419000</vaccuracy>
<internetconnect>2</internetconnect>
</trkpt>
<trkpt lat="35.804049" lon="139.103285">
<ele>335.000000</ele>
<time>2026-09-27T00:14:29Z</time>
<speed>0.168843</speed>
<trueHeading>0.000000</trueHeading>
<magneticHeading>0.000000</magneticHeading>
<gpsHeading>348.725464</gpsHeading>
<haccuracy>7.701000</haccuracy>
<vaccuracy>7.701000</vaccuracy>
<internetconnect>2</internetconnect>
</trkpt>
<trkpt lat="35.804233" lon="139.102982">
<ele>334.666667</ele>
<time>2026-09-27T00:16:06Z</time>
<speed>0.170000</speed>
<trueHeading>0.000000</trueHeading>
<magneticHeading>0.000000</magneticHeading>
<gpsHeading>306.908112</gpsHeading>
<haccuracy>11.422000</haccuracy>
<vaccuracy>11.422000</vaccuracy>
<internetconnect>2</internetconnect>
</trkpt>
<trkpt lat="35.804305" lon="139.102954">
<ele>334.666667</ele>
<time>2026-09-27T00:19:06Z</time>
<speed>0.000000</speed>
<trueHeading>0.000000</trueHeading>
<magneticHeading>0.000000</magneticHeading>
<gpsHeading>342.738800</gpsHeading>
<haccuracy>7.451000</haccuracy>
<vaccuracy>7.451000</vaccuracy>
<internetconnect>2</internetconnect>
</trkpt>
<trkpt lat="35.804563" lon="139.102819">
<ele>337.000000</ele>
<time>2026-09-27T00:20:23Z</time>
<speed>0.000000</speed>
<trueHeading>0.000000</trueHeading>
<magneticHeading>0.000000</magneticHeading>
<gpsHeading>336.920013</gpsHeading>
<haccuracy>13.089000</haccuracy>
<vaccuracy>13.089000</vaccuracy>
<internetconnect>2</internetconnect>
</trkpt>
<trkpt lat="35.804769" lon="139.102758">
<ele>337.333333</ele>
<time>2026-09-27T00:23:01Z</time>
<speed>0.640000</speed>
<trueHeading>0.000000</trueHeading>
<magneticHeading>0.000000</magneticHeading>
<gpsHeading>346.406464</gpsHeading>
<haccuracy>10.804000</haccuracy>
<vaccuracy>10.804000</vaccuracy>
<internetconnect>2</internetconnect>
</trkpt>
<trkpt lat="35.804894" lon="139.102606">
<ele>342.000000</ele>
<time>2026-09-27T00:25:21Z</time>
<speed>0.046139</speed>
<trueHeading>0.000000</trueHeading>
<magneticHeading>0.000000</magneticHeading>
<gpsHeading>315.526489</gpsHeading>
<haccuracy>11.308000</haccuracy>
<vaccuracy>11.308000</vaccuracy>
<internetconnect>2</internetconnect>
</trkpt>
<trkpt lat="35.804977" lon="139.102631">
<ele>341.333333</ele>
<time>2026-09-27T00:27:24Z</time>
<speed>0.230000</speed>
<trueHeading>0.000000</trueHeading>
<magneticHeading>0.000000</magneticHeading>
<gpsHeading>13.480967</gpsHeading>
<haccuracy>11.694000</haccuracy>
<vaccuracy>11.694000</vaccuracy>
<internetconnect>2</internetconnect>
</trkpt>
<trkpt lat="35.805058" lon="139.102610">
<ele>344.000000</ele>
<time>2026-09-27T00:29:49Z</time>
<speed>0.000000</speed>
<trueHeading>0.000000</trueHeading>
<magneticHeading>0.000000</magneticHeading>
<gpsHeading>347.859253</gpsHeading>
<haccuracy>9.854000</haccuracy>
<vaccuracy>9.854000</vaccuracy>
<internetconnect>2</internetconnect>
</trkpt>
<trkpt lat="35.805250" lon="139.102503">
<ele>358.333333</ele>
<time>2026-09-27T00:33:04Z</time>
<speed>0.000000</speed>
<trueHeading>0.000000</trueHeading>
<magneticHeading>0.000000</magneticHeading>
<gpsHeading>335.598145</gpsHeading>
<haccuracy>14.456000</haccuracy>
<vaccuracy>14.456000</vaccuracy>
<internetconnect>2</internetconnect>
</trkpt>
<trkpt lat="35.805534" lon="139.102488">
<ele>358.000000</ele>
<time>2026-09-27T00:33:51Z</time>
<speed>0.710000</speed>
<trueHeading>0.000000</trueHeading>
<magneticHeading>0.000000</magneticHeading>
<gpsHeading>357.649353</gpsHeading>
<haccuracy>29.712000</haccuracy>
<vaccuracy>29.712000</vaccuracy>
<internetconnect>2</internetconnect>
</trkpt>
<trkpt lat="35.805465" lon="139.102152">
<ele>359.333333</ele>
<time>2026-09-27T00:34:46Z</time>
<speed>0.000000</speed>
<trueHeading>0.000000</trueHeading>
<magneticHeading>0.000000</magneticHeading>
<gpsHeading>255.751740</gpsHeading>
<haccuracy>12.291000</haccuracy>
<vaccuracy>12.291000</vaccuracy>
<internetconnect>2</internetconnect>
</trkpt>
<trkpt lat="35.805458" lon="139.102197">
<ele>340.666667</ele>
<time>2026-09-27T00:36:47Z</time>
<speed>0.000000</speed>
<trueHeading>0.000000</trueHeading>
<magneticHeading>0.000000</magneticHeading>
<gpsHeading>100.441185</gpsHeading>
<haccuracy>11.354000</haccuracy>
<vaccuracy>11.354000</vaccuracy>
<internetconnect>2</internetconnect>
</trkpt>
<trkpt lat="35.805442" lon="139.102162">
<ele>343.666667</ele>
<time>2026-09-27T00:38:52Z</time>
<speed>0.000000</speed>
<trueHeading>0.000000</trueHeading>
<magneticHeading>0.000000</magneticHeading>
<gpsHeading>241.037064</gpsHeading>
<haccuracy>12.873000</haccuracy>
<vaccuracy>12.873000</vaccuracy>
<internetconnect>2</internetconnect>
</trkpt>
<trkpt lat="35.805535" lon="139.102112">
<ele>343.666667</ele>
<time>2026-09-27T00:40:54Z</time>
<speed>0.000000</speed>
<trueHeading>0.000000</trueHeading>
<magneticHeading>0.000000</magneticHeading>
<gpsHeading>336.263245</gpsHeading>
<haccuracy>12.845000</haccuracy>
<vaccuracy>12.845000</vaccuracy>
<internetconnect>2</internetconnect>
</trkpt>
<trkpt lat="35.805487" lon="139.102192">
<ele>364.333333</ele>
<time>2026-09-27T00:42:59Z</time>
<speed>0.000000</speed>
<trueHeading>0.000000</trueHeading>
<magneticHeading>0.000000</magneticHeading>
<gpsHeading>126.129639</gpsHeading>
<haccuracy>12.417000</haccuracy>
<vaccuracy>12.417000</vaccuracy>
<internetconnect>2</internetconnect>
</trkpt>
<trkpt lat="35.805628" lon="139.102503">
<ele>364.333333</ele>
<time>2026-09-27T00:45:05Z</time>
<speed>4.740000</speed>
<trueHeading>0.000000</trueHeading>
<magneticHeading>0.000000</magneticHeading>
<gpsHeading>60.702335</gpsHeading>
<haccuracy>14.874000</haccuracy>
<vaccuracy>14.874000</vaccuracy>
<internetconnect>2</internetconnect>
</trkpt>
<trkpt lat="35.805545" lon="139.102115">
<ele>360.666667</ele>
<time>2026-09-27T00:45:55Z</time>
<speed>0.000000</speed>
<trueHeading>0.000000</trueHeading>
<magneticHeading>0.000000</magneticHeading>
<gpsHeading>255.093643</gpsHeading>
<haccuracy>11.127000</haccuracy>
<vaccuracy>11.127000</vaccuracy>
<internetconnect>2</internetconnect>
</trkpt>
<trkpt lat="35.805543" lon="139.102041">
<ele>340.000000</ele>
<time>2026-09-27T00:48:58Z</time>
<speed>0.000000</speed>
<trueHeading>0.000000</trueHeading>
<magneticHeading>0.000000</magneticHeading>
<gpsHeading>268.277405</gpsHeading>
<haccuracy>36.728001</haccuracy>
<vaccuracy>36.728001</vaccuracy>
<internetconnect>2</internetconnect>
</trkpt>
<trkpt lat="35.805506" lon="139.102027">
<ele>336.000000</ele>
<time>2026-09-27T00:51:05Z</time>
<speed>0.000000</speed>
<trueHeading>0.000000</trueHeading>
<magneticHeading>0.000000</magneticHeading>
<gpsHeading>197.859512</gpsHeading>
<haccuracy>19.652000</haccuracy>
<vaccuracy>19.652000</vaccuracy>
<internetconnect>2</internetconnect>
</trkpt>
<trkpt lat="35.805490" lon="139.102029">
<ele>335.000000</ele>
<time>2026-09-27T00:53:30Z</time>
<speed>0.000000</speed>
<trueHeading>0.000000</trueHeading>
<magneticHeading>0.000000</magneticHeading>
<gpsHeading>173.676239</gpsHeading>
<haccuracy>17.101999</haccuracy>
<vaccuracy>17.101999</vaccuracy>
<internetconnect>2</internetconnect>
</trkpt>
<trkpt lat="35.805482" lon="139.102044">
<ele>334.000000</ele>
<time>2026-09-27T00:55:39Z</time>
<speed>0.000000</speed>
<trueHeading>0.000000</trueHeading>
<magneticHeading>0.000000</magneticHeading>
<gpsHeading>122.825943</gpsHeading>
<haccuracy>12.535000</haccuracy>
<vaccuracy>12.535000</vaccuracy>
<internetconnect>2</internetconnect>
</trkpt>
<trkpt lat="35.805462" lon="139.102038">
<ele>350.000000</ele>
<time>2026-09-27T00:59:20Z</time>
<speed>0.000000</speed>
<trueHeading>0.000000</trueHeading>
<magneticHeading>0.000000</magneticHeading>
<gpsHeading>193.911987</gpsHeading>
<haccuracy>15.517000</haccuracy>
<vaccuracy>15.517000</vaccuracy>
<internetconnect>2</internetconnect>
</trkpt>
<trkpt lat="35.805367" lon="139.102480">
<ele>354.333333</ele>
<time>2026-09-27T01:01:22Z</time>
<speed>0.000000</speed>
<trueHeading>0.000000</trueHeading>
<magneticHeading>0.000000</magneticHeading>
<gpsHeading>104.842094</gpsHeading>
<haccuracy>14.392000</haccuracy>
<vaccuracy>14.392000</vaccuracy>
<internetconnect>2</internetconnect>
</trkpt>
<trkpt lat="35.805335" lon="139.102435">
<ele>362.666667</ele>
<time>2026-09-27T01:03:34Z</time>
<speed>0.000000</speed>
<trueHeading>0.000000</trueHeading>
<magneticHeading>0.000000</magneticHeading>
<gpsHeading>229.354752</gpsHeading>
<haccuracy>8.546000</haccuracy>
<vaccuracy>8.546000</vaccuracy>
<internetconnect>2</internetconnect>
</trkpt>
<trkpt lat="35.805327" lon="139.102456">
<ele>347.333333</ele>
<time>2026-09-27T01:05:52Z</time>
<speed>0.000000</speed>
<trueHeading>0.000000</trueHeading>
<magneticHeading>0.000000</magneticHeading>
<gpsHeading>117.124878</gpsHeading>
<haccuracy>14.246000</haccuracy>
<vaccuracy>14.246000</vaccuracy>
<internetconnect>2</internetconnect>
</trkpt>
<trkpt lat="35.805048" lon="139.102514">
<ele>354.333333</ele>
<time>2026-09-27T01:07:10Z</time>
<speed>1.140000</speed>
<trueHeading>0.000000</trueHeading>
<magneticHeading>0.000000</magneticHeading>
<gpsHeading>170.403076</gpsHeading>
<haccuracy>13.617000</haccuracy>
<vaccuracy>13.617000</vaccuracy>
<internetconnect>2</internetconnect>
</trkpt>
<trkpt lat="35.804894" lon="139.102893">
<ele>349.333333</ele>
<time>2026-09-27T01:08:01Z</time>
<speed>2.370000</speed>
<trueHeading>0.000000</trueHeading>
<magneticHeading>0.000000</magneticHeading>
<gpsHeading>116.647049</gpsHeading>
<haccuracy>10.999000</haccuracy>
<vaccuracy>10.999000</vaccuracy>
<internetconnect>2</internetconnect>
</trkpt>
<trkpt lat="35.804902" lon="139.102634">
<ele>357.333333</ele>
<time>2026-09-27T01:10:03Z</time>
<speed>0.000000</speed>
<trueHeading>0.000000</trueHeading>
<magneticHeading>0.000000</magneticHeading>
<gpsHeading>272.154694</gpsHeading>
<haccuracy>12.222000</haccuracy>
<vaccuracy>12.222000</vaccuracy>
<internetconnect>2</internetconnect>
</trkpt>
<trkpt lat="35.804847" lon="139.102860">
<ele>356.000000</ele>
<time>2026-09-27T01:12:05Z</time>
<speed>0.000000</speed>
<trueHeading>0.000000</trueHeading>
<magneticHeading>0.000000</magneticHeading>
<gpsHeading>106.795456</gpsHeading>
<haccuracy>11.853000</haccuracy>
<vaccuracy>11.853000</vaccuracy>
<internetconnect>2</internetconnect>
</trkpt>
<trkpt lat="35.804832" lon="139.102920">
<ele>358.333333</ele>
<time>2026-09-27T01:14:06Z</time>
<speed>0.000000</speed>
<trueHeading>0.000000</trueHeading>
<magneticHeading>0.000000</magneticHeading>
<gpsHeading>106.293785</gpsHeading>
<haccuracy>11.941000</haccuracy>
<vaccuracy>11.941000</vaccuracy>
<internetconnect>2</internetconnect>
</trkpt>
<trkpt lat="35.804710" lon="139.102925">
<ele>359.666667</ele>
<time>2026-09-27T01:16:11Z</time>
<speed>0.000000</speed>
<trueHeading>0.000000</trueHeading>
<magneticHeading>0.000000</magneticHeading>
<gpsHeading>177.844131</gpsHeading>
<haccuracy>20.031000</haccuracy>
<vaccuracy>20.031000</vaccuracy>
<internetconnect>2</internetconnect>
</trkpt>
<trkpt lat="35.804811" lon="139.102914">
<ele>357.666667</ele>
<time>2026-09-27T01:18:57Z</time>
<speed>0.950000</speed>
<trueHeading>0.000000</trueHeading>
<magneticHeading>0.000000</magneticHeading>
<gpsHeading>354.678467</gpsHeading>
<haccuracy>11.145000</haccuracy>
<vaccuracy>11.145000</vaccuracy>
<internetconnect>2</internetconnect>
</trkpt>
<trkpt lat="35.804789" lon="139.102917">
<ele>362.000000</ele>
<time>2026-09-27T01:21:08Z</time>
<speed>0.000000</speed>
<trueHeading>0.000000</trueHeading>
<magneticHeading>0.000000</magneticHeading>
<gpsHeading>173.421265</gpsHeading>
<haccuracy>12.071000</haccuracy>
<vaccuracy>12.071000</vaccuracy>
<internetconnect>2</internetconnect>
</trkpt>
<trkpt lat="35.804869" lon="139.102932">
<ele>367.000000</ele>
<time>2026-09-27T01:23:11Z</time>
<speed>0.000000</speed>
<trueHeading>0.000000</trueHeading>
<magneticHeading>0.000000</magneticHeading>
<gpsHeading>8.975738</gpsHeading>
<haccuracy>11.710000</haccuracy>
<vaccuracy>11.710000</vaccuracy>
<internetconnect>2</internetconnect>
</trkpt>
<trkpt lat="35.804992" lon="139.102970">
<ele>372.000000</ele>
<time>2026-09-27T01:25:21Z</time>
<speed>0.000000</speed>
<trueHeading>0.000000</trueHeading>
<magneticHeading>0.000000</magneticHeading>
<gpsHeading>13.945793</gpsHeading>
<haccuracy>11.717000</haccuracy>
<vaccuracy>11.717000</vaccuracy>
<internetconnect>2</internetconnect>
</trkpt>
<trkpt lat="35.804988" lon="139.102930">
<ele>375.000000</ele>
<time>2026-09-27T01:27:31Z</time>
<speed>0.000000</speed>
<trueHeading>0.000000</trueHeading>
<magneticHeading>0.000000</magneticHeading>
<gpsHeading>262.988129</gpsHeading>
<haccuracy>12.046000</haccuracy>
<vaccuracy>12.046000</vaccuracy>
<internetconnect>2</internetconnect>
</trkpt>
<trkpt lat="35.804979" lon="139.102935">
<ele>379.666667</ele>
<time>2026-09-27T01:32:05Z</time>
<speed>0.000000</speed>
<trueHeading>0.000000</trueHeading>
<magneticHeading>0.000000</magneticHeading>
<gpsHeading>155.797180</gpsHeading>
<haccuracy>12.375000</haccuracy>
<vaccuracy>12.375000</vaccuracy>
<internetconnect>2</internetconnect>
</trkpt>
<trkpt lat="35.805048" lon="139.103106">
<ele>386.333333</ele>
<time>2026-09-27T01:34:14Z</time>
<speed>0.110167</speed>
<trueHeading>0.000000</trueHeading>
<magneticHeading>0.000000</magneticHeading>
<gpsHeading>63.746998</gpsHeading>
<haccuracy>3.004000</haccuracy>
<vaccuracy>3.004000</vaccuracy>
<internetconnect>2</internetconnect>
</trkpt>
<trkpt lat="35.805014" lon="139.103102">
<ele>393.000000</ele>
<time>2026-09-27T01:36:35Z</time>
<speed>0.414936</speed>
<trueHeading>0.000000</trueHeading>
<magneticHeading>0.000000</magneticHeading>
<gpsHeading>184.443054</gpsHeading>
<haccuracy>8.545000</haccuracy>
<vaccuracy>8.545000</vaccuracy>
<internetconnect>2</internetconnect>
</trkpt>
<trkpt lat="35.805019" lon="139.103098">
<ele>395.333333</ele>
<time>2026-09-27T01:39:52Z</time>
<speed>0.133761</speed>
<trueHeading>0.000000</trueHeading>
<magneticHeading>0.000000</magneticHeading>
<gpsHeading>324.721405</gpsHeading>
<haccuracy>5.611000</haccuracy>
<vaccuracy>5.611000</vaccuracy>
<internetconnect>2</internetconnect>
</trkpt>
<trkpt lat="35.805013" lon="139.103128">
<ele>395.333333</ele>
<time>2026-09-27T01:42:37Z</time>
<speed>0.191424</speed>
<trueHeading>0.000000</trueHeading>
<magneticHeading>0.000000</magneticHeading>
<gpsHeading>105.248749</gpsHeading>
<haccuracy>6.104000</haccuracy>
<vaccuracy>6.104000</vaccuracy>
<internetconnect>2</internetconnect>
</trkpt>
<trkpt lat="35.805009" lon="139.103138">
<ele>395.333333</ele>
<time>2026-09-27T01:45:00Z</time>
<speed>0.162744</speed>
<trueHeading>0.000000</trueHeading>
<magneticHeading>0.000000</magneticHeading>
<gpsHeading>115.805611</gpsHeading>
<haccuracy>5.590000</haccuracy>
<vaccuracy>5.590000</vaccuracy>
<internetconnect>2</internetconnect>
</trkpt>
<trkpt lat="35.805003" lon="139.103159">
<ele>393.000000</ele>
<time>2026-09-27T01:47:24Z</time>
<speed>0.162728</speed>
<trueHeading>0.000000</trueHeading>
<magneticHeading>0.000000</magneticHeading>
<gpsHeading>106.752869</gpsHeading>
<haccuracy>5.566000</haccuracy>
<vaccuracy>5.566000</vaccuracy>
<internetconnect>2</internetconnect>
</trkpt>
<trkpt lat="35.804993" lon="139.103149">
<ele>393.000000</ele>
<time>2026-09-27T01:52:41Z</time>
<speed>0.265077</speed>
<trueHeading>0.000000</trueHeading>
<magneticHeading>0.000000</magneticHeading>
<gpsHeading>218.763870</gpsHeading>
<haccuracy>6.688000</haccuracy>
<vaccuracy>6.688000</vaccuracy>
<internetconnect>2</internetconnect>
</trkpt>
<trkpt lat="35.804997" lon="139.103129">
<ele>390.666667</ele>
<time>2026-09-27T01:56:14Z</time>
<speed>0.187160</speed>
<trueHeading>0.000000</trueHeading>
<magneticHeading>0.000000</magneticHeading>
<gpsHeading>282.788055</gpsHeading>
<haccuracy>5.651000</haccuracy>
<vaccuracy>5.651000</vaccuracy>
<internetconnect>2</internetconnect>
</trkpt>
<trkpt lat="35.804992" lon="139.103107">
<ele>390.666667</ele>
<time>2026-09-27T01:59:40Z</time>
<speed>0.179134</speed>
<trueHeading>0.000000</trueHeading>
<magneticHeading>0.000000</magneticHeading>
<gpsHeading>255.605820</gpsHeading>
<haccuracy>5.302000</haccuracy>
<vaccuracy>5.302000</vaccuracy>
<internetconnect>2</internetconnect>
</trkpt>
<trkpt lat="35.805020" lon="139.103060">
<ele>392.000000</ele>
<time>2026-09-27T02:01:58Z</time>
<speed>0.459645</speed>
<trueHeading>0.000000</trueHeading>
<magneticHeading>0.000000</magneticHeading>
<gpsHeading>305.709656</gpsHeading>
<haccuracy>10.294000</haccuracy>
<vaccuracy>10.294000</vaccuracy>
<internetconnect>2</internetconnect>
</trkpt>
<trkpt lat="35.804938" lon="139.103280">
<ele>395.666667</ele>
<time>2026-09-27T02:04:02Z</time>
<speed>0.061899</speed>
<trueHeading>0.000000</trueHeading>
<magneticHeading>0.000000</magneticHeading>
<gpsHeading>114.527374</gpsHeading>
<haccuracy>4.446000</haccuracy>
<vaccuracy>4.446000</vaccuracy>
<internetconnect>2</internetconnect>
</trkpt>
<trkpt lat="35.804941" lon="139.103282">
<ele>394.000000</ele>
<time>2026-09-27T02:06:14Z</time>
<speed>0.179085</speed>
<trueHeading>0.000000</trueHeading>
<magneticHeading>0.000000</magneticHeading>
<gpsHeading>22.935041</gpsHeading>
<haccuracy>5.790000</haccuracy>
<vaccuracy>5.790000</vaccuracy>
<internetconnect>2</internetconnect>
</trkpt>
<trkpt lat="35.804922" lon="139.103168">
<ele>395.333333</ele>
<time>2026-09-27T02:08:15Z</time>
<speed>0.112518</speed>
<trueHeading>0.000000</trueHeading>
<magneticHeading>0.000000</magneticHeading>
<gpsHeading>258.307343</gpsHeading>
<haccuracy>5.508000</haccuracy>
<vaccuracy>5.508000</vaccuracy>
<internetconnect>2</internetconnect>
</trkpt>
<trkpt lat="35.804964" lon="139.103232">
<ele>394.000000</ele>
<time>2026-09-27T02:11:11Z</time>
<speed>0.000000</speed>
<trueHeading>0.000000</trueHeading>
<magneticHeading>0.000000</magneticHeading>
<gpsHeading>50.337765</gpsHeading>
<haccuracy>11.055000</haccuracy>
<vaccuracy>11.055000</vaccuracy>
<internetconnect>2</internetconnect>
</trkpt>
<trkpt lat="35.804995" lon="139.103204">
<ele>395.666667</ele>
<time>2026-09-27T02:13:18Z</time>
<speed>0.000000</speed>
<trueHeading>0.000000</trueHeading>
<magneticHeading>0.000000</magneticHeading>
<gpsHeading>323.045074</gpsHeading>
<haccuracy>19.353001</haccuracy>
<vaccuracy>19.353001</vaccuracy>
<internetconnect>2</internetconnect>
</trkpt>
<trkpt lat="35.804993" lon="139.103180">
<ele>397.666667</ele>
<time>2026-09-27T02:15:20Z</time>
<speed>0.000000</speed>
<trueHeading>0.000000</trueHeading>
<magneticHeading>0.000000</magneticHeading>
<gpsHeading>264.034607</gpsHeading>
<haccuracy>12.625000</haccuracy>
<vaccuracy>12.625000</vaccuracy>
<internetconnect>2</internetconnect>
</trkpt>
<trkpt lat="35.805275" lon="139.103030">
<ele>398.666667</ele>
<time>2026-09-27T02:17:10Z</time>
<speed>0.870000</speed>
<trueHeading>0.000000</trueHeading>
<magneticHeading>0.000000</magneticHeading>
<gpsHeading>336.539276</gpsHeading>
<haccuracy>11.662000</haccuracy>
<vaccuracy>11.662000</vaccuracy>
<internetconnect>2</internetconnect>
</trkpt>
<trkpt lat="35.805205" lon="139.102880">
<ele>401.666667</ele>
<time>2026-09-27T02:23:33Z</time>
<speed>0.000000</speed>
<trueHeading>0.000000</trueHeading>
<magneticHeading>0.000000</magneticHeading>
<gpsHeading>240.099777</gpsHeading>
<haccuracy>11.027000</haccuracy>
<vaccuracy>11.027000</vaccuracy>
<internetconnect>2</internetconnect>
</trkpt>
<trkpt lat="35.805239" lon="139.102885">
<ele>405.333333</ele>
<time>2026-09-27T02:25:38Z</time>
<speed>0.710000</speed>
<trueHeading>0.000000</trueHeading>
<magneticHeading>0.000000</magneticHeading>
<gpsHeading>7.091323</gpsHeading>
<haccuracy>12.267000</haccuracy>
<vaccuracy>12.267000</vaccuracy>
<internetconnect>2</internetconnect>
</trkpt>
<trkpt lat="35.805517" lon="139.102847">
<ele>410.666667</ele>
<time>2026-09-27T02:26:46Z</time>
<speed>0.000000</speed>
<trueHeading>0.000000</trueHeading>
<magneticHeading>0.000000</magneticHeading>
<gpsHeading>353.765656</gpsHeading>
<haccuracy>9.408000</haccuracy>
<vaccuracy>9.408000</vaccuracy>
<internetconnect>2</internetconnect>
</trkpt>
<trkpt lat="35.805499" lon="139.102714">
<ele>413.333333</ele>
<time>2026-09-27T02:29:00Z</time>
<speed>0.000000</speed>
<trueHeading>0.000000</trueHeading>
<magneticHeading>0.000000</magneticHeading>
<gpsHeading>260.729004</gpsHeading>
<haccuracy>11.280000</haccuracy>
<vaccuracy>11.280000</vaccuracy>
<internetconnect>2</internetconnect>
</trkpt>
<trkpt lat="35.805593" lon="139.102677">
<ele>413.333333</ele>
<time>2026-09-27T02:31:05Z</time>
<speed>0.000000</speed>
<trueHeading>0.000000</trueHeading>
<magneticHeading>0.000000</magneticHeading>
<gpsHeading>342.305115</gpsHeading>
<haccuracy>10.784000</haccuracy>
<vaccuracy>10.784000</vaccuracy>
<internetconnect>2</internetconnect>
</trkpt>
<trkpt lat="35.805804" lon="139.102529">
<ele>410.666667</ele>
<time>2026-09-27T02:33:11Z</time>
<speed>0.630000</speed>
<trueHeading>0.000000</trueHeading>
<magneticHeading>0.000000</magneticHeading>
<gpsHeading>330.444550</gpsHeading>
<haccuracy>10.998000</haccuracy>
<vaccuracy>10.998000</vaccuracy>
<internetconnect>2</internetconnect>
</trkpt>
<trkpt lat="35.806059" lon="139.102378">
<ele>408.666667</ele>
<time>2026-09-27T02:34:52Z</time>
<speed>0.000000</speed>
<trueHeading>0.000000</trueHeading>
<magneticHeading>0.000000</magneticHeading>
<gpsHeading>334.353821</gpsHeading>
<haccuracy>10.676000</haccuracy>
<vaccuracy>10.676000</vaccuracy>
<internetconnect>2</internetconnect>
</trkpt>
<trkpt lat="35.806100" lon="139.102369">
<ele>400.333333</ele>
<time>2026-09-27T02:37:00Z</time>
<speed>0.510000</speed>
<trueHeading>0.000000</trueHeading>
<magneticHeading>0.000000</magneticHeading>
<gpsHeading>349.526489</gpsHeading>
<haccuracy>10.719000</haccuracy>
<vaccuracy>10.719000</vaccuracy>
<internetconnect>2</internetconnect>
</trkpt>
<trkpt lat="35.806259" lon="139.102361">
<ele>392.000000</ele>
<time>2026-09-27T02:39:09Z</time>
<speed>0.000000</speed>
<trueHeading>0.000000</trueHeading>
<magneticHeading>0.000000</magneticHeading>
<gpsHeading>357.806488</gpsHeading>
<haccuracy>10.598000</haccuracy>
<vaccuracy>10.598000</vaccuracy>
<internetconnect>2</internetconnect>
</trkpt>
<trkpt lat="35.806303" lon="139.102161">
<ele>383.666667</ele>
<time>2026-09-27T02:41:39Z</time>
<speed>0.000000</speed>
<trueHeading>0.000000</trueHeading>
<magneticHeading>0.000000</magneticHeading>
<gpsHeading>285.126862</gpsHeading>
<haccuracy>8.796000</haccuracy>
<vaccuracy>8.796000</vaccuracy>
<internetconnect>2</internetconnect>
</trkpt>
<trkpt lat="35.806288" lon="139.102102">
<ele>375.000000</ele>
<time>2026-09-27T02:43:47Z</time>
<speed>0.680000</speed>
<trueHeading>0.000000</trueHeading>
<magneticHeading>0.000000</magneticHeading>
<gpsHeading>253.115952</gpsHeading>
<haccuracy>10.464000</haccuracy>
<vaccuracy>10.464000</vaccuracy>
<internetconnect>2</internetconnect>
</trkpt>
<trkpt lat="35.806281" lon="139.101845">
<ele>363.000000</ele>
<time>2026-09-27T02:45:55Z</time>
<speed>0.000000</speed>
<trueHeading>0.000000</trueHeading>
<magneticHeading>0.000000</magneticHeading>
<gpsHeading>268.134277</gpsHeading>
<haccuracy>10.541000</haccuracy>
<vaccuracy>10.541000</vaccuracy>
<internetconnect>2</internetconnect>
</trkpt>
<trkpt lat="35.806360" lon="139.101631">
<ele>352.666667</ele>
<time>2026-09-27T02:48:10Z</time>
<speed>0.000000</speed>
<trueHeading>0.000000</trueHeading>
<magneticHeading>0.000000</magneticHeading>
<gpsHeading>294.412628</gpsHeading>
<haccuracy>11.696000</haccuracy>
<vaccuracy>11.696000</vaccuracy>
<internetconnect>2</internetconnect>
</trkpt>
<trkpt lat="35.806253" lon="139.101753">
<ele>358.666667</ele>
<time>2026-09-27T02:50:13Z</time>
<speed>0.840000</speed>
<trueHeading>0.000000</trueHeading>
<magneticHeading>0.000000</magneticHeading>
<gpsHeading>137.300507</gpsHeading>
<haccuracy>5.307000</haccuracy>
<vaccuracy>5.307000</vaccuracy>
<internetconnect>2</internetconnect>
</trkpt>
<trkpt lat="35.806531" lon="139.101852">
<ele>365.333333</ele>
<time>2026-09-27T02:52:07Z</time>
<speed>6.600000</speed>
<trueHeading>0.000000</trueHeading>
<magneticHeading>0.000000</magneticHeading>
<gpsHeading>16.086208</gpsHeading>
<haccuracy>17.032000</haccuracy>
<vaccuracy>17.032000</vaccuracy>
<internetconnect>2</internetconnect>
</trkpt>
<trkpt lat="35.806128" lon="139.101938">
<ele>362.333333</ele>
<time>2026-09-27T02:52:54Z</time>
<speed>0.000000</speed>
<trueHeading>0.000000</trueHeading>
<magneticHeading>0.000000</magneticHeading>
<gpsHeading>170.194839</gpsHeading>
<haccuracy>6.368000</haccuracy>
<vaccuracy>6.368000</vaccuracy>
<internetconnect>2</internetconnect>
</trkpt>
<trkpt lat="35.805917" lon="139.101779">
<ele>355.333333</ele>
<time>2026-09-27T02:55:18Z</time>
<speed>0.000000</speed>
<trueHeading>0.000000</trueHeading>
<magneticHeading>0.000000</magneticHeading>
<gpsHeading>211.458374</gpsHeading>
<haccuracy>11.781000</haccuracy>
<vaccuracy>11.781000</vaccuracy>
<internetconnect>2</internetconnect>
</trkpt>
<trkpt lat="35.805773" lon="139.102024">
<ele>347.333333</ele>
<time>2026-09-27T02:57:27Z</time>
<speed>0.000000</speed>
<trueHeading>0.000000</trueHeading>
<magneticHeading>0.000000</magneticHeading>
<gpsHeading>125.905067</gpsHeading>
<haccuracy>17.639999</haccuracy>
<vaccuracy>17.639999</vaccuracy>
<internetconnect>2</internetconnect>
</trkpt>
<trkpt lat="35.805920" lon="139.101832">
<ele>346.000000</ele>
<time>2026-09-27T02:59:28Z</time>
<speed>0.105127</speed>
<trueHeading>0.000000</trueHeading>
<magneticHeading>0.000000</magneticHeading>
<gpsHeading>313.294006</gpsHeading>
<haccuracy>3.321000</haccuracy>
<vaccuracy>3.321000</vaccuracy>
<internetconnect>2</internetconnect>
</trkpt>
<trkpt lat="35.806130" lon="139.101570">
<ele>336.333333</ele>
<time>2026-09-27T03:00:57Z</time>
<speed>1.050000</speed>
<trueHeading>0.000000</trueHeading>
<magneticHeading>0.000000</magneticHeading>
<gpsHeading>314.714935</gpsHeading>
<haccuracy>11.591000</haccuracy>
<vaccuracy>11.591000</vaccuracy>
<internetconnect>2</internetconnect>
</trkpt>
<trkpt lat="35.806069" lon="139.101599">
<ele>335.666667</ele>
<time>2026-09-27T03:03:01Z</time>
<speed>0.000000</speed>
<trueHeading>0.000000</trueHeading>
<magneticHeading>0.000000</magneticHeading>
<gpsHeading>158.648285</gpsHeading>
<haccuracy>13.204000</haccuracy>
<vaccuracy>13.204000</vaccuracy>
<internetconnect>2</internetconnect>
</trkpt>
<trkpt lat="35.806140" lon="139.101647">
<ele>336.000000</ele>
<time>2026-09-27T03:05:23Z</time>
<speed>0.000000</speed>
<trueHeading>0.000000</trueHeading>
<magneticHeading>0.000000</magneticHeading>
<gpsHeading>28.855682</gpsHeading>
<haccuracy>15.494000</haccuracy>
<vaccuracy>15.494000</vaccuracy>
<internetconnect>2</internetconnect>
</trkpt>
<trkpt lat="35.806035" lon="139.101683">
<ele>333.000000</ele>
<time>2026-09-27T03:07:29Z</time>
<speed>0.000000</speed>
<trueHeading>0.000000</trueHeading>
<magneticHeading>0.000000</magneticHeading>
<gpsHeading>164.282593</gpsHeading>
<haccuracy>22.115999</haccuracy>
<vaccuracy>22.115999</vaccuracy>
<internetconnect>2</internetconnect>
</trkpt>
<trkpt lat="35.806035" lon="139.101314">
<ele>333.666667</ele>
<time>2026-09-27T03:08:15Z</time>
<speed>0.650000</speed>
<trueHeading>0.000000</trueHeading>
<magneticHeading>0.000000</magneticHeading>
<gpsHeading>270.133789</gpsHeading>
<haccuracy>14.832000</haccuracy>
<vaccuracy>14.832000</vaccuracy>
<internetconnect>2</internetconnect>
</trkpt>
<trkpt lat="35.806277" lon="139.101584">
<ele>336.333333</ele>
<time>2026-09-27T03:09:01Z</time>
<speed>0.042690</speed>
<trueHeading>0.000000</trueHeading>
<magneticHeading>0.000000</magneticHeading>
<gpsHeading>42.165955</gpsHeading>
<haccuracy>6.860000</haccuracy>
<vaccuracy>6.860000</vaccuracy>
<internetconnect>2</internetconnect>
</trkpt>
<trkpt lat="35.806447" lon="139.101571">
<ele>340.333333</ele>
<time>2026-09-27T03:11:03Z</time>
<speed>0.500000</speed>
<trueHeading>0.000000</trueHeading>
<magneticHeading>0.000000</magneticHeading>
<gpsHeading>356.674927</gpsHeading>
<haccuracy>12.925000</haccuracy>
<vaccuracy>12.925000</vaccuracy>
<internetconnect>2</internetconnect>
</trkpt>
<trkpt lat="35.806542" lon="139.101223">
<ele>338.000000</ele>
<time>2026-09-27T03:13:04Z</time>
<speed>0.086188</speed>
<trueHeading>0.000000</trueHeading>
<magneticHeading>0.000000</magneticHeading>
<gpsHeading>288.497589</gpsHeading>
<haccuracy>4.086000</haccuracy>
<vaccuracy>4.086000</vaccuracy>
<internetconnect>2</internetconnect>
</trkpt>
<trkpt lat="35.806492" lon="139.101081">
<ele>331.666667</ele>
<time>2026-09-27T03:15:09Z</time>
<speed>0.000000</speed>
<trueHeading>0.000000</trueHeading>
<magneticHeading>0.000000</magneticHeading>
<gpsHeading>246.811691</gpsHeading>
<haccuracy>13.961000</haccuracy>
<vaccuracy>13.961000</vaccuracy>
<internetconnect>2</internetconnect>
</trkpt>
<trkpt lat="35.806441" lon="139.101028">
<ele>331.000000</ele>
<time>2026-09-27T03:17:20Z</time>
<speed>0.000000</speed>
<trueHeading>0.000000</trueHeading>
<magneticHeading>0.000000</magneticHeading>
<gpsHeading>219.853699</gpsHeading>
<haccuracy>12.567000</haccuracy>
<vaccuracy>12.567000</vaccuracy>
<internetconnect>2</internetconnect>
</trkpt>
<trkpt lat="35.806355" lon="139.101342">
<ele>332.666667</ele>
<time>2026-09-27T03:19:23Z</time>
<speed>0.660000</speed>
<trueHeading>0.000000</trueHeading>
<magneticHeading>0.000000</magneticHeading>
<gpsHeading>108.829666</gpsHeading>
<haccuracy>11.381000</haccuracy>
<vaccuracy>11.381000</vaccuracy>
<internetconnect>2</internetconnect>
</trkpt>
<trkpt lat="35.806298" lon="139.101537">
<ele>347.666667</ele>
<time>2026-09-27T03:21:25Z</time>
<speed>0.810000</speed>
<trueHeading>0.000000</trueHeading>
<magneticHeading>0.000000</magneticHeading>
<gpsHeading>109.669464</gpsHeading>
<haccuracy>10.752000</haccuracy>
<vaccuracy>10.752000</vaccuracy>
<internetconnect>2</internetconnect>
</trkpt>
<trkpt lat="35.806511" lon="139.101733">
<ele>365.333333</ele>
<time>2026-09-27T03:23:29Z</time>
<speed>0.391928</speed>
<trueHeading>0.000000</trueHeading>
<magneticHeading>0.000000</magneticHeading>
<gpsHeading>36.720016</gpsHeading>
<haccuracy>5.406000</haccuracy>
<vaccuracy>5.406000</vaccuracy>
<internetconnect>2</internetconnect>
</trkpt>
<trkpt lat="35.806753" lon="139.101497">
<ele>384.000000</ele>
<time>2026-09-27T03:24:25Z</time>
<speed>1.000497</speed>
<trueHeading>0.000000</trueHeading>
<magneticHeading>0.000000</magneticHeading>
<gpsHeading>321.696930</gpsHeading>
<haccuracy>7.646000</haccuracy>
<vaccuracy>7.646000</vaccuracy>
<internetconnect>2</internetconnect>
</trkpt>
<trkpt lat="35.807105" lon="139.101348">
<ele>392.666667</ele>
<time>2026-09-27T03:25:14Z</time>
<speed>0.886266</speed>
<trueHeading>0.000000</trueHeading>
<magneticHeading>0.000000</magneticHeading>
<gpsHeading>341.035980</gpsHeading>
<haccuracy>5.677000</haccuracy>
<vaccuracy>5.677000</vaccuracy>
<internetconnect>2</internetconnect>
</trkpt>
<trkpt lat="35.807425" lon="139.101392">
<ele>392.000000</ele>
<time>2026-09-27T03:26:01Z</time>
<speed>0.863520</speed>
<trueHeading>0.000000</trueHeading>
<magneticHeading>0.000000</magneticHeading>
<gpsHeading>6.432150</gpsHeading>
<haccuracy>6.320000</haccuracy>
<vaccuracy>6.320000</vaccuracy>
<internetconnect>2</internetconnect>
</trkpt>
<trkpt lat="35.807523" lon="139.101211">
<ele>391.333333</ele>
<time>2026-09-27T03:28:03Z</time>
<speed>0.550000</speed>
<trueHeading>0.000000</trueHeading>
<magneticHeading>0.000000</magneticHeading>
<gpsHeading>303.816681</gpsHeading>
<haccuracy>9.997000</haccuracy>
<vaccuracy>9.997000</vaccuracy>
<internetconnect>2</internetconnect>
</trkpt>
<trkpt lat="35.807547" lon="139.101312">
<ele>390.666667</ele>
<time>2026-09-27T03:30:15Z</time>
<speed>0.000000</speed>
<trueHeading>0.000000</trueHeading>
<magneticHeading>0.000000</magneticHeading>
<gpsHeading>73.653793</gpsHeading>
<haccuracy>11.092000</haccuracy>
<vaccuracy>11.092000</vaccuracy>
<internetconnect>2</internetconnect>
</trkpt>
<trkpt lat="35.807590" lon="139.101246">
<ele>390.666667</ele>
<time>2026-09-27T03:33:09Z</time>
<speed>0.093182</speed>
<trueHeading>0.000000</trueHeading>
<magneticHeading>0.000000</magneticHeading>
<gpsHeading>308.488281</gpsHeading>
<haccuracy>7.177000</haccuracy>
<vaccuracy>7.177000</vaccuracy>
<internetconnect>2</internetconnect>
</trkpt>
<trkpt lat="35.807576" lon="139.101201">
<ele>376.666667</ele>
<time>2026-09-27T03:35:38Z</time>
<speed>0.000000</speed>
<trueHeading>0.000000</trueHeading>
<magneticHeading>0.000000</magneticHeading>
<gpsHeading>249.381882</gpsHeading>
<haccuracy>11.938000</haccuracy>
<vaccuracy>11.938000</vaccuracy>
<internetconnect>2</internetconnect>
</trkpt>
<trkpt lat="35.807410" lon="139.100974">
<ele>361.666667</ele>
<time>2026-09-27T03:37:43Z</time>
<speed>0.260000</speed>
<trueHeading>0.000000</trueHeading>
<magneticHeading>0.000000</magneticHeading>
<gpsHeading>228.007416</gpsHeading>
<haccuracy>10.680000</haccuracy>
<vaccuracy>10.680000</vaccuracy>
<internetconnect>2</internetconnect>
</trkpt>
<trkpt lat="35.807390" lon="139.100926">
<ele>348.666667</ele>
<time>2026-09-27T03:39:52Z</time>
<speed>0.000000</speed>
<trueHeading>0.000000</trueHeading>
<magneticHeading>0.000000</magneticHeading>
<gpsHeading>243.578720</gpsHeading>
<haccuracy>8.962000</haccuracy>
<vaccuracy>8.962000</vaccuracy>
<internetconnect>2</internetconnect>
</trkpt>
<trkpt lat="35.807592" lon="139.100789">
<ele>353.000000</ele>
<time>2026-09-27T03:41:57Z</time>
<speed>0.040493</speed>
<trueHeading>0.000000</trueHeading>
<magneticHeading>0.000000</magneticHeading>
<gpsHeading>331.163452</gpsHeading>
<haccuracy>4.801000</haccuracy>
<vaccuracy>4.801000</vaccuracy>
<internetconnect>2</internetconnect>
</trkpt>
<trkpt lat="35.807718" lon="139.100855">
<ele>352.333333</ele>
<time>2026-09-27T03:44:04Z</time>
<speed>0.000000</speed>
<trueHeading>0.000000</trueHeading>
<magneticHeading>0.000000</magneticHeading>
<gpsHeading>22.956161</gpsHeading>
<haccuracy>9.780000</haccuracy>
<vaccuracy>9.780000</vaccuracy>
<internetconnect>2</internetconnect>
</trkpt>
<trkpt lat="35.807725" lon="139.100677">
<ele>355.333333</ele>
<time>2026-09-27T03:46:41Z</time>
<speed>1.780000</speed>
<trueHeading>0.000000</trueHeading>
<magneticHeading>0.000000</magneticHeading>
<gpsHeading>273.132446</gpsHeading>
<haccuracy>6.033000</haccuracy>
<vaccuracy>6.033000</vaccuracy>
<internetconnect>2</internetconnect>
</trkpt>
<trkpt lat="35.808007" lon="139.100556">
<ele>353.666667</ele>
<time>2026-09-27T03:48:39Z</time>
<speed>0.410000</speed>
<trueHeading>0.000000</trueHeading>
<magneticHeading>0.000000</magneticHeading>
<gpsHeading>340.754395</gpsHeading>
<haccuracy>7.181000</haccuracy>
<vaccuracy>7.181000</vaccuracy>
<internetconnect>2</internetconnect>
</trkpt>
<trkpt lat="35.808196" lon="139.100480">
<ele>354.666667</ele>
<time>2026-09-27T03:50:42Z</time>
<speed>0.068439</speed>
<trueHeading>0.000000</trueHeading>
<magneticHeading>0.000000</magneticHeading>
<gpsHeading>341.934296</gpsHeading>
<haccuracy>3.020000</haccuracy>
<vaccuracy>3.020000</vaccuracy>
<internetconnect>2</internetconnect>
</trkpt>
<trkpt lat="35.808253" lon="139.100335">
<ele>359.666667</ele>
<time>2026-09-27T03:52:47Z</time>
<speed>0.096282</speed>
<trueHeading>0.000000</trueHeading>
<magneticHeading>0.000000</magneticHeading>
<gpsHeading>295.812714</gpsHeading>
<haccuracy>4.982000</haccuracy>
<vaccuracy>4.982000</vaccuracy>
<internetconnect>2</internetconnect>
</trkpt>
<trkpt lat="35.808546" lon="139.100310">
<ele>361.666667</ele>
<time>2026-09-27T03:53:49Z</time>
<speed>0.983049</speed>
<trueHeading>0.000000</trueHeading>
<magneticHeading>0.000000</magneticHeading>
<gpsHeading>356.016388</gpsHeading>
<haccuracy>4.815000</haccuracy>
<vaccuracy>4.815000</vaccuracy>
<internetconnect>2</internetconnect>
</trkpt>
<trkpt lat="35.808502" lon="139.099957">
<ele>366.000000</ele>
<time>2026-09-27T03:55:10Z</time>
<speed>1.274319</speed>
<trueHeading>0.000000</trueHeading>
<magneticHeading>0.000000</magneticHeading>
<gpsHeading>261.391815</gpsHeading>
<haccuracy>3.036000</haccuracy>
<vaccuracy>3.036000</vaccuracy>
<internetconnect>2</internetconnect>
</trkpt>
<trkpt lat="35.808658" lon="139.099713">
<ele>360.000000</ele>
<time>2026-09-27T03:57:17Z</time>
<speed>0.101347</speed>
<trueHeading>0.000000</trueHeading>
<magneticHeading>0.000000</magneticHeading>
<gpsHeading>308.198883</gpsHeading>
<haccuracy>3.333000</haccuracy>
<vaccuracy>3.333000</vaccuracy>
<internetconnect>2</internetconnect>
</trkpt>
<trkpt lat="35.808878" lon="139.099131">
<ele>356.333333</ele>
<time>2026-09-27T03:58:04Z</time>
<speed>1.328498</speed>
<trueHeading>0.000000</trueHeading>
<magneticHeading>0.000000</magneticHeading>
<gpsHeading>294.953644</gpsHeading>
<haccuracy>10.530000</haccuracy>
<vaccuracy>10.530000</vaccuracy>
<internetconnect>2</internetconnect>
</trkpt>
<trkpt lat="35.808923" lon="139.098678">
<ele>351.333333</ele>
<time>2026-09-27T03:58:51Z</time>
<speed>1.431345</speed>
<trueHeading>0.000000</trueHeading>
<magneticHeading>0.000000</magneticHeading>
<gpsHeading>277.006561</gpsHeading>
<haccuracy>5.368000</haccuracy>
<vaccuracy>5.368000</vaccuracy>
<internetconnect>2</internetconnect>
</trkpt>
<trkpt lat="35.808987" lon="139.097902">
<ele>349.000000</ele>
<time>2026-09-27T03:59:41Z</time>
<speed>1.250439</speed>
<trueHeading>0.000000</trueHeading>
<magneticHeading>0.000000</magneticHeading>
<gpsHeading>275.833191</gpsHeading>
<haccuracy>8.793000</haccuracy>
<vaccuracy>8.793000</vaccuracy>
<internetconnect>2</internetconnect>
</trkpt>
<trkpt lat="35.808697" lon="139.098115">
<ele>346.000000</ele>
<time>2026-09-27T04:01:17Z</time>
<speed>1.447920</speed>
<trueHeading>0.000000</trueHeading>
<magneticHeading>0.000000</magneticHeading>
<gpsHeading>149.102478</gpsHeading>
<haccuracy>5.321000</haccuracy>
<vaccuracy>5.321000</vaccuracy>
<internetconnect>2</internetconnect>
</trkpt>
<trkpt lat="35.808424" lon="139.097096">
<ele>344.000000</ele>
<time>2026-09-27T04:02:03Z</time>
<speed>1.540347</speed>
<trueHeading>0.000000</trueHeading>
<magneticHeading>0.000000</magneticHeading>
<gpsHeading>251.698364</gpsHeading>
<haccuracy>6.014000</haccuracy>
<vaccuracy>6.014000</vaccuracy>
<internetconnect>2</internetconnect>
</trkpt>
<trkpt lat="35.808657" lon="139.096768">
<ele>342.333333</ele>
<time>2026-09-27T04:02:51Z</time>
<speed>0.053090</speed>
<trueHeading>0.000000</trueHeading>
<magneticHeading>0.000000</magneticHeading>
<gpsHeading>311.219910</gpsHeading>
<haccuracy>4.518000</haccuracy>
<vaccuracy>4.518000</vaccuracy>
<internetconnect>2</internetconnect>
</trkpt>
<trkpt lat="35.808926" lon="139.096640">
<ele>342.333333</ele>
<time>2026-09-27T04:03:46Z</time>
<speed>1.418218</speed>
<trueHeading>0.000000</trueHeading>
<magneticHeading>0.000000</magneticHeading>
<gpsHeading>338.878082</gpsHeading>
<haccuracy>6.361000</haccuracy>
<vaccuracy>6.361000</vaccuracy>
<internetconnect>2</internetconnect>
</trkpt>
<trkpt lat="35.809028" lon="139.096862">
<ele>342.666667</ele>
<time>2026-09-27T04:05:53Z</time>
<speed>0.081986</speed>
<trueHeading>0.000000</trueHeading>
<magneticHeading>0.000000</magneticHeading>
<gpsHeading>60.301346</gpsHeading>
<haccuracy>4.238000</haccuracy>
<vaccuracy>4.238000</vaccuracy>
<internetconnect>2</internetconnect>
</trkpt>
<trkpt lat="35.808984" lon="139.096818">
<ele>343.000000</ele>
<time>2026-09-27T04:06:55Z</time>
<speed>0.092092</speed>
<trueHeading>-999.000000</trueHeading>
<magneticHeading>-999.000000</magneticHeading>
<gpsHeading>218.408417</gpsHeading>
<haccuracy>7.767000</haccuracy>
<vaccuracy>7.767000</vaccuracy>
<internetconnect>2</internetconnect>
</trkpt>
</trkseg></trk>
</gpx>
